station,valid,tmpf,dwpf,relh,drct,sknt,p01i,alti,vsby,feel
8A0,1/1/16 0:15,41,39.2,93.24,350,6,0,30.25,10,36.37
4A6,1/1/16 0:15,41,32,70.08,360,5,0,30.3,10,37.08
8A0,1/1/16 0:35,39.2,37.4,93.19,360,6,0,30.25,10,34.2
4A6,1/1/16 0:35,41,32,70.08,360,5,0,30.29,10,37.08
8A0,1/1/16 0:55,37.4,37.4,100,360,8,0,30.25,10,30.76
4A6,1/1/16 0:55,39.2,32,75.16,350,4,0,30.3,10,35.83
4A6,1/1/16 1:15,39.2,32,75.16,360,4,0,30.3,10,35.83
8A0,1/1/16 1:15,37.4,37.4,100,350,7,0,30.26,10,31.36
8A0,1/1/16 1:35,37.4,37.4,100,360,9,0,30.25,10,30.23
4A6,1/1/16 1:35,39.2,32,75.16,10,6,0,30.3,10,34.2
4A6,1/1/16 1:55,39.2,32,75.16,20,4,0,30.3,10,35.83
8A0,1/1/16 1:55,37.4,37.4,100,360,8,0,30.25,10,30.76
8A0,1/1/16 2:15,37.4,37.4,100,350,9,0,30.26,10,30.23
4A6,1/1/16 2:15,39.2,32,75.16,20,4,0,30.3,10,35.83
8A0,1/1/16 2:35,37.4,37.4,100,350,9,0,30.25,10,30.23
4A6,1/1/16 2:35,39.2,32,75.16,0,0,0,30.3,10,39.2
8A0,1/1/16 2:55,37.4,37.4,100,360,8,0,30.24,10,30.76
4A6,1/1/16 2:55,37.4,32,80.65,20,3,0,30.29,10,34.86
4A6,1/1/16 3:15,37.4,32,80.65,10,4,0,30.29,10,33.73
8A0,1/1/16 3:15,37.4,37.4,100,10,4,0,30.25,10,33.73
8A0,1/1/16 3:35,37.4,37.4,100,360,6,0,30.25,10,32.03
4A6,1/1/16 3:35,39.2,32,75.16,10,5,0,30.29,10,34.95
4A6,1/1/16 3:55,37.4,32,80.65,360,5,0,30.29,10,32.81
8A0,1/1/16 3:55,37.4,35.6,93.14,350,4,0,30.25,10,33.73
8A0,1/1/16 4:15,37.4,37.4,100,350,5,0,30.26,10,32.81
4A6,1/1/16 4:15,37.4,32,80.65,10,4,0,30.3,10,33.73
8A0,1/1/16 4:35,37.4,35.6,93.14,360,6,0,30.25,10,32.03
4A6,1/1/16 4:35,37.4,32,80.65,360,5,0,30.3,10,32.81
8A0,1/1/16 4:55,35.6,35.6,100,350,4,0,30.26,10,31.62
4A6,1/1/16 4:55,37.4,32,80.65,360,3,0,30.29,10,34.86
4A6,1/1/16 5:15,37.4,32,80.65,10,4,0,30.3,10,33.73
8A0,1/1/16 5:15,35.6,35.6,100,340,5,0,30.26,10,30.67
4A6,1/1/16 5:35,37.4,32,80.65,20,5,0,30.29,10,32.81
8A0,1/1/16 5:35,35.6,35.6,100,350,6,0,30.26,10,29.87
8A0,1/1/16 5:55,35.6,35.6,100,360,7,0,30.25,10,29.17
4A6,1/1/16 5:55,37.4,32,80.65,350,4,0,30.29,10,33.73
8A0,1/1/16 6:15,35.6,35.6,100,340,9,0,30.24,10,27.99
4A6,1/1/16 6:15,37.4,32,80.65,360,5,0,30.29,10,32.81
8A0,1/1/16 6:35,35.6,35.6,100,360,8,0,30.24,10,28.55
4A6,1/1/16 6:35,37.4,32,80.65,30,4,0,30.28,10,33.73
8A0,1/1/16 6:55,35.6,35.6,100,350,9,0,30.25,10,27.99
4A6,1/1/16 6:55,37.4,32,80.65,360,3,0,30.29,10,34.86
8A0,1/1/16 7:15,35.6,35.6,100,340,4,0,30.26,10,31.62
4A6,1/1/16 7:15,37.4,32,80.65,360,4,0,30.3,10,33.73
4A6,1/1/16 7:35,37.4,32,80.65,360,4,0,30.31,10,33.73
8A0,1/1/16 7:35,35.6,35.6,100,340,5,0,30.26,10,30.67
8A0,1/1/16 7:55,35.6,35.6,100,330,6,0,30.26,10,29.87
4A6,1/1/16 7:55,37.4,32,80.65,30,6,0,30.29,10,32.03
8A0,1/1/16 8:15,35.6,35.6,100,340,7,0,30.26,10,29.17
4A6,1/1/16 8:15,37.4,32,80.65,360,3,0,30.29,10,34.86
8A0,1/1/16 8:35,35.6,35.6,100,360,9,0,30.25,10,27.99
4A6,1/1/16 8:35,35.6,32,86.59,350,4,0,30.3,10,31.62
8A0,1/1/16 8:55,33.8,33.8,100,350,8,0,30.24,10,26.33
4A6,1/1/16 8:55,35.6,32,86.59,10,4,0,30.3,10,31.62
4A6,1/1/16 9:15,35.6,32,86.59,360,7,0,30.3,10,29.17
8A0,1/1/16 9:15,33.8,33.8,100,350,9,0,30.25,10,25.75
4A6,1/1/16 9:35,35.6,32,86.59,360,6,0,30.3,10,29.87
8A0,1/1/16 9:35,33.8,33.8,100,350,11,0,30.25,10,24.74
8A0,1/1/16 9:55,33.8,33.8,100,350,10,0,30.25,10,25.23
4A6,1/1/16 9:55,35.6,30.2,80.51,360,5,0,30.31,10,30.67
8A0,1/1/16 10:15,33.8,33.8,100,350,9,0,30.26,10,25.75
4A6,1/1/16 10:15,35.6,30.2,80.51,10,7,0,30.3,10,29.17
4A6,1/1/16 10:35,35.6,30.2,80.51,360,6,0,30.31,10,29.87
8A0,1/1/16 10:35,33.8,33.8,100,350,9,0,30.26,10,25.75
8A0,1/1/16 10:55,33.8,33.8,100,350,9,0,30.27,10,25.75
4A6,1/1/16 10:55,35.6,30.2,80.51,20,6,0,30.32,10,29.87
4A6,1/1/16 11:15,35.6,30.2,80.51,20,4,0,30.32,10,31.62
8A0,1/1/16 11:15,33.8,33.8,100,350,10,0,30.28,10,25.23
8A0,1/1/16 11:35,33.8,33.8,100,350,9,0,30.28,10,25.75
4A6,1/1/16 11:35,35.6,30.2,80.51,10,6,0,30.33,10,29.87
4A6,1/1/16 11:55,35.6,30.2,80.51,30,6,0,30.32,10,29.87
8A0,1/1/16 11:55,33.8,33.8,100,350,9,0,30.28,10,25.75
8A0,1/1/16 12:15,33.8,33.8,100,360,7,0,30.27,10,26.97
4A6,1/1/16 12:15,35.6,30.2,80.51,30,4,0,30.32,10,31.62
8A0,1/1/16 12:35,33.8,33.8,100,350,8,0,30.27,10,26.33
4A6,1/1/16 12:35,35.6,30.2,80.51,20,4,0,30.33,10,31.62
4A6,1/1/16 12:55,35.6,30.2,80.51,360,4,0,30.34,10,31.62
8A0,1/1/16 12:55,33.8,33.8,100,350,7,0,30.29,10,26.97
8A0,1/1/16 13:15,33.8,33.8,100,360,9,0,30.29,7,25.75
4A6,1/1/16 13:15,35.6,30.2,80.51,20,4,0,30.33,10,31.62
4A6,1/1/16 13:35,35.6,30.2,80.51,0,0,0,30.33,10,35.6
8A0,1/1/16 13:35,33.8,33.8,100,360,9,0,30.29,10,25.75
4A6,1/1/16 13:55,37.4,30.2,74.98,20,5,0,30.33,10,32.81
8A0,1/1/16 13:55,33.8,33.8,100,360,9,0,30.28,10,25.75
4A6,1/1/16 14:15,37.4,28.4,69.67,20,4,0,30.34,10,33.73
8A0,1/1/16 14:15,35.6,33.8,93.08,350,7,0,30.28,10,29.17
8A0,1/1/16 14:35,35.6,33.8,93.08,20,7,0,30.28,10,29.17
4A6,1/1/16 14:35,37.4,28.4,69.67,30,6,0,30.33,10,32.03
8A0,1/1/16 14:55,35.6,33.8,93.08,360,8,0,30.3,10,28.55
4A6,1/1/16 14:55,37.4,30.2,74.98,20,6,0,30.33,10,32.03
8A0,1/1/16 15:15,35.6,35.6,100,340,7,0,30.3,10,29.17
4A6,1/1/16 15:15,37.4,28.4,69.67,20,8,0,30.35,10,30.76
8A0,1/1/16 15:35,35.6,33.8,93.08,340,8,0,30.31,10,28.55
4A6,1/1/16 15:35,37.4,28.4,69.67,10,7,0,30.34,10,31.36
8A0,1/1/16 15:55,35.6,33.8,93.08,360,8,0,30.31,10,28.55
4A6,1/1/16 15:55,39.2,28.4,64.93,30,5,0,30.34,10,34.95
4A6,1/1/16 16:15,39.2,28.4,64.93,360,7,0,30.35,10,33.56
8A0,1/1/16 16:15,35.6,35.6,100,320,9,0,30.31,10,27.99
8A0,1/1/16 16:35,37.4,35.6,93.14,330,12,0,30.31,10,28.87
4A6,1/1/16 16:35,39.2,28.4,64.93,360,6,0,30.35,10,34.2
4A6,1/1/16 16:55,39.2,28.4,64.93,350,5,0,30.35,10,34.95
8A0,1/1/16 16:55,37.4,33.8,86.69,340,10,0,30.31,10,29.74
4A6,1/1/16 17:15,39.2,28.4,64.93,350,5,0,30.34,10,34.95
8A0,1/1/16 17:15,37.4,33.8,86.69,340,10,0,30.31,10,29.74
4A6,1/1/16 17:35,39.2,28.4,64.93,10,6,0,30.34,10,34.2
8A0,1/1/16 17:35,37.4,33.8,86.69,350,9,0,30.29,10,30.23
4A6,1/1/16 17:55,39.2,28.4,64.93,10,6,0,30.33,10,34.2
8A0,1/1/16 17:55,35.6,33.8,93.08,340,10,0,30.29,10,27.48
4A6,1/1/16 18:15,39.2,28.4,64.93,40,5,0,30.32,10,34.95
8A0,1/1/16 18:15,37.4,33.8,86.69,340,10,0,30.29,10,29.74
8A0,1/1/16 18:35,37.4,33.8,86.69,350,11,0,30.27,10,29.29
4A6,1/1/16 18:35,39.2,28.4,64.93,330,3,0,30.31,10,36.92
4A6,1/1/16 18:55,39.2,28.4,64.93,0,0,0,30.31,10,39.2
8A0,1/1/16 18:55,37.4,33.8,86.69,330,7,0,30.27,10,31.36
8A0,1/1/16 19:15,37.4,33.8,86.69,320,8,0,30.27,10,30.76
4A6,1/1/16 19:15,41,28.4,60.54,20,4,0,30.3,10,37.93
8A0,1/1/16 19:35,37.4,33.8,86.69,340,6,0,30.27,10,32.03
4A6,1/1/16 19:35,41,26.6,56.22,20,5,0,30.3,10,37.08
8A0,1/1/16 19:55,37.4,33.8,86.69,320,7,0,30.28,10,31.36
4A6,1/1/16 19:55,41,28.4,60.54,340,3,0,30.3,10,38.98
4A6,1/1/16 20:15,41,28.4,60.54,340,4,0,30.3,10,37.93
8A0,1/1/16 20:15,37.4,32,80.65,340,7,0,30.27,10,31.36
8A0,1/1/16 20:35,37.4,32,80.65,330,7,0,30.28,10,31.36
4A6,1/1/16 20:35,41,28.4,60.54,340,5,0,30.31,10,37.08
8A0,1/1/16 20:55,37.4,33.8,86.69,330,6,0,30.28,10,32.03
4A6,1/1/16 20:55,41,28.4,60.54,320,5,0,30.31,10,37.08
8A0,1/1/16 21:15,37.4,32,80.65,330,10,0,30.27,10,29.74
4A6,1/1/16 21:15,41,26.6,56.22,340,6,0,30.3,10,36.37
4A6,1/1/16 21:35,39.2,26.6,60.29,330,6,0,30.3,10,34.2
8A0,1/1/16 21:35,37.4,32,80.65,350,10,0,30.27,10,29.74
4A6,1/1/16 21:55,39.2,26.6,60.29,340,5,0,30.3,10,34.95
8A0,1/1/16 21:55,37.4,32,80.65,340,7,0,30.27,10,31.36
4A6,1/1/16 22:15,39.2,26.6,60.29,340,3,0,30.3,10,36.92
8A0,1/1/16 22:15,37.4,32,80.65,320,6,0,30.28,10,32.03
8A0,1/1/16 22:35,37.4,32,80.65,340,6,0,30.28,10,32.03
4A6,1/1/16 22:35,39.2,26.6,60.29,330,4,0,30.31,10,35.83
8A0,1/1/16 22:55,37.4,32,80.65,320,5,0,30.29,10,32.81
4A6,1/1/16 22:55,39.2,26.6,60.29,310,3,0,30.32,10,36.92
8A0,1/1/16 23:15,37.4,32,80.65,320,6,0,30.29,10,32.03
4A6,1/1/16 23:15,37.4,26.6,64.7,0,0,0,30.32,10,37.4
4A6,1/1/16 23:35,37.4,26.6,64.7,0,0,0,30.32,10,37.4
8A0,1/1/16 23:35,35.6,32,86.59,320,7,0,30.29,10,29.17
4A6,1/1/16 23:55,37.4,28.4,69.67,0,0,0,30.33,10,37.4
8A0,1/1/16 23:55,35.6,32,86.59,330,6,0,30.29,10,29.87
4A6,1/2/16 0:15,37.4,28.4,69.67,0,0,0,30.33,10,37.4
8A0,1/2/16 0:15,35.6,32,86.59,320,5,0,30.31,10,30.67
8A0,1/2/16 0:35,35.6,32,86.59,340,7,0,30.31,10,29.17
4A6,1/2/16 0:35,35.6,30.2,80.51,0,0,0,30.34,10,35.6
8A0,1/2/16 0:55,35.6,32,86.59,340,5,0,30.31,10,30.67
4A6,1/2/16 0:55,35.6,32,86.59,0,0,0,30.34,10,35.6
8A0,1/2/16 1:15,35.6,32,86.59,340,5,0,30.31,10,30.67
4A6,1/2/16 1:15,35.6,28.4,74.8,0,0,0,30.35,10,35.6
4A6,1/2/16 1:35,35.6,32,86.59,0,0,0,30.35,10,35.6
8A0,1/2/16 1:35,35.6,32,86.59,330,4,0,30.31,10,31.62
4A6,1/2/16 1:55,35.6,32,86.59,0,0,0,30.36,10,35.6
8A0,1/2/16 1:55,35.6,32,86.59,320,4,0,30.32,10,31.62
4A6,1/2/16 2:15,35.6,32,86.59,0,0,0,30.36,10,35.6
8A0,1/2/16 2:15,35.6,33.8,93.08,310,4,0,30.34,10,31.62
8A0,1/2/16 2:35,35.6,32,86.59,330,5,0,30.32,10,30.67
4A6,1/2/16 2:35,35.6,32,86.59,0,0,0,30.37,10,35.6
4A6,1/2/16 2:55,35.6,32,86.59,0,0,0,30.37,10,35.6
8A0,1/2/16 2:55,35.6,33.8,93.08,320,4,0,30.32,10,31.62
8A0,1/2/16 3:15,35.6,32,86.59,330,3,0,30.32,10,32.8
4A6,1/2/16 3:15,35.6,32,86.59,0,0,0,30.35,10,35.6
4A6,1/2/16 3:35,35.6,32,86.59,0,0,0,30.36,10,35.6
8A0,1/2/16 3:35,35.6,32,86.59,330,3,0,30.32,10,32.8
8A0,1/2/16 3:55,35.6,33.8,93.08,0,0,0,30.32,10,35.6
4A6,1/2/16 3:55,33.8,32,93.03,0,0,0,30.36,10,33.8
8A0,1/2/16 4:15,35.6,32,86.59,360,4,0,30.32,10,31.62
4A6,1/2/16 4:15,33.8,32,93.03,0,0,0,30.36,10,33.8
4A6,1/2/16 4:35,33.8,32,93.03,0,0,0,30.35,10,33.8
8A0,1/2/16 4:35,35.6,32,86.59,0,0,0,30.32,10,35.6
4A6,1/2/16 4:55,33.8,32,93.03,0,0,0,30.35,10,33.8
8A0,1/2/16 4:55,35.6,32,86.59,350,3,0,30.32,10,32.8
4A6,1/2/16 5:15,33.8,32,93.03,0,0,0,30.35,10,33.8
8A0,1/2/16 5:15,35.6,32,86.59,320,3,0,30.32,10,32.8
4A6,1/2/16 5:35,33.8,32,93.03,0,0,0,30.35,10,33.8
8A0,1/2/16 5:35,35.6,32,86.59,310,4,0,30.32,10,31.62
8A0,1/2/16 5:55,35.6,32,86.59,310,4,0,30.31,10,31.62
4A6,1/2/16 5:55,32,32,100,0,0,0,30.34,10,32
8A0,1/2/16 6:15,35.6,32,86.59,300,5,0,30.31,10,30.67
4A6,1/2/16 6:15,32,32,100,0,0,0,30.34,10,32
8A0,1/2/16 6:35,33.8,32,93.03,310,5,0,30.29,10,28.53
4A6,1/2/16 6:35,32,32,100,0,0,0,30.33,10,32
4A6,1/2/16 6:55,32,32,100,0,0,0,30.33,10,32
8A0,1/2/16 6:55,33.8,32,93.03,320,3,0,30.29,10,30.75
4A6,1/2/16 7:15,32,30.2,92.97,0,0,0,30.33,10,32
8A0,1/2/16 7:15,33.8,32,93.03,320,4,0,30.29,10,29.52
4A6,1/2/16 7:35,32,30.2,92.97,0,0,0,30.33,10,32
8A0,1/2/16 7:35,33.8,32,93.03,320,5,0,30.29,10,28.53
4A6,1/2/16 7:55,32,30.2,92.97,0,0,0,30.34,10,32
8A0,1/2/16 7:55,33.8,32,93.03,330,6,0,30.3,10,27.7
4A6,1/2/16 8:15,32,30.2,92.97,0,0,0,30.33,10,32
8A0,1/2/16 8:15,33.8,32,93.03,340,7,0,30.29,10,26.97
4A6,1/2/16 8:35,32,30.2,92.97,0,0,0,30.34,9,32
8A0,1/2/16 8:35,33.8,32,93.03,340,5,0,30.29,10,28.53
4A6,1/2/16 8:55,32,30.2,92.97,0,0,0,30.33,10,32
8A0,1/2/16 8:55,33.8,32,93.03,360,4,0,30.29,10,29.52
8A0,1/2/16 9:15,33.8,32,93.03,340,4,0,30.3,10,29.52
4A6,1/2/16 9:15,32,30.2,92.97,0,0,0,30.33,10,32
4A6,1/2/16 9:35,32,28.4,86.39,0,0,0,30.34,10,32
8A0,1/2/16 9:35,33.8,32,93.03,330,3,0,30.3,10,30.75
8A0,1/2/16 9:55,32,32,100,360,5,0,30.29,10,26.4
4A6,1/2/16 9:55,32,30.2,92.97,0,0,0,30.33,10,32
8A0,1/2/16 10:15,32,32,100,360,4,0,30.29,10,27.42
4A6,1/2/16 10:15,32,30.2,92.97,0,0,0,30.32,9,32
4A6,1/2/16 10:35,30.2,30.2,100,0,0,0,30.33,9,30.2
8A0,1/2/16 10:35,32,32,100,360,4,0,30.29,10,27.42
4A6,1/2/16 10:55,30.2,30.2,100,0,0,0,30.33,9,30.2
8A0,1/2/16 10:55,32,32,100,360,4,0,30.29,10,27.42
4A6,1/2/16 11:15,30.2,30.2,100,0,0,0,30.32,8,30.2
8A0,1/2/16 11:15,32,32,100,0,0,0,30.29,10,32
8A0,1/2/16 11:35,30.2,30.2,100,0,0,0,30.3,10,30.2
4A6,1/2/16 11:35,30.2,30.2,100,0,0,0,30.32,9,30.2
8A0,1/2/16 11:55,32,32,100,0,0,0,30.3,10,32
4A6,1/2/16 11:55,30.2,30.2,100,0,0,0,30.34,10,30.2
4A6,1/2/16 12:15,30.2,28.4,92.92,0,0,0,30.35,10,30.2
8A0,1/2/16 12:15,32,32,100,360,7,0,30.3,10,24.78
8A0,1/2/16 12:35,32,30.2,92.97,10,6,0,30.3,10,25.53
4A6,1/2/16 12:35,28.4,28.4,100,0,0,0,30.35,10,28.4
8A0,1/2/16 12:55,32,30.2,92.97,360,5,0,30.31,10,26.4
4A6,1/2/16 12:55,28.4,28.4,100,0,0,0,30.35,10,28.4
4A6,1/2/16 13:15,28.4,28.4,100,0,0,0,30.35,7,28.4
8A0,1/2/16 13:15,32,30.2,92.97,360,4,0,30.31,10,27.42
4A6,1/2/16 13:35,28.4,28.4,100,0,0,0,30.36,7,28.4
8A0,1/2/16 13:35,32,30.2,92.97,10,4,0,30.31,10,27.42
4A6,1/2/16 13:55,30.2,28.4,92.92,0,0,0,30.36,9,30.2
8A0,1/2/16 13:55,32,32,100,20,4,0,30.32,10,27.42
4A6,1/2/16 14:15,30.2,28.4,92.92,0,0,0,30.37,10,30.2
8A0,1/2/16 14:15,32,32,100,10,4,0,30.33,10,27.42
4A6,1/2/16 14:35,32,28.4,86.39,0,0,0,30.37,10,32
8A0,1/2/16 14:35,33.8,32,93.03,360,4,0,30.33,10,29.52
4A6,1/2/16 14:55,33.8,30.2,86.49,0,0,0,30.38,10,33.8
8A0,1/2/16 14:55,33.8,32,93.03,20,5,0,30.32,10,28.53
4A6,1/2/16 15:15,33.8,28.4,80.36,60,3,0,30.37,10,30.75
8A0,1/2/16 15:15,35.6,32,86.59,360,4,0,30.33,10,31.62
8A0,1/2/16 15:35,35.6,32,86.59,10,4,0,30.33,10,31.62
4A6,1/2/16 15:35,35.6,28.4,74.8,50,3,0,30.37,10,32.8
4A6,1/2/16 15:55,37.4,28.4,69.67,0,0,0,30.38,10,37.4
8A0,1/2/16 15:55,35.6,32,86.59,40,6,0,30.34,10,29.87
4A6,1/2/16 16:15,37.4,26.6,64.7,50,3,0,30.37,10,34.86
8A0,1/2/16 16:15,37.4,32,80.65,30,8,0,30.32,10,30.76
4A6,1/2/16 16:35,39.2,28.4,64.93,0,0,0,30.36,10,39.2
8A0,1/2/16 16:35,37.4,30.2,74.98,360,7,0,30.31,10,31.36
4A6,1/2/16 16:55,39.2,26.6,60.29,30,3,0,30.34,10,36.92
8A0,1/2/16 16:55,39.2,30.2,69.88,350,6,0,30.31,10,34.2
8A0,1/2/16 17:15,41,32,70.08,350,7,0,30.29,10,35.75
4A6,1/2/16 17:15,41,26.6,56.22,0,0,0,30.33,10,41
4A6,1/2/16 17:35,42.8,26.6,52.45,0,0,0,30.32,10,42.8
8A0,1/2/16 17:35,41,32,70.08,340,7,0,30.29,10,35.75
4A6,1/2/16 17:55,42.8,26.6,52.45,330,4,0,30.29,10,40.03
8A0,1/2/16 17:55,41,32,70.08,340,5,0,30.26,10,37.08
4A6,1/2/16 18:15,44.6,26.6,48.96,0,0,0,30.27,10,44.6
8A0,1/2/16 18:15,41,32,70.08,310,3,0,30.26,10,38.98
8A0,1/2/16 18:35,41,32,70.08,310,4,0,30.25,10,37.93
4A6,1/2/16 18:35,44.6,24.8,45.44,20,3,0,30.26,10,43.09
8A0,1/2/16 18:55,42.8,32,65.38,310,5,0,30.24,10,39.22
4A6,1/2/16 18:55,46.4,24.8,42.44,170,3,0,30.25,10,45.15
8A0,1/2/16 19:15,42.8,30.2,60.79,320,5,0,30.22,10,39.22
4A6,1/2/16 19:15,46.4,24.8,42.44,230,5,0,30.24,10,43.5
8A0,1/2/16 19:35,42.8,30.2,60.79,330,5,0,30.22,10,39.22
4A6,1/2/16 19:35,46.4,24.8,42.44,200,3,0,30.23,10,45.15
4A6,1/2/16 19:55,48.2,24.8,39.66,240,3,0,30.23,10,47.21
8A0,1/2/16 19:55,44.6,32,61.03,350,5,0,30.22,10,41.36
4A6,1/2/16 20:15,48.2,26.6,42.73,200,5,0,30.22,10,45.63
8A0,1/2/16 20:15,44.6,30.2,56.74,300,3,0,30.2,10,43.09
4A6,1/2/16 20:35,48.2,26.6,42.73,200,6,0,30.22,10,45.04
8A0,1/2/16 20:35,44.6,30.2,56.74,300,4,0,30.2,10,42.13
4A6,1/2/16 20:55,48.2,26.6,42.73,190,6,0,30.21,10,45.04
8A0,1/2/16 20:55,44.6,30.2,56.74,330,3,0,30.2,10,43.09
4A6,1/2/16 21:15,46.4,26.6,45.73,200,4,0,30.2,10,44.24
8A0,1/2/16 21:15,44.6,32,61.03,320,5,0,30.19,10,41.36
8A0,1/2/16 21:35,44.6,32,61.03,310,5,0,30.19,10,41.36
4A6,1/2/16 21:35,46.4,26.6,45.73,190,7,0,30.2,10,42.33
8A0,1/2/16 21:55,44.6,32,61.03,320,3,0,30.19,10,43.09
4A6,1/2/16 21:55,46.4,28.4,49.24,200,4,0,30.2,10,44.24
4A6,1/2/16 22:15,46.4,28.4,49.24,200,5,0,30.21,10,43.5
8A0,1/2/16 22:15,42.8,32,65.38,0,0,0,30.2,10,42.8
8A0,1/2/16 22:35,42.8,32,65.38,280,4,0,30.19,10,40.03
4A6,1/2/16 22:35,46.4,24.8,42.44,240,5,0,30.21,10,43.5
4A6,1/2/16 22:55,44.6,23,42.14,270,5,0,30.21,10,41.36
8A0,1/2/16 22:55,41,32,70.08,280,5,0,30.19,10,37.08
4A6,1/2/16 23:15,44.6,23,42.14,290,3,0,30.21,10,43.09
8A0,1/2/16 23:15,41,30.2,65.16,290,4,0,30.19,10,37.93
8A0,1/2/16 23:35,39.2,30.2,69.88,290,4,0,30.19,10,35.83
4A6,1/2/16 23:35,44.6,23,42.14,0,0,0,30.21,10,44.6
4A6,1/2/16 23:55,41,26.6,56.22,0,0,0,30.21,10,41
8A0,1/2/16 23:55,39.2,30.2,69.88,300,4,0,30.19,10,35.83
4A6,1/3/16 0:15,39.2,28.4,64.93,320,3,0,30.21,10,36.92
8A0,1/3/16 0:15,39.2,30.2,69.88,290,4,0,30.19,10,35.83
4A6,1/3/16 0:35,37.4,28.4,69.67,0,0,0,30.22,10,37.4
8A0,1/3/16 0:35,37.4,30.2,74.98,310,4,0,30.19,10,33.73
8A0,1/3/16 0:55,37.4,30.2,74.98,300,3,0,30.2,10,34.86
4A6,1/3/16 0:55,37.4,28.4,69.67,0,0,0,30.22,10,37.4
8A0,1/3/16 1:15,37.4,30.2,74.98,290,4,0,30.19,10,33.73
4A6,1/3/16 1:15,37.4,28.4,69.67,230,3,0,30.22,10,34.86
8A0,1/3/16 1:35,37.4,30.2,74.98,280,4,0,30.2,10,33.73
4A6,1/3/16 1:35,33.8,26.6,74.63,0,0,0,30.22,10,33.8
8A0,1/3/16 1:55,35.6,32,86.59,280,4,0,30.2,10,31.62
4A6,1/3/16 1:55,33.8,28.4,80.36,0,0,0,30.22,10,33.8
4A6,1/3/16 2:15,33.8,28.4,80.36,0,0,0,30.22,10,33.8
8A0,1/3/16 2:15,37.4,30.2,74.98,280,3,0,30.2,10,34.86
8A0,1/3/16 2:35,35.6,30.2,80.51,260,3,0,30.2,10,32.8
4A6,1/3/16 2:35,32,28.4,86.39,0,0,0,30.23,10,32
4A6,1/3/16 2:55,32,28.4,86.39,0,0,0,30.23,10,32
8A0,1/3/16 2:55,35.6,30.2,80.51,260,3,0,30.2,10,32.8
8A0,1/3/16 3:15,35.6,30.2,80.51,260,4,0,30.19,10,31.62
4A6,1/3/16 3:15,32,28.4,86.39,0,0,0,30.23,10,32
8A0,1/3/16 3:35,35.6,32,86.59,270,5,0,30.19,10,30.67
4A6,1/3/16 3:35,32,28.4,86.39,0,0,0,30.23,10,32
4A6,1/3/16 3:55,32,28.4,86.39,0,0,0,30.22,10,32
8A0,1/3/16 3:55,35.6,30.2,80.51,270,5,0,30.19,10,30.67
4A6,1/3/16 4:15,32,28.4,86.39,0,0,0,30.21,10,32
8A0,1/3/16 4:15,35.6,30.2,80.51,0,0,0,30.19,10,35.6
4A6,1/3/16 4:35,32,28.4,86.39,0,0,0,30.21,10,32
8A0,1/3/16 4:35,33.8,30.2,86.49,290,3,0,30.18,10,30.75
4A6,1/3/16 4:55,30.2,28.4,92.92,0,0,0,30.21,10,30.2
8A0,1/3/16 4:55,33.8,32,93.03,290,3,0,30.18,10,30.75
8A0,1/3/16 5:15,32,30.2,92.97,0,0,0,30.18,10,32
4A6,1/3/16 5:15,30.2,28.4,92.92,0,0,0,30.21,10,30.2
4A6,1/3/16 5:35,30.2,28.4,92.92,0,0,0,30.2,10,30.2
8A0,1/3/16 5:35,33.8,30.2,86.49,0,0,0,30.17,10,33.8
4A6,1/3/16 5:55,30.2,28.4,92.92,0,0,0,30.2,10,30.2
8A0,1/3/16 5:55,33.8,32,93.03,0,0,0,30.17,10,33.8
4A6,1/3/16 6:15,28.4,28.4,100,0,0,0,30.2,10,28.4
8A0,1/3/16 6:15,32,32,100,300,4,0,30.17,10,27.42
4A6,1/3/16 6:35,28.4,28.4,100,0,0,0,30.19,10,28.4
8A0,1/3/16 6:35,32,30.2,92.97,300,6,0,30.17,10,25.53
4A6,1/3/16 6:55,28.4,28.4,100,0,0,0,30.2,10,28.4
8A0,1/3/16 6:55,33.8,30.2,86.49,300,4,0,30.17,10,29.52
8A0,1/3/16 7:15,33.8,30.2,86.49,310,4,0,30.16,10,29.52
4A6,1/3/16 7:15,28.4,28.4,100,0,0,0,30.2,10,28.4
8A0,1/3/16 7:35,35.6,30.2,80.51,320,5,0,30.16,10,30.67
4A6,1/3/16 7:35,28.4,28.4,100,0,0,0,30.19,10,28.4
8A0,1/3/16 7:55,35.6,30.2,80.51,310,6,0,30.17,10,29.87
4A6,1/3/16 7:55,28.4,28.4,100,0,0,0,30.2,10,28.4
8A0,1/3/16 8:15,35.6,30.2,80.51,310,5,0,30.16,10,30.67
4A6,1/3/16 8:15,28.4,28.4,100,0,0,0,30.2,10,28.4
4A6,1/3/16 8:35,28.4,28.4,100,0,0,0,30.2,10,28.4
8A0,1/3/16 8:35,35.6,30.2,80.51,320,6,0,30.15,10,29.87
8A0,1/3/16 8:55,35.6,30.2,80.51,300,6,0,30.16,10,29.87
4A6,1/3/16 8:55,28.4,28.4,100,0,0,0,30.2,10,28.4
8A0,1/3/16 9:15,35.6,30.2,80.51,290,5,0,30.15,10,30.67
4A6,1/3/16 9:15,28.4,28.4,100,0,0,0,30.19,10,28.4
8A0,1/3/16 9:35,33.8,30.2,86.49,320,4,0,30.14,10,29.52
4A6,1/3/16 9:35,28.4,28.4,100,0,0,0,30.18,10,28.4
8A0,1/3/16 9:55,33.8,30.2,86.49,300,3,0,30.14,10,30.75
4A6,1/3/16 9:55,28.4,28.4,100,0,0,0,30.17,10,28.4
8A0,1/3/16 10:15,33.8,30.2,86.49,290,3,0,30.14,10,30.75
4A6,1/3/16 10:15,28.4,28.4,100,0,0,0,30.17,10,28.4
8A0,1/3/16 10:35,32,32,100,0,0,0,30.13,10,32
4A6,1/3/16 10:35,28.4,28.4,100,0,0,0,30.17,10,28.4
4A6,1/3/16 10:55,28.4,26.6,92.86,0,0,0,30.17,10,28.4
8A0,1/3/16 10:55,32,32,100,0,0,0,30.13,10,32
8A0,1/3/16 11:15,32,30.2,92.97,20,3,0,30.12,10,28.69
4A6,1/3/16 11:15,26.6,26.6,100,0,0,0.01,30.16,10,26.6
8A0,1/3/16 11:35,32,32,100,310,3,0,30.13,10,28.69
4A6,1/3/16 11:35,26.6,26.6,100,0,0,0.01,30.16,10,26.6
8A0,1/3/16 11:55,32,32,100,310,4,0,30.13,10,27.42
4A6,1/3/16 11:55,28.4,26.6,92.86,0,0,0.01,30.16,10,28.4
4A6,1/3/16 12:15,26.6,26.6,100,0,0,0,30.16,10,26.6
8A0,1/3/16 12:15,32,32,100,340,5,0,30.13,10,26.4
8A0,1/3/16 12:35,33.8,32,93.03,340,5,0,30.12,10,28.53
4A6,1/3/16 12:35,28.4,28.4,100,0,0,0.01,30.16,10,28.4
8A0,1/3/16 12:55,33.8,32,93.03,330,3,0,30.13,10,30.75
4A6,1/3/16 12:55,28.4,26.6,92.86,0,0,0.01,30.16,10,28.4
4A6,1/3/16 13:15,28.4,28.4,100,0,0,0,30.16,10,28.4
8A0,1/3/16 13:15,30.2,30.2,100,0,0,0,30.13,10,30.2
8A0,1/3/16 13:35,32,32,100,0,0,0,30.14,10,32
4A6,1/3/16 13:35,28.4,28.4,100,0,0,0,30.16,10,28.4
8A0,1/3/16 13:55,32,32,100,0,0,0,30.13,10,32
4A6,1/3/16 13:55,28.4,28.4,100,0,0,0,30.17,10,28.4
8A0,1/3/16 14:15,33.8,32,93.03,0,0,0,30.13,10,33.8
4A6,1/3/16 14:15,30.2,28.4,92.92,0,0,0,30.16,10,30.2
4A6,1/3/16 14:35,32,30.2,92.97,0,0,0,30.17,10,32
8A0,1/3/16 14:35,33.8,32,93.03,0,0,0,30.12,10,33.8
8A0,1/3/16 14:55,35.6,33.8,93.08,0,0,0,30.12,10,35.6
4A6,1/3/16 14:55,32,32,100,0,0,0,30.16,10,32
4A6,1/3/16 15:15,32,32,100,0,0,0,30.16,10,32
8A0,1/3/16 15:15,37.4,33.8,86.69,0,0,0,30.13,10,37.4
4A6,1/3/16 15:35,33.8,32,93.03,0,0,0,30.16,10,33.8
8A0,1/3/16 15:35,37.4,33.8,86.69,0,0,0,30.13,10,37.4
8A0,1/3/16 15:55,41,33.8,75.33,0,0,0,30.14,10,41
4A6,1/3/16 15:55,37.4,32,80.65,0,0,0.01,30.16,10,37.4
4A6,1/3/16 16:15,39.2,32,75.16,0,0,0,30.16,10,39.2
8A0,1/3/16 16:15,41,35.6,80.93,0,0,0,30.13,10,41
8A0,1/3/16 16:35,42.8,35.6,75.5,0,0,0,30.12,10,42.8
4A6,1/3/16 16:35,39.2,32,75.16,0,0,0,30.14,10,39.2
4A6,1/3/16 16:55,41,32,70.08,0,0,0,30.14,10,41
8A0,1/3/16 16:55,44.6,33.8,65.61,310,4,0,30.11,10,42.13
8A0,1/3/16 17:15,44.6,33.8,65.61,290,4,0,30.11,10,42.13
4A6,1/3/16 17:15,44.6,32,61.03,0,0,0,30.12,10,44.6
8A0,1/3/16 17:35,44.6,33.8,65.61,250,6,0,30.1,10,40.71
4A6,1/3/16 17:35,46.4,28.4,49.24,0,0,0,30.11,10,46.4
8A0,1/3/16 17:55,44.6,33.8,65.61,270,5,0,30.09,10,41.36
4A6,1/3/16 17:55,48.2,30.2,49.53,140,3,0,30.1,10,47.21
4A6,1/3/16 18:15,48.2,28.4,46.02,180,4,0,30.09,10,46.34
8A0,1/3/16 18:15,46.4,33.8,61.28,320,4,0,30.08,10,44.24
8A0,1/3/16 18:35,46.4,32,57,270,5,0,30.07,10,43.5
4A6,1/3/16 18:35,48.2,28.4,46.02,0,0,0,30.08,10,48.2
4A6,1/3/16 18:55,48.2,30.2,49.53,170,5,0,30.07,10,45.63
8A0,1/3/16 18:55,46.4,33.8,61.28,260,3,0,30.06,10,45.15
4A6,1/3/16 19:15,50,28.4,43.03,180,4,0,30.06,10,48.44
8A0,1/3/16 19:15,48.2,33.8,57.26,270,4,0,30.05,10,46.34
4A6,1/3/16 19:35,51.8,24.8,34.69,250,5,0,30.05,10,51.8
8A0,1/3/16 19:35,48.2,33.8,57.26,300,5,0,30.05,10,45.63
8A0,1/3/16 19:55,48.2,35.6,61.52,260,5,0,30.04,10,45.63
4A6,1/3/16 19:55,51.8,23,32.17,290,5,0,30.05,10,51.8
4A6,1/3/16 20:15,51.8,23,32.17,270,7,0,30.05,10,51.8
8A0,1/3/16 20:15,48.2,35.6,61.52,280,3,0,30.04,10,47.21
4A6,1/3/16 20:35,50,24.8,37.08,260,7,0,30.04,10,46.72
8A0,1/3/16 20:35,48.2,33.8,57.26,270,5,0,30.04,10,45.63
8A0,1/3/16 20:55,50,33.8,53.54,260,7,0,30.04,10,46.72
4A6,1/3/16 20:55,51.8,21.2,29.82,250,6,0,30.05,10,51.8
4A6,1/3/16 21:15,51.8,19.4,27.62,250,7,0,30.05,10,51.8
8A0,1/3/16 21:15,50,33.8,53.54,260,6,0,30.04,10,47.21
8A0,1/3/16 21:35,50,32,49.81,270,8,0,30.04,10,46.29
4A6,1/3/16 21:35,51.8,21.2,29.82,280,7,0,30.05,10,51.8
4A6,1/3/16 21:55,50,23,34.39,250,6,0,30.05,10,47.21
8A0,1/3/16 21:55,48.2,30.2,49.53,280,6,0,30.05,10,45.04
8A0,1/3/16 22:15,46.4,32,57,290,4,0,30.04,10,44.24
4A6,1/3/16 22:15,50,23,34.39,260,7,0,30.06,10,46.72
8A0,1/3/16 22:35,46.4,32,57,300,3,0,30.04,10,45.15
4A6,1/3/16 22:35,48.2,24.8,39.66,270,7,0,30.06,10,44.53
8A0,1/3/16 22:55,44.6,30.2,56.74,300,3,0,30.05,10,43.09
4A6,1/3/16 22:55,48.2,24.8,39.66,280,5,0,30.07,10,45.63
8A0,1/3/16 23:15,44.6,32,61.03,310,4,0,30.06,10,42.13
4A6,1/3/16 23:15,46.4,24.8,42.44,290,4,0,30.07,10,44.24
4A6,1/3/16 23:35,44.6,26.6,48.96,300,4,0,30.07,10,42.13
8A0,1/3/16 23:35,42.8,32,65.38,320,3,0,30.06,10,41.03
8A0,1/3/16 23:55,42.8,32,65.38,310,5,0,30.06,10,39.22
4A6,1/3/16 23:55,42.8,28.4,56.48,290,4,0,30.08,10,40.03
4A6,1/4/16 0:15,41,30.2,65.16,0,0,0,30.08,10,41
8A0,1/4/16 0:15,42.8,32,65.38,320,5,0,30.07,10,39.22
4A6,1/4/16 0:35,39.2,28.4,64.93,270,3,0,30.09,10,36.92
8A0,1/4/16 0:35,42.8,32,65.38,340,4,0,30.07,10,40.03
4A6,1/4/16 0:55,37.4,30.2,74.98,0,0,0,30.09,10,37.4
8A0,1/4/16 0:55,42.8,32,65.38,320,3,0,30.07,10,41.03
8A0,1/4/16 1:15,39.2,32,75.16,310,4,0,30.06,10,35.83
4A6,1/4/16 1:15,37.4,32,80.65,0,0,0,30.08,10,37.4
8A0,1/4/16 1:35,41,32,70.08,300,4,0,30.06,10,37.93
4A6,1/4/16 1:35,35.6,30.2,80.51,0,0,0,30.09,10,35.6
8A0,1/4/16 1:55,41,32,70.08,290,4,0,30.06,10,37.93
4A6,1/4/16 1:55,35.6,30.2,80.51,0,0,0,30.09,10,35.6
8A0,1/4/16 2:15,39.2,32,75.16,300,4,0,30.06,10,35.83
4A6,1/4/16 2:15,35.6,30.2,80.51,0,0,0,30.08,10,35.6
8A0,1/4/16 2:35,39.2,32,75.16,310,4,0,30.06,10,35.83
4A6,1/4/16 2:35,33.8,30.2,86.49,0,0,0,30.09,10,33.8
8A0,1/4/16 2:55,41,32,70.08,310,5,0,30.06,10,37.08
4A6,1/4/16 2:55,33.8,30.2,86.49,0,0,0,30.09,10,33.8
4A6,1/4/16 3:15,32,28.4,86.39,0,0,0,30.09,10,32
8A0,1/4/16 3:15,39.2,32,75.16,290,3,0,30.06,10,36.92
8A0,1/4/16 3:35,37.4,32,80.65,310,5,0,30.07,10,32.81
4A6,1/4/16 3:35,32,30.2,92.97,0,0,0,30.1,10,32
8A0,1/4/16 3:55,37.4,32,80.65,310,5,0,30.07,10,32.81
4A6,1/4/16 3:55,33.8,28.4,80.36,360,8,0,30.1,10,26.33
4A6,1/4/16 4:15,37.4,28.4,69.67,340,3,0,30.11,10,34.86
8A0,1/4/16 4:15,39.2,32,75.16,310,4,0,30.07,10,35.83
4A6,1/4/16 4:35,35.6,28.4,74.8,360,5,0,30.11,10,30.67
8A0,1/4/16 4:35,37.4,32,80.65,310,3,0,30.08,10,34.86
4A6,1/4/16 4:55,35.6,28.4,74.8,360,6,0,30.11,10,29.87
8A0,1/4/16 4:55,37.4,32,80.65,320,4,0,30.07,10,33.73
8A0,1/4/16 5:15,37.4,32,80.65,330,5,0,30.07,10,32.81
4A6,1/4/16 5:15,37.4,28.4,69.67,360,6,0,30.11,10,32.03
8A0,1/4/16 5:35,37.4,32,80.65,340,6,0,30.08,10,32.03
4A6,1/4/16 5:35,37.4,28.4,69.67,10,5,0,30.11,10,32.81
4A6,1/4/16 5:55,39.2,28.4,64.93,360,7,0,30.11,10,33.56
8A0,1/4/16 5:55,37.4,32,80.65,360,6,0,30.08,10,32.03
8A0,1/4/16 6:15,37.4,32,80.65,340,5,0,30.08,10,32.81
4A6,1/4/16 6:15,39.2,28.4,64.93,360,7,0,30.11,10,33.56
4A6,1/4/16 6:35,37.4,28.4,69.67,360,9,0,30.11,10,30.23
8A0,1/4/16 6:35,37.4,32,80.65,350,7,0,30.08,10,31.36
4A6,1/4/16 6:55,37.4,28.4,69.67,360,7,0,30.12,10,31.36
8A0,1/4/16 6:55,37.4,32,80.65,350,7,0,30.08,10,31.36
4A6,1/4/16 7:15,37.4,28.4,69.67,10,11,0,30.12,10,29.29
8A0,1/4/16 7:15,35.6,32,86.59,340,7,0,30.08,10,29.17
4A6,1/4/16 7:35,35.6,28.4,74.8,360,8,0,30.13,10,28.55
8A0,1/4/16 7:35,35.6,32,86.59,350,7,0,30.08,10,29.17
8A0,1/4/16 7:55,35.6,32,86.59,350,3,0,30.09,10,32.8
4A6,1/4/16 7:55,35.6,28.4,74.8,360,9,0,30.13,10,27.99
4A6,1/4/16 8:15,35.6,28.4,74.8,20,7,0,30.13,10,29.17
8A0,1/4/16 8:15,33.8,32,93.03,360,5,0,30.09,10,28.53
8A0,1/4/16 8:35,33.8,32,93.03,350,7,0,30.09,10,26.97
4A6,1/4/16 8:35,35.6,28.4,74.8,10,9,0,30.14,10,27.99
8A0,1/4/16 8:55,33.8,32,93.03,350,10,0,30.09,10,25.23
4A6,1/4/16 8:55,35.6,28.4,74.8,10,9,0,30.15,10,27.99
8A0,1/4/16 9:15,33.8,32,93.03,350,10,0,30.1,10,25.23
4A6,1/4/16 9:15,35.6,28.4,74.8,360,13,0,30.15,10,26.18
4A6,1/4/16 9:35,35.6,26.6,69.46,20,15,0,30.15,10,25.45
8A0,1/4/16 9:35,32,32,100,350,9,0,30.1,10,23.51
8A0,1/4/16 9:55,32,32,100,360,13,0,30.11,10,21.57
4A6,1/4/16 9:55,35.6,26.6,69.46,20,12,0,30.15,10,26.58
4A6,1/4/16 10:15,35.6,26.6,69.46,20,11,0,30.16,10,27.02
8A0,1/4/16 10:15,32,32,100,350,11,0,30.12,10,22.47
4A6,1/4/16 10:35,33.8,24.8,69.25,10,8,0,30.17,10,26.33
8A0,1/4/16 10:35,32,32,100,360,12,0,30.12,10,22
8A0,1/4/16 10:55,32,32,100,360,11,0,30.13,10,22.47
4A6,1/4/16 10:55,33.8,24.8,69.25,10,9,0,30.18,10,25.75
8A0,1/4/16 11:15,32,32,100,340,13,0,30.14,10,21.57
4A6,1/4/16 11:15,32,24.8,74.44,30,4,0,30.19,10,27.42
8A0,1/4/16 11:35,32,30.2,92.97,350,11,0,30.14,10,22.47
4A6,1/4/16 11:35,32,24.8,74.44,30,4,0,30.2,10,27.42
4A6,1/4/16 11:55,32,24.8,74.44,30,7,0,30.2,10,24.78
8A0,1/4/16 11:55,32,30.2,92.97,360,10,0,30.15,10,22.97
4A6,1/4/16 12:15,32,23,69.04,20,8,0,30.21,10,24.11
8A0,1/4/16 12:15,32,30.2,92.97,360,10,0,30.15,10,22.97
8A0,1/4/16 12:35,32,30.2,92.97,360,10,0,30.17,10,22.97
4A6,1/4/16 12:35,32,21.2,63.99,30,6,0,30.21,10,25.53
4A6,1/4/16 12:55,32,21.2,63.99,30,7,0,30.22,10,24.78
8A0,1/4/16 12:55,32,28.4,86.39,10,11,0,30.17,10,22.47
4A6,1/4/16 13:15,32,21.2,63.99,20,6,0,30.24,10,25.53
8A0,1/4/16 13:15,32,28.4,86.39,360,11,0,30.18,10,22.47
8A0,1/4/16 13:35,32,28.4,86.39,360,13,0,30.19,10,21.57
4A6,1/4/16 13:35,32,23,69.04,20,7,0,30.24,10,24.78
4A6,1/4/16 13:55,33.8,23,64.23,30,8,0,30.25,10,26.33
8A0,1/4/16 13:55,32,28.4,86.39,360,13,0,30.2,10,21.57
4A6,1/4/16 14:15,33.8,23,64.23,20,13,0,30.26,10,23.87
8A0,1/4/16 14:15,32,30.2,92.97,360,15,0,30.21,10,20.78
8A0,1/4/16 14:35,32,30.2,92.97,10,14,0,30.23,10,21.16
4A6,1/4/16 14:35,35.6,23,59.79,10,12,0,30.27,10,26.58
8A0,1/4/16 14:55,33.8,30.2,86.49,10,13,0,30.24,10,23.87
4A6,1/4/16 14:55,35.6,23,59.79,20,12,0,30.28,10,26.58
8A0,1/4/16 15:15,33.8,30.2,86.49,10,14,0,30.25,10,23.48
4A6,1/4/16 15:15,35.6,23,59.79,10,17,0,30.29,10,24.79
4A6,1/4/16 15:35,35.6,23,59.79,20,14,0,30.3,10,25.8
8A0,1/4/16 15:35,33.8,30.2,86.49,360,12,0,30.26,10,24.29
4A6,1/4/16 15:55,35.6,23,59.79,360,14,0,30.3,10,25.8
8A0,1/4/16 15:55,33.8,30.2,86.49,350,13,0,30.26,10,23.87
8A0,1/4/16 16:15,33.8,30.2,86.49,340,15,0,30.26,10,23.11
4A6,1/4/16 16:15,37.4,23,55.68,360,12,0,30.31,10,28.87
8A0,1/4/16 16:35,33.8,30.2,86.49,10,14,0,30.27,10,23.48
4A6,1/4/16 16:35,37.4,23,55.68,10,19,0,30.31,10,26.58
4A6,1/4/16 16:55,37.4,23,55.68,360,14,0,30.32,10,28.12
8A0,1/4/16 16:55,37.4,30.2,74.98,360,12,0,30.27,10,28.87
4A6,1/4/16 17:15,37.4,23,55.68,360,15,0,30.31,10,27.78
8A0,1/4/16 17:15,37.4,30.2,74.98,20,14,0,30.26,10,28.12
4A6,1/4/16 17:35,37.4,23,55.68,360,15,0,30.31,10,27.78
8A0,1/4/16 17:35,37.4,30.2,74.98,360,13,0,30.26,10,28.49
4A6,1/4/16 17:55,37.4,23,55.68,20,13,0,30.3,10,28.49
8A0,1/4/16 17:55,35.6,28.4,74.8,10,15,0,30.26,10,25.45
8A0,1/4/16 18:15,37.4,30.2,74.98,20,12,0,30.25,10,28.87
4A6,1/4/16 18:15,37.4,23,55.68,10,11,0,30.3,10,29.29
8A0,1/4/16 18:35,37.4,30.2,74.98,10,14,0,30.25,10,28.12
4A6,1/4/16 18:35,37.4,21.2,51.61,10,12,0,30.3,10,28.87
8A0,1/4/16 18:55,35.6,30.2,80.51,20,11,0,30.25,10,27.02
4A6,1/4/16 18:55,37.4,21.2,51.61,20,12,0,30.3,10,28.87
8A0,1/4/16 19:15,37.4,28.4,69.67,10,12,0,30.25,10,28.87
4A6,1/4/16 19:15,39.2,19.4,44.55,10,14,0,30.29,10,30.44
4A6,1/4/16 19:35,37.4,19.4,47.8,30,11,0,30.29,10,29.29
8A0,1/4/16 19:35,37.4,30.2,74.98,20,15,0,30.26,10,27.78
4A6,1/4/16 19:55,39.2,21.2,48.1,30,17,0,30.3,10,29.51
8A0,1/4/16 19:55,37.4,28.4,69.67,360,11,0,30.26,10,29.29
4A6,1/4/16 20:15,37.4,19.4,47.8,20,12,0,30.3,10,28.87
8A0,1/4/16 20:15,37.4,28.4,69.67,10,13,0,30.26,10,28.49
4A6,1/4/16 20:35,37.4,21.2,51.61,10,9,0,30.31,10,30.23
8A0,1/4/16 20:35,37.4,28.4,69.67,360,14,0,30.26,10,28.12
4A6,1/4/16 20:55,37.4,21.2,51.61,360,12,0,30.31,10,28.87
8A0,1/4/16 20:55,35.6,28.4,74.8,10,11,0,30.27,10,27.02
4A6,1/4/16 21:15,37.4,21.2,51.61,30,11,0,30.33,10,29.29
8A0,1/4/16 21:15,35.6,28.4,74.8,350,11,0,30.27,10,27.02
8A0,1/4/16 21:35,35.6,28.4,74.8,10,15,0,30.28,10,25.45
4A6,1/4/16 21:35,35.6,19.4,51.33,20,11,0,30.33,10,27.02
4A6,1/4/16 21:55,35.6,21.2,55.41,30,13,0,30.34,10,26.18
8A0,1/4/16 21:55,35.6,28.4,74.8,350,15,0,30.29,10,25.45
4A6,1/4/16 22:15,35.6,23,59.79,20,10,0,30.35,10,27.48
8A0,1/4/16 22:15,33.8,28.4,80.36,20,10,0,30.3,10,25.23
8A0,1/4/16 22:35,33.8,28.4,80.36,20,12,0,30.31,10,24.29
4A6,1/4/16 22:35,35.6,21.2,55.41,20,8,0,30.35,10,28.55
4A6,1/4/16 22:55,33.8,19.4,55.14,10,9,0,30.36,10,25.75
8A0,1/4/16 22:55,33.8,28.4,80.36,360,8,0,30.32,10,26.33
4A6,1/4/16 23:15,33.8,19.4,55.14,350,7,0,30.37,10,26.97
8A0,1/4/16 23:15,33.8,28.4,80.36,10,6,0,30.32,10,27.7
8A0,1/4/16 23:35,33.8,28.4,80.36,360,9,0,30.33,10,25.75
4A6,1/4/16 23:35,33.8,19.4,55.14,360,5,0,30.38,10,28.53
8A0,1/4/16 23:55,33.8,28.4,80.36,20,7,0,30.34,10,26.97
4A6,1/4/16 23:55,32,19.4,59.27,360,4,0,30.38,10,27.42
4A6,1/5/16 0:15,32,19.4,59.27,10,4,0,30.39,10,27.42
8A0,1/5/16 0:15,32,26.6,80.22,10,6,0,30.34,10,25.53
4A6,1/5/16 0:35,32,19.4,59.27,350,4,0,30.4,10,27.42
8A0,1/5/16 0:35,32,26.6,80.22,360,5,0,30.35,10,26.4
8A0,1/5/16 0:55,32,26.6,80.22,360,6,0,30.35,10,25.53
4A6,1/5/16 0:55,32,19.4,59.27,10,3,0,30.4,10,28.69
8A0,1/5/16 1:15,32,26.6,80.22,10,6,0,30.36,10,25.53
4A6,1/5/16 1:15,32,19.4,59.27,20,3,0,30.41,10,28.69
8A0,1/5/16 1:35,32,26.6,80.22,10,8,0,30.36,10,24.11
4A6,1/5/16 1:35,32,19.4,59.27,80,4,0,30.41,10,27.42
8A0,1/5/16 1:55,32,26.6,80.22,10,6,0,30.37,10,25.53
4A6,1/5/16 1:55,30.2,21.2,68.83,60,3,0,30.41,10,26.63
4A6,1/5/16 2:15,28.4,23,79.92,0,0,0,30.42,10,28.4
8A0,1/5/16 2:15,30.2,26.6,86.28,20,5,0,30.36,10,24.26
4A6,1/5/16 2:35,28.4,23,79.92,0,0,0,30.42,10,28.4
8A0,1/5/16 2:35,30.2,26.6,86.28,20,5,0,30.37,10,24.26
4A6,1/5/16 2:55,28.4,21.2,74.08,0,0,0,30.42,10,28.4
8A0,1/5/16 2:55,30.2,26.6,86.28,20,6,0,30.37,10,23.36
4A6,1/5/16 3:15,26.6,21.2,79.77,0,0,0,30.42,10,26.6
8A0,1/5/16 3:15,30.2,26.6,86.28,20,5,0,30.37,10,24.26
8A0,1/5/16 3:35,30.2,26.6,86.28,20,6,0,30.36,10,23.36
4A6,1/5/16 3:35,26.6,23,86.07,0,0,0,30.42,10,26.6
8A0,1/5/16 3:55,30.2,26.6,86.28,30,7,0,30.36,10,22.59
4A6,1/5/16 3:55,26.6,23,86.07,0,0,0,30.42,10,26.6
4A6,1/5/16 4:15,26.6,23,86.07,0,0,0,30.42,10,26.6
8A0,1/5/16 4:15,30.2,26.6,86.28,20,8,0,30.36,10,21.9
4A6,1/5/16 4:35,26.6,23,86.07,0,0,0,30.43,10,26.6
8A0,1/5/16 4:35,30.2,26.6,86.28,30,9,0,30.35,10,21.28
4A6,1/5/16 4:55,26.6,23,86.07,50,4,0,30.42,10,21.11
8A0,1/5/16 4:55,30.2,24.8,80.07,30,9,0,30.35,10,21.28
4A6,1/5/16 5:15,24.8,23,92.74,40,4,0,30.42,10,19.01
8A0,1/5/16 5:15,30.2,23,74.26,60,7,0,30.36,10,22.59
4A6,1/5/16 5:35,24.8,23,92.74,40,5,0,30.42,10,17.84
8A0,1/5/16 5:35,30.2,23,74.26,50,8,0,30.35,10,21.9
8A0,1/5/16 5:55,30.2,23,74.26,50,8,0,30.36,10,21.9
4A6,1/5/16 5:55,24.8,23,92.74,30,4,0,30.42,10,19.01
4A6,1/5/16 6:15,26.6,19.4,73.89,50,5,0,30.42,10,19.98
8A0,1/5/16 6:15,30.2,23,74.26,50,6,0,30.36,10,23.36
4A6,1/5/16 6:35,28.4,19.4,68.61,60,7,0,30.42,10,20.39
8A0,1/5/16 6:35,30.2,23,74.26,40,7,0,30.35,10,22.59
8A0,1/5/16 6:55,30.2,23,74.26,40,7,0,30.35,10,22.59
4A6,1/5/16 6:55,28.4,17.6,63.51,60,5,0,30.42,10,22.12
4A6,1/5/16 7:15,28.4,17.6,63.51,50,4,0,30.42,10,23.22
8A0,1/5/16 7:15,30.2,23,74.26,50,7,0,30.35,10,22.59
8A0,1/5/16 7:35,30.2,23,74.26,50,5,0,30.36,10,24.26
4A6,1/5/16 7:35,26.6,17.6,68.4,40,4,0,30.43,10,21.11
8A0,1/5/16 7:55,28.4,23,79.92,50,5,0,30.37,10,22.12
4A6,1/5/16 7:55,28.4,17.6,63.51,40,5,0,30.43,10,22.12
4A6,1/5/16 8:15,28.4,17.6,63.51,40,6,0,30.44,10,21.19
8A0,1/5/16 8:15,28.4,23,79.92,50,7,0,30.37,10,20.39
8A0,1/5/16 8:35,28.4,23,79.92,50,6,0,30.37,10,21.19
4A6,1/5/16 8:35,26.6,19.4,73.89,30,6,0,30.44,10,19.03
8A0,1/5/16 8:55,28.4,23,79.92,60,5,0,30.38,10,22.12
4A6,1/5/16 8:55,28.4,17.6,63.51,30,6,0,30.45,10,21.19
8A0,1/5/16 9:15,28.4,23,79.92,60,3,0,30.39,10,24.57
4A6,1/5/16 9:15,28.4,17.6,63.51,20,5,0,30.45,10,22.12
4A6,1/5/16 9:35,28.4,17.6,63.51,40,6,0,30.45,10,21.19
8A0,1/5/16 9:35,26.6,21.2,79.77,50,3,0,30.41,10,22.52
8A0,1/5/16 9:55,26.6,23,86.07,70,4,0,30.4,10,21.11
4A6,1/5/16 9:55,28.4,17.6,63.51,40,7,0,30.45,10,20.39
4A6,1/5/16 10:15,28.4,17.6,63.51,40,5,0,30.46,10,22.12
8A0,1/5/16 10:15,26.6,23,86.07,60,4,0,30.41,10,21.11
4A6,1/5/16 10:35,26.6,17.6,68.4,0,0,0,30.47,10,26.6
8A0,1/5/16 10:35,26.6,21.2,79.77,80,3,0,30.42,10,22.52
4A6,1/5/16 10:55,24.8,19.4,79.62,360,3,0,30.47,10,20.46
8A0,1/5/16 10:55,26.6,21.2,79.77,0,0,0,30.43,10,26.6
8A0,1/5/16 11:15,26.6,21.2,79.77,0,0,0,30.43,10,26.6
4A6,1/5/16 11:15,24.8,19.4,79.62,0,0,0,30.48,10,24.8
4A6,1/5/16 11:35,24.8,19.4,79.62,0,0,0,30.49,10,24.8
8A0,1/5/16 11:35,26.6,21.2,79.77,0,0,0,30.44,10,26.6
4A6,1/5/16 11:55,24.8,19.4,79.62,0,0,0,30.49,10,24.8
8A0,1/5/16 11:55,26.6,21.2,79.77,80,3,0,30.44,10,22.52
4A6,1/5/16 12:15,24.8,19.4,79.62,0,0,0,30.5,10,24.8
8A0,1/5/16 12:15,26.6,21.2,79.77,90,3,0,30.45,10,22.52
8A0,1/5/16 12:35,23,23,100,70,3,0,30.46,10,18.4
4A6,1/5/16 12:35,23,19.4,85.85,0,0,0,30.51,10,23
4A6,1/5/16 12:55,23,19.4,85.85,0,0,0,30.51,10,23
8A0,1/5/16 12:55,23,23,100,80,3,0,30.46,10,18.4
8A0,1/5/16 13:15,23,23,100,80,3,0,30.47,3,18.4
4A6,1/5/16 13:15,23,19.4,85.85,0,0,0,30.52,10,23
4A6,1/5/16 13:35,23,19.4,85.85,0,0,0,30.53,10,23
8A0,1/5/16 13:35,24.8,23,92.74,80,4,0,30.48,5,19.01
8A0,1/5/16 13:55,28.4,21.2,74.08,80,5,0,30.48,10,22.12
4A6,1/5/16 13:55,26.6,19.4,73.89,0,0,0,30.53,10,26.6
4A6,1/5/16 14:15,28.4,19.4,68.61,0,0,0,30.53,10,28.4
8A0,1/5/16 14:15,30.2,23,74.26,90,6,0,30.48,10,23.36
4A6,1/5/16 14:35,32,19.4,59.27,40,4,0,30.54,10,27.42
8A0,1/5/16 14:35,32,23,69.04,90,6,0,30.49,10,25.53
8A0,1/5/16 14:55,32,23,69.04,90,6,0,30.49,10,25.53
4A6,1/5/16 14:55,32,19.4,59.27,40,5,0,30.55,10,26.4
8A0,1/5/16 15:15,32,23,69.04,90,6,0,30.49,10,25.53
4A6,1/5/16 15:15,33.8,17.6,51.04,30,6,0,30.55,10,27.7
8A0,1/5/16 15:35,33.8,23,64.23,100,10,0,30.49,10,25.23
4A6,1/5/16 15:35,35.6,17.6,47.51,40,5,0.01,30.55,10,30.67
8A0,1/5/16 15:55,33.8,23,64.23,100,8,0,30.5,10,26.33
4A6,1/5/16 15:55,35.6,17.6,47.51,80,5,0.02,30.55,10,30.67
4A6,1/5/16 16:15,37.4,17.6,44.25,40,4,0,30.55,10,33.73
8A0,1/5/16 16:15,35.6,23,59.79,120,10,0,30.49,10,27.48
8A0,1/5/16 16:35,35.6,23,59.79,90,7,0,30.49,10,29.17
4A6,1/5/16 16:35,37.4,17.6,44.25,40,5,0.03,30.54,10,32.81
8A0,1/5/16 16:55,35.6,23,59.79,90,7,0,30.48,10,29.17
4A6,1/5/16 16:55,39.2,17.6,41.24,60,6,1.57,30.53,10,34.2
4A6,1/5/16 17:15,39.2,15.8,38.15,30,3,0.03,30.52,10,36.92
8A0,1/5/16 17:15,37.4,23,55.68,120,7,0,30.48,10,31.36
4A6,1/5/16 17:35,39.2,15.8,38.15,70,5,0.07,30.51,10,34.95
8A0,1/5/16 17:35,37.4,23,55.68,90,9,0,30.46,10,30.23
4A6,1/5/16 17:55,41,15.8,35.57,360,3,0.13,30.49,10,38.98
8A0,1/5/16 17:55,39.2,23,51.89,130,7,0,30.44,10,33.56
8A0,1/5/16 18:15,41,23,48.39,120,7,0,30.43,10,35.75
4A6,1/5/16 18:15,41,15.8,35.57,60,7,0.04,30.47,10,35.75
4A6,1/5/16 18:35,42.8,15.8,33.18,0,0,0.09,30.46,10,42.8
8A0,1/5/16 18:35,41,23,48.39,100,8,0,30.42,10,35.2
8A0,1/5/16 18:55,41,23,48.39,90,10,0,30.41,10,34.25
4A6,1/5/16 18:55,42.8,14,30.68,20,4,0.14,30.45,10,40.03
4A6,1/5/16 19:15,44.6,14,28.64,0,0,0.05,30.44,10,44.6
8A0,1/5/16 19:15,41,23,48.39,120,5,0,30.41,10,37.08
4A6,1/5/16 19:35,44.6,10.4,24.42,160,7,0.09,30.43,10,40.14
8A0,1/5/16 19:35,41,23,48.39,100,7,0,30.4,10,35.75
8A0,1/5/16 19:55,41,24.8,52.17,60,4,0,30.39,10,37.93
4A6,1/5/16 19:55,44.6,8.6,22.53,160,6,0.11,30.42,10,40.71
8A0,1/5/16 20:15,41,24.8,52.17,110,7,0,30.38,10,35.75
4A6,1/5/16 20:15,44.6,8.6,22.53,150,5,0.02,30.42,10,41.36
8A0,1/5/16 20:35,41,24.8,52.17,130,5,0,30.38,10,37.08
4A6,1/5/16 20:35,44.6,10.4,24.42,170,5,0.04,30.42,10,41.36
4A6,1/5/16 20:55,44.6,10.4,24.42,130,3,0.06,30.42,10,43.09
8A0,1/5/16 20:55,42.8,26.6,52.45,90,7,0,30.39,10,37.94
8A0,1/5/16 21:15,41,24.8,52.17,100,3,0,30.39,10,38.98
4A6,1/5/16 21:15,44.6,10.4,24.42,160,5,0.02,30.42,10,41.36
4A6,1/5/16 21:35,44.6,10.4,24.42,140,5,0.04,30.42,10,41.36
8A0,1/5/16 21:35,41,24.8,52.17,80,5,0,30.39,10,37.08
4A6,1/5/16 21:55,44.6,10.4,24.42,170,5,0.05,30.43,10,41.36
8A0,1/5/16 21:55,41,24.8,52.17,100,7,0,30.4,10,35.75
4A6,1/5/16 22:15,44.6,10.4,24.42,160,3,0.01,30.43,10,43.09
8A0,1/5/16 22:15,39.2,24.8,55.95,110,6,0,30.4,10,34.2
8A0,1/5/16 22:35,37.4,24.8,60.04,90,3,0,30.4,10,34.86
4A6,1/5/16 22:35,42.8,10.4,26.16,0,0,0.02,30.43,10,42.8
8A0,1/5/16 22:55,35.6,24.8,64.46,90,4,0,30.4,10,31.62
4A6,1/5/16 22:55,41,12.2,30.38,150,3,0.02,30.43,10,38.98
4A6,1/5/16 23:15,39.2,15.8,38.15,0,0,0,30.43,10,39.2
8A0,1/5/16 23:15,35.6,24.8,64.46,80,3,0,30.4,10,32.8
8A0,1/5/16 23:35,35.6,24.8,64.46,80,3,0,30.4,10,32.8
4A6,1/5/16 23:35,37.4,15.8,40.93,0,0,0.01,30.43,10,37.4
4A6,1/5/16 23:55,35.6,17.6,47.51,0,0,0.01,30.44,10,35.6
8A0,1/5/16 23:55,33.8,24.8,69.25,80,3,0,30.4,10,30.75
4A6,1/6/16 0:15,32,19.4,59.27,0,0,0,30.44,10,32
8A0,1/6/16 0:15,32,26.6,80.22,80,4,0,30.4,10,27.42
8A0,1/6/16 0:35,32,26.6,80.22,80,4,0,30.4,10,27.42
4A6,1/6/16 0:35,32,19.4,59.27,0,0,0,30.44,10,32
8A0,1/6/16 0:55,32,26.6,80.22,80,5,0,30.41,10,26.4
4A6,1/6/16 0:55,32,21.2,63.99,0,0,0,30.45,10,32
8A0,1/6/16 1:15,32,23,69.04,90,5,0,30.41,10,26.4
4A6,1/6/16 1:15,32,19.4,59.27,0,0,0,30.45,10,32
8A0,1/6/16 1:35,33.8,23,64.23,90,6,0,30.41,10,27.7
4A6,1/6/16 1:35,30.2,21.2,68.83,0,0,0,30.45,10,30.2
4A6,1/6/16 1:55,28.4,21.2,74.08,0,0,0,30.46,10,28.4
8A0,1/6/16 1:55,33.8,23,64.23,100,6,0,30.41,10,27.7
4A6,1/6/16 2:15,28.4,21.2,74.08,0,0,0,30.46,10,28.4
8A0,1/6/16 2:15,33.8,23,64.23,100,7,0,30.41,10,26.97
4A6,1/6/16 2:35,28.4,19.4,68.61,0,0,0,30.46,10,28.4
8A0,1/6/16 2:35,32,23,69.04,100,6,0,30.41,10,25.53
8A0,1/6/16 2:55,32,21.2,63.99,110,5,0,30.41,10,26.4
4A6,1/6/16 2:55,28.4,21.2,74.08,0,0,0,30.46,10,28.4
8A0,1/6/16 3:15,32,21.2,63.99,110,5,0,30.41,10,26.4
4A6,1/6/16 3:15,32,17.6,54.87,120,4,0,30.46,10,27.42
8A0,1/6/16 3:35,32,21.2,63.99,110,5,0,30.41,10,26.4
4A6,1/6/16 3:35,32,17.6,54.87,340,4,0,30.46,10,27.42
4A6,1/6/16 3:55,37.4,14,37.84,160,6,0,30.46,10,32.03
8A0,1/6/16 3:55,32,21.2,63.99,110,4,0,30.42,10,27.42
8A0,1/6/16 4:15,32,21.2,63.99,110,5,0,30.42,10,26.4
4A6,1/6/16 4:15,37.4,12.2,34.96,160,7,0,30.46,10,31.36
8A0,1/6/16 4:35,32,21.2,63.99,110,5,0,30.43,10,26.4
4A6,1/6/16 4:35,37.4,12.2,34.96,140,4,0,30.47,10,33.73
4A6,1/6/16 4:55,37.4,10.4,32.27,170,4,0,30.47,10,33.73
8A0,1/6/16 4:55,32,21.2,63.99,110,3,0,30.43,10,28.69
8A0,1/6/16 5:15,32,21.2,63.99,110,5,0,30.42,10,26.4
4A6,1/6/16 5:15,35.6,10.4,34.65,160,4,0,30.47,10,31.62
8A0,1/6/16 5:35,32,21.2,63.99,100,4,0,30.42,10,27.42
4A6,1/6/16 5:35,37.4,10.4,32.27,160,6,0,30.46,10,32.03
8A0,1/6/16 5:55,32,21.2,63.99,110,5,0,30.42,10,26.4
4A6,1/6/16 5:55,35.6,10.4,34.65,160,7,0,30.46,10,29.17
4A6,1/6/16 6:15,35.6,10.4,34.65,140,7,0,30.46,10,29.17
8A0,1/6/16 6:15,32,21.2,63.99,120,6,0,30.42,10,25.53
8A0,1/6/16 6:35,32,21.2,63.99,110,6,0,30.41,10,25.53
4A6,1/6/16 6:35,35.6,10.4,34.65,180,3,0,30.46,10,32.8
8A0,1/6/16 6:55,32,21.2,63.99,100,5,0,30.41,10,26.4
4A6,1/6/16 6:55,35.6,10.4,34.65,200,5,0,30.46,10,30.67
4A6,1/6/16 7:15,35.6,10.4,34.65,150,5,0,30.46,10,30.67
8A0,1/6/16 7:15,30.2,21.2,68.83,110,7,0,30.4,10,22.59
4A6,1/6/16 7:35,35.6,10.4,34.65,150,6,0,30.45,10,29.87
8A0,1/6/16 7:35,30.2,21.2,68.83,110,5,0,30.4,10,24.26
4A6,1/6/16 7:55,33.8,10.4,37.22,140,7,0,30.45,10,26.97
8A0,1/6/16 7:55,30.2,21.2,68.83,110,5,0,30.4,10,24.26
4A6,1/6/16 8:15,33.8,10.4,37.22,160,7,0,30.45,10,26.97
8A0,1/6/16 8:15,30.2,21.2,68.83,110,5,0,30.4,10,24.26
4A6,1/6/16 8:35,33.8,10.4,37.22,150,10,0,30.45,10,25.23
8A0,1/6/16 8:35,30.2,21.2,68.83,120,6,0,30.4,10,23.36
4A6,1/6/16 8:55,33.8,10.4,37.22,130,5,0,30.45,10,28.53
8A0,1/6/16 8:55,30.2,21.2,68.83,110,6,0,30.4,10,23.36
4A6,1/6/16 9:15,32,10.4,40.01,170,3,0,30.46,10,28.69
8A0,1/6/16 9:15,30.2,19.4,63.75,110,5,0,30.4,10,24.26
8A0,1/6/16 9:35,30.2,21.2,68.83,110,5,0,30.4,10,24.26
4A6,1/6/16 9:35,32,10.4,40.01,160,3,0,30.45,10,28.69
8A0,1/6/16 9:55,30.2,21.2,68.83,120,5,0,30.39,10,24.26
4A6,1/6/16 9:55,32,10.4,40.01,0,0,0,30.45,10,32
8A0,1/6/16 10:15,30.2,19.4,63.75,110,5,0,30.39,10,24.26
4A6,1/6/16 10:15,32,10.4,40.01,170,3,0,30.45,10,28.69
4A6,1/6/16 10:35,32,10.4,40.01,150,4,0,30.45,10,27.42
8A0,1/6/16 10:35,30.2,21.2,68.83,100,6,0,30.39,10,23.36
8A0,1/6/16 10:55,30.2,19.4,63.75,100,7,0,30.4,10,22.59
4A6,1/6/16 10:55,32,10.4,40.01,0,0,0,30.46,10,32
8A0,1/6/16 11:15,30.2,19.4,63.75,100,7,0,30.4,10,22.59
4A6,1/6/16 11:15,32,10.4,40.01,0,0,0,30.47,10,32
8A0,1/6/16 11:35,30.2,19.4,63.75,100,6,0,30.4,10,23.36
4A6,1/6/16 11:35,32,10.4,40.01,120,4,0,30.47,10,27.42
4A6,1/6/16 11:55,32,10.4,40.01,100,3,0,30.46,10,28.69
8A0,1/6/16 11:55,30.2,19.4,63.75,100,6,0,30.4,10,23.36
4A6,1/6/16 12:15,32,10.4,40.01,130,3,0,30.47,10,28.69
8A0,1/6/16 12:15,30.2,19.4,63.75,90,7,0,30.4,10,22.59
4A6,1/6/16 12:35,32,10.4,40.01,100,3,0,30.46,10,28.69
8A0,1/6/16 12:35,30.2,19.4,63.75,90,7,0,30.4,10,22.59
8A0,1/6/16 12:55,30.2,19.4,63.75,90,9,0,30.39,10,21.28
4A6,1/6/16 12:55,32,10.4,40.01,0,0,0,30.46,10,32
8A0,1/6/16 13:15,30.2,19.4,63.75,100,8,0,30.39,10,21.9
4A6,1/6/16 13:15,32,10.4,40.01,0,0,0,30.46,10,32
4A6,1/6/16 13:35,32,10.4,40.01,70,3,0,30.46,10,28.69
8A0,1/6/16 13:35,30.2,19.4,63.75,100,6,0,30.4,10,23.36
8A0,1/6/16 13:55,30.2,19.4,63.75,100,9,0,30.4,10,21.28
4A6,1/6/16 13:55,32,10.4,40.01,90,3,0,30.46,10,28.69
4A6,1/6/16 14:15,32,8.6,36.91,120,3,0,30.47,10,28.69
8A0,1/6/16 14:15,32,19.4,59.27,90,8,0,30.4,10,24.11
8A0,1/6/16 14:35,32,21.2,63.99,80,9,0,30.4,10,23.51
4A6,1/6/16 14:35,32,8.6,36.91,120,5,0,30.47,10,26.4
4A6,1/6/16 14:55,33.8,8.6,34.34,50,3,0,30.47,10,30.75
8A0,1/6/16 14:55,33.8,21.2,59.53,80,7,0,30.41,10,26.97
8A0,1/6/16 15:15,33.8,21.2,59.53,100,10,0,30.41,10,25.23
4A6,1/6/16 15:15,33.8,8.6,34.34,90,5,0,30.48,10,28.53
8A0,1/6/16 15:35,35.6,23,59.79,80,9,0,30.41,10,27.99
4A6,1/6/16 15:35,35.6,10.4,34.65,60,3,0,30.47,10,32.8
4A6,1/6/16 15:55,37.4,10.4,32.27,80,3,0,30.47,10,34.86
8A0,1/6/16 15:55,35.6,23,59.79,90,9,0,30.41,10,27.99
4A6,1/6/16 16:15,39.2,10.4,30.07,0,0,0.01,30.46,10,39.2
8A0,1/6/16 16:15,35.6,24.8,64.46,110,6,0,30.41,10,29.87
8A0,1/6/16 16:35,37.4,24.8,60.04,80,8,0,30.4,10,30.76
4A6,1/6/16 16:35,39.2,12.2,32.58,80,4,0.02,30.45,10,35.83
8A0,1/6/16 16:55,37.4,24.8,60.04,90,5,0,30.38,10,32.81
4A6,1/6/16 16:55,41,14,32.88,70,3,0.04,30.44,10,38.98
4A6,1/6/16 17:15,41,15.8,35.57,110,5,0.02,30.42,10,37.08
8A0,1/6/16 17:15,37.4,26.6,64.7,80,8,0,30.37,10,30.76
8A0,1/6/16 17:35,39.2,26.6,60.29,90,9,0,30.35,10,32.47
4A6,1/6/16 17:35,42.8,17.6,35.87,100,7,0.04,30.4,10,37.94
8A0,1/6/16 17:55,39.2,28.4,64.93,100,5,0,30.34,10,34.95
4A6,1/6/16 17:55,44.6,17.6,33.49,160,6,0.07,30.38,10,40.71
4A6,1/6/16 18:15,44.6,17.6,33.49,120,5,0.02,30.36,10,41.36
8A0,1/6/16 18:15,41,28.4,60.54,120,4,0,30.32,10,37.93
4A6,1/6/16 18:35,44.6,19.4,36.18,170,6,0.05,30.35,10,40.71
8A0,1/6/16 18:35,42.8,28.4,56.48,100,5,0,30.31,10,39.22
8A0,1/6/16 18:55,42.8,30.2,60.79,80,7,0,30.29,10,37.94
4A6,1/6/16 18:55,44.6,19.4,36.18,80,4,0.07,30.33,10,42.13
8A0,1/6/16 19:15,42.8,30.2,60.79,140,6,0,30.28,10,38.54
4A6,1/6/16 19:15,46.4,21.2,36.48,60,3,0.02,30.32,10,45.15
8A0,1/6/16 19:35,44.6,30.2,56.74,110,5,0,30.28,10,41.36
4A6,1/6/16 19:35,46.4,23,39.36,60,5,0.04,30.31,10,43.5
8A0,1/6/16 19:55,44.6,32,61.03,90,6,0,30.27,10,40.71
4A6,1/6/16 19:55,46.4,23,39.36,0,0,0.05,30.3,10,46.4
4A6,1/6/16 20:15,46.4,23,39.36,10,5,0.01,30.29,10,43.5
8A0,1/6/16 20:15,44.6,32,61.03,70,3,0,30.26,10,43.09
8A0,1/6/16 20:35,46.4,32,57,120,4,0,30.25,10,44.24
4A6,1/6/16 20:35,46.4,23,39.36,50,3,0.03,30.29,10,45.15
4A6,1/6/16 20:55,46.4,23,39.36,30,5,0.04,30.28,10,43.5
8A0,1/6/16 20:55,46.4,32,57,0,0,0,30.25,10,46.4
4A6,1/6/16 21:15,46.4,23,39.36,30,3,0.01,30.27,10,45.15
8A0,1/6/16 21:15,46.4,32,57,100,5,0,30.24,10,43.5
4A6,1/6/16 21:35,46.4,23,39.36,30,5,0.02,30.27,10,43.5
8A0,1/6/16 21:35,46.4,32,57,80,4,0,30.24,10,44.24
4A6,1/6/16 21:55,46.4,23,39.36,70,4,0.03,30.27,10,44.24
8A0,1/6/16 21:55,44.6,32,61.03,90,6,0,30.24,10,40.71
4A6,1/6/16 22:15,46.4,23,39.36,40,5,0,30.27,10,43.5
8A0,1/6/16 22:15,44.6,32,61.03,130,6,0,30.24,10,40.71
8A0,1/6/16 22:35,42.8,32,65.38,110,4,0,30.24,10,40.03
4A6,1/6/16 22:35,46.4,23,39.36,50,4,0,30.27,10,44.24
4A6,1/6/16 22:55,44.6,24.8,45.44,0,0,0,30.27,10,44.6
8A0,1/6/16 22:55,41,32,70.08,90,5,0,30.24,10,37.08
4A6,1/6/16 23:15,41,26.6,56.22,0,0,0,30.28,10,41
8A0,1/6/16 23:15,41,30.2,65.16,90,4,0,30.24,10,37.93
4A6,1/6/16 23:35,39.2,28.4,64.93,0,0,0,30.28,10,39.2
8A0,1/6/16 23:35,39.2,30.2,69.88,80,4,0,30.24,10,35.83
8A0,1/6/16 23:55,39.2,30.2,69.88,90,4,0,30.24,10,35.83
4A6,1/6/16 23:55,37.4,26.6,64.7,0,0,0,30.28,10,37.4
8A0,1/7/16 0:15,39.2,30.2,69.88,100,5,0,30.24,10,34.95
4A6,1/7/16 0:15,35.6,26.6,69.46,0,0,0,30.28,10,35.6
8A0,1/7/16 0:35,39.2,30.2,69.88,100,6,0,30.24,10,34.2
4A6,1/7/16 0:35,35.6,26.6,69.46,0,0,0,30.28,10,35.6
4A6,1/7/16 0:55,35.6,26.6,69.46,0,0,0,30.28,10,35.6
8A0,1/7/16 0:55,39.2,30.2,69.88,90,6,0,30.24,10,34.2
4A6,1/7/16 1:15,35.6,26.6,69.46,0,0,0,30.29,10,35.6
8A0,1/7/16 1:15,37.4,30.2,74.98,90,6,0,30.24,10,32.03
4A6,1/7/16 1:35,35.6,26.6,69.46,20,3,0,30.29,10,32.8
8A0,1/7/16 1:35,39.2,30.2,69.88,100,6,0,30.25,10,34.2
4A6,1/7/16 1:55,35.6,26.6,69.46,0,0,0,30.29,10,35.6
8A0,1/7/16 1:55,39.2,30.2,69.88,100,3,0,30.25,10,36.92
4A6,1/7/16 2:15,33.8,26.6,74.63,0,0,0,30.29,10,33.8
8A0,1/7/16 2:15,39.2,30.2,69.88,100,4,0,30.25,10,35.83
8A0,1/7/16 2:35,39.2,30.2,69.88,110,5,0,30.25,10,34.95
4A6,1/7/16 2:35,32,26.6,80.22,60,3,0,30.29,10,28.69
4A6,1/7/16 2:55,32,26.6,80.22,20,3,0,30.29,10,28.69
8A0,1/7/16 2:55,39.2,30.2,69.88,100,5,0,30.24,10,34.95
8A0,1/7/16 3:15,39.2,30.2,69.88,100,4,0,30.24,10,35.83
4A6,1/7/16 3:15,32,26.6,80.22,0,0,0,30.29,10,32
8A0,1/7/16 3:35,37.4,30.2,74.98,110,4,0,30.24,10,33.73
4A6,1/7/16 3:35,32,26.6,80.22,30,3,0,30.29,10,28.69
4A6,1/7/16 3:55,33.8,28.4,80.36,0,0,0,30.29,10,33.8
8A0,1/7/16 3:55,39.2,30.2,69.88,110,4,0,30.24,10,35.83
8A0,1/7/16 4:15,39.2,30.2,69.88,110,5,0,30.24,10,34.95
4A6,1/7/16 4:15,33.8,28.4,80.36,0,0,0,30.28,10,33.8
4A6,1/7/16 4:35,32,28.4,86.39,0,0,0,30.28,10,32
8A0,1/7/16 4:35,37.4,30.2,74.98,110,6,0,30.23,10,32.03
4A6,1/7/16 4:55,32,28.4,86.39,0,0,0,30.27,10,32
8A0,1/7/16 4:55,37.4,30.2,74.98,100,5,0,30.23,10,32.81
8A0,1/7/16 5:15,37.4,30.2,74.98,100,6,0,30.22,10,32.03
4A6,1/7/16 5:15,32,28.4,86.39,0,0,0,30.27,10,32
4A6,1/7/16 5:35,32,28.4,86.39,0,0,0,30.26,10,32
8A0,1/7/16 5:35,37.4,28.4,69.67,100,5,0,30.22,10,32.81
4A6,1/7/16 5:55,32,28.4,86.39,0,0,0,30.26,10,32
8A0,1/7/16 5:55,35.6,28.4,74.8,100,5,0,30.21,10,30.67
8A0,1/7/16 6:15,35.6,26.6,69.46,100,4,0,30.2,10,31.62
4A6,1/7/16 6:15,32,28.4,86.39,0,0,0,30.25,10,32
8A0,1/7/16 6:35,35.6,26.6,69.46,100,5,0,30.19,10,30.67
4A6,1/7/16 6:35,32,28.4,86.39,0,0,0,30.25,10,32
4A6,1/7/16 6:55,32,28.4,86.39,30,3,0,30.24,10,28.69
8A0,1/7/16 6:55,35.6,26.6,69.46,100,6,0,30.19,10,29.87
4A6,1/7/16 7:15,32,28.4,86.39,0,0,0,30.23,10,32
8A0,1/7/16 7:15,35.6,26.6,69.46,90,7,0,30.18,10,29.17
4A6,1/7/16 7:35,30.2,26.6,86.28,0,0,0,30.23,10,30.2
8A0,1/7/16 7:35,35.6,26.6,69.46,100,6,0,30.17,10,29.87
8A0,1/7/16 7:55,35.6,26.6,69.46,100,6,0,30.17,10,29.87
4A6,1/7/16 7:55,30.2,26.6,86.28,0,0,0,30.22,10,30.2
8A0,1/7/16 8:15,35.6,26.6,69.46,90,7,0,30.16,10,29.17
4A6,1/7/16 8:15,30.2,26.6,86.28,0,0,0,30.22,10,30.2
8A0,1/7/16 8:35,33.8,28.4,80.36,80,5,0,30.15,10,28.53
4A6,1/7/16 8:35,30.2,26.6,86.28,60,3,0,30.21,10,26.63
8A0,1/7/16 8:55,35.6,28.4,74.8,90,7,0,30.13,10,29.17
4A6,1/7/16 8:55,30.2,26.6,86.28,0,0,0,30.2,10,30.2
8A0,1/7/16 9:15,35.6,28.4,74.8,80,9,0,30.12,10,27.99
4A6,1/7/16 9:15,30.2,26.6,86.28,0,0,0,30.19,10,30.2
4A6,1/7/16 9:35,28.4,26.6,92.86,50,3,0,30.17,10,24.57
8A0,1/7/16 9:35,35.6,28.4,74.8,100,5,0,30.12,10,30.67
4A6,1/7/16 9:55,32,26.6,80.22,0,0,0,30.17,10,32
8A0,1/7/16 9:55,35.6,28.4,74.8,100,4,0,30.13,10,31.62
4A6,1/7/16 10:15,32,26.6,80.22,0,0,0,30.18,10,32
8A0,1/7/16 10:15,33.8,28.4,80.36,100,3,0,30.13,10,30.75
8A0,1/7/16 10:35,35.6,30.2,80.51,120,3,0,30.14,10,32.8
4A6,1/7/16 10:35,33.8,28.4,80.36,60,3,0,30.18,10,30.75
8A0,1/7/16 10:55,35.6,30.2,80.51,90,4,0,30.14,10,31.62
4A6,1/7/16 10:55,33.8,28.4,80.36,40,3,0,30.19,10,30.75
8A0,1/7/16 11:15,33.8,30.2,86.49,80,4,0,30.14,10,29.52
4A6,1/7/16 11:15,33.8,28.4,80.36,60,3,0,30.2,10,30.75
4A6,1/7/16 11:35,35.6,26.6,69.46,70,4,0,30.19,10,31.62
8A0,1/7/16 11:35,33.8,32,93.03,80,3,0,30.15,10,30.75
4A6,1/7/16 11:55,33.8,26.6,74.63,0,0,0,30.21,10,33.8
8A0,1/7/16 11:55,33.8,32,93.03,80,5,0,30.15,10,28.53
8A0,1/7/16 12:15,33.8,32,93.03,80,5,0,30.15,10,28.53
4A6,1/7/16 12:15,33.8,28.4,80.36,0,0,0,30.21,10,33.8
8A0,1/7/16 12:35,33.8,32,93.03,70,5,0,30.15,10,28.53
4A6,1/7/16 12:35,33.8,28.4,80.36,40,3,0,30.21,10,30.75
4A6,1/7/16 12:55,32,28.4,86.39,40,3,0,30.22,10,28.69
8A0,1/7/16 12:55,35.6,32,86.59,90,5,0,30.16,10,30.67
8A0,1/7/16 13:15,35.6,32,86.59,80,4,0,30.17,10,31.62
4A6,1/7/16 13:15,33.8,28.4,80.36,30,4,0,30.22,10,29.52
8A0,1/7/16 13:35,37.4,33.8,86.69,90,6,0,30.17,10,32.03
4A6,1/7/16 13:35,35.6,26.6,69.46,40,3,0,30.22,10,32.8
4A6,1/7/16 13:55,35.6,28.4,74.8,30,3,0,30.22,10,32.8
8A0,1/7/16 13:55,39.2,33.8,80.79,90,8,0,30.16,10,32.98
8A0,1/7/16 14:15,41,33.8,75.33,90,6,0,30.17,10,36.37
4A6,1/7/16 14:15,35.6,28.4,74.8,40,4,0,30.22,10,31.62
4A6,1/7/16 14:35,37.4,28.4,69.67,20,4,0,30.22,10,33.73
8A0,1/7/16 14:35,41,35.6,80.93,120,3,0,30.17,10,38.98
8A0,1/7/16 14:55,42.8,35.6,75.5,120,5,0,30.18,7,39.22
4A6,1/7/16 14:55,37.4,28.4,69.67,10,3,0,30.23,10,34.86
8A0,1/7/16 15:15,42.8,35.6,75.5,100,9,0,30.17,10,36.94
4A6,1/7/16 15:15,37.4,28.4,69.67,20,3,0.01,30.22,6,34.86
4A6,1/7/16 15:35,39.2,30.2,69.88,10,4,0.01,30.23,5,35.83
8A0,1/7/16 15:35,44.6,35.6,70.48,90,9,0,30.17,10,39.18
8A0,1/7/16 15:55,44.6,35.6,70.48,90,8,0,30.16,10,39.63
4A6,1/7/16 15:55,41,32,70.08,40,4,0.02,30.21,10,37.93
8A0,1/7/16 16:15,46.4,35.6,65.83,100,7,0,30.15,10,42.33
4A6,1/7/16 16:15,42.8,28.4,56.48,40,8,0,30.2,7,37.42
4A6,1/7/16 16:35,44.6,30.2,56.74,30,8,0,30.19,10,39.63
8A0,1/7/16 16:35,46.4,35.6,65.83,100,9,0,30.14,10,41.42
4A6,1/7/16 16:55,46.4,28.4,49.24,30,5,0,30.17,10,43.5
8A0,1/7/16 16:55,50,37.4,61.76,90,6,0,30.13,10,47.21
4A6,1/7/16 17:15,48.2,30.2,49.53,40,6,0,30.15,10,45.04
8A0,1/7/16 17:15,48.2,37.4,66.05,100,6,0,30.12,10,45.04
4A6,1/7/16 17:35,50,30.2,46.31,40,5,0,30.14,10,47.77
8A0,1/7/16 17:35,51.8,41,66.48,100,6,0,30.1,10,51.8
8A0,1/7/16 17:55,53.6,41,62.23,110,7,0,30.08,10,53.6
4A6,1/7/16 17:55,50,32,49.81,60,4,0,30.12,10,48.44
8A0,1/7/16 18:15,53.6,42.8,66.7,100,6,0,30.06,10,53.6
4A6,1/7/16 18:15,51.8,32,46.59,50,4,0,30.1,10,51.8
8A0,1/7/16 18:35,53.6,42.8,66.7,110,4,0,30.04,10,53.6
4A6,1/7/16 18:35,51.8,32,46.59,70,3,0,30.08,10,51.8
4A6,1/7/16 18:55,53.6,32,43.61,30,5,0,30.07,10,53.6
8A0,1/7/16 18:55,53.6,42.8,66.7,100,3,0,30.03,10,53.6
8A0,1/7/16 19:15,53.6,42.8,66.7,100,7,0,30.02,10,53.6
4A6,1/7/16 19:15,53.6,32,43.61,30,3,0,30.06,10,53.6
4A6,1/7/16 19:35,53.6,32,43.61,40,5,0,30.04,10,53.6
8A0,1/7/16 19:35,53.6,42.8,66.7,120,5,0,30.01,10,53.6
8A0,1/7/16 19:55,53.6,42.8,66.7,100,5,0,30,10,53.6
4A6,1/7/16 19:55,55.4,32,40.84,30,4,0,30.04,10,55.4
4A6,1/7/16 20:15,55.4,33.8,43.9,10,4,0,30.03,10,55.4
8A0,1/7/16 20:15,53.6,42.8,66.7,100,4,0,30.01,10,53.6
8A0,1/7/16 20:35,53.6,42.8,66.7,120,7,0,30,10,53.6
4A6,1/7/16 20:35,55.4,35.6,47.16,0,0,0,30.03,10,55.4
4A6,1/7/16 20:55,55.4,33.8,43.9,30,3,0,30.03,10,55.4
8A0,1/7/16 20:55,53.6,42.8,66.7,100,5,0,30,10,53.6
8A0,1/7/16 21:15,53.6,42.8,66.7,100,4,0,30,10,53.6
4A6,1/7/16 21:15,55.4,35.6,47.16,0,0,0,30.03,10,55.4
8A0,1/7/16 21:35,53.6,42.8,66.7,90,4,0,29.98,10,53.6
4A6,1/7/16 21:35,55.4,35.6,47.16,40,4,0,30.02,10,55.4
4A6,1/7/16 21:55,55.4,35.6,47.16,30,4,0,30.01,10,55.4
8A0,1/7/16 21:55,53.6,42.8,66.7,110,3,0,29.98,10,53.6
8A0,1/7/16 22:15,53.6,44.6,71.45,100,6,0,29.97,10,53.6
4A6,1/7/16 22:15,55.4,37.4,50.64,0,0,0,30,10,55.4
4A6,1/7/16 22:35,53.6,37.4,54.07,20,3,0,30,10,53.6
8A0,1/7/16 22:35,53.6,42.8,66.7,100,6,0,29.97,10,53.6
8A0,1/7/16 22:55,51.8,44.6,76.34,100,5,0,29.98,10,51.8
4A6,1/7/16 22:55,53.6,39.2,58.02,0,0,0,30,10,53.6
8A0,1/7/16 23:15,51.8,44.6,76.34,90,6,0,29.98,10,51.8
4A6,1/7/16 23:15,53.6,37.4,54.07,0,0,0,30.01,10,53.6
8A0,1/7/16 23:35,51.8,44.6,76.34,90,5,0,29.98,10,51.8
4A6,1/7/16 23:35,51.8,39.2,61.99,0,0,0,30.01,10,51.8
4A6,1/7/16 23:55,51.8,39.2,61.99,0,0,0,30.01,10,51.8
8A0,1/7/16 23:55,51.8,44.6,76.34,90,6,0,29.98,10,51.8
8A0,1/8/16 0:15,51.8,44.6,76.34,100,5,0,29.98,10,51.8
4A6,1/8/16 0:15,50,39.2,66.27,0,0,0,30.01,10,50
8A0,1/8/16 0:35,51.8,46.4,81.74,110,3,0,29.99,10,51.8
4A6,1/8/16 0:35,50,41,71.07,0,0,0,30.02,10,50
4A6,1/8/16 0:55,50,39.2,66.27,90,3,0,30.02,10,49.27
8A0,1/8/16 0:55,51.8,46.4,81.74,120,3,0,29.99,10,51.8
8A0,1/8/16 1:15,53.6,48.2,81.87,120,4,0,29.99,10,53.6
4A6,1/8/16 1:15,51.8,39.2,61.99,70,5,0,30.02,10,51.8
4A6,1/8/16 1:35,53.6,39.2,58.02,50,3,0,30.02,10,53.6
8A0,1/8/16 1:35,53.6,50,87.56,120,6,0,29.99,10,53.6
8A0,1/8/16 1:55,51.8,50,93.55,110,6,0,29.99,10,51.8
4A6,1/8/16 1:55,55.4,41,58.27,0,0,0,30.02,10,55.4
8A0,1/8/16 2:15,53.6,50,87.56,120,7,0,29.98,10,53.6
4A6,1/8/16 2:15,55.4,44.6,66.91,0,0,0,30.02,10,55.4
4A6,1/8/16 2:35,53.6,44.6,71.45,0,0,0,30.02,10,53.6
8A0,1/8/16 2:35,53.6,50,87.56,110,5,0,29.98,10,53.6
4A6,1/8/16 2:55,53.6,44.6,71.45,30,5,0,30.01,10,53.6
8A0,1/8/16 2:55,51.8,50,93.55,110,4,0,29.98,10,51.8
4A6,1/8/16 3:15,51.8,41,66.48,10,4,0,30.01,10,51.8
8A0,1/8/16 3:15,51.8,50,93.55,110,4,0,29.97,10,51.8
8A0,1/8/16 3:35,51.8,50,93.55,120,4,0,29.97,10,51.8
4A6,1/8/16 3:35,51.8,41,66.48,0,0,0,30.01,10,51.8
4A6,1/8/16 3:55,50,41,71.07,0,0,0,30,10,50
8A0,1/8/16 3:55,51.8,50,93.55,120,4,0,29.98,10,51.8
4A6,1/8/16 4:15,50,41,71.07,0,0,0,30,10,50
8A0,1/8/16 4:15,51.8,51.8,100,120,5,0,29.97,10,51.8
8A0,1/8/16 4:35,51.8,51.8,100,110,5,0,29.97,10,51.8
4A6,1/8/16 4:35,50,44.6,81.61,0,0,0,30,10,50
8A0,1/8/16 4:55,51.8,51.8,100,110,4,0,29.96,10,51.8
4A6,1/8/16 4:55,53.6,44.6,71.45,100,6,0,29.98,10,53.6
8A0,1/8/16 5:15,51.8,51.8,100,110,6,0,29.95,10,51.8
4A6,1/8/16 5:15,55.4,44.6,66.91,130,6,0,29.98,10,55.4
8A0,1/8/16 5:35,51.8,51.8,100,120,9,0,29.95,10,51.8
4A6,1/8/16 5:35,53.6,46.4,76.5,150,7,0,29.98,10,53.6
4A6,1/8/16 5:55,53.6,46.4,76.5,110,4,0,29.97,10,53.6
8A0,1/8/16 5:55,51.8,51.8,100,110,6,0,29.94,10,51.8
4A6,1/8/16 6:15,53.6,46.4,76.5,80,3,0,29.97,10,53.6
8A0,1/8/16 6:15,51.8,51.8,100,130,6,0,29.94,10,51.8
4A6,1/8/16 6:35,53.6,46.4,76.5,40,3,0,29.96,9,53.6
8A0,1/8/16 6:35,51.8,51.8,100,140,6,0,29.95,7,51.8
8A0,1/8/16 6:55,50,50,100,120,5,0.01,29.94,10,47.77
4A6,1/8/16 6:55,50,50,100,350,4,0.01,29.96,5,48.44
8A0,1/8/16 7:15,50,50,100,120,4,0,29.94,10,48.44
4A6,1/8/16 7:15,50,50,100,0,0,0.02,29.96,4,50
4A6,1/8/16 7:35,51.8,50,93.55,0,0,0.02,29.96,9,51.8
8A0,1/8/16 7:35,50,50,100,120,3,0,29.94,10,49.27
4A6,1/8/16 7:55,51.8,50,93.55,120,4,0.02,29.96,8,51.8
8A0,1/8/16 7:55,50,50,100,120,4,0,29.94,10,48.44
8A0,1/8/16 8:15,50,50,100,130,3,0,29.94,10,49.27
4A6,1/8/16 8:15,53.6,48.2,81.87,170,8,0.01,29.96,8,53.6
4A6,1/8/16 8:35,51.8,50,93.55,270,4,0.01,29.96,8,51.8
8A0,1/8/16 8:35,50,50,100,150,5,0,29.94,10,47.77
4A6,1/8/16 8:55,50,50,100,360,4,0.01,29.96,10,48.44
8A0,1/8/16 8:55,50,50,100,150,5,0,29.95,10,47.77
4A6,1/8/16 9:15,50,50,100,230,3,0,29.96,9,49.27
8A0,1/8/16 9:15,50,50,100,150,6,0,29.94,10,47.21
8A0,1/8/16 9:35,50,50,100,130,7,0,29.94,10,46.72
4A6,1/8/16 9:35,51.8,50,93.55,240,5,0,29.96,10,51.8
8A0,1/8/16 9:55,50,50,100,140,4,0,29.94,10,48.44
4A6,1/8/16 9:55,53.6,50,87.56,210,6,0,29.96,10,53.6
4A6,1/8/16 10:15,53.6,48.2,81.87,180,3,0,29.95,10,53.6
8A0,1/8/16 10:15,51.8,51.8,100,150,3,0,29.94,10,51.8
4A6,1/8/16 10:35,53.6,50,87.56,0,0,0,29.95,10,53.6
8A0,1/8/16 10:35,51.8,51.8,100,140,5,0,29.93,10,51.8
4A6,1/8/16 10:55,51.8,50,93.55,210,3,0,29.96,10,51.8
8A0,1/8/16 10:55,51.8,51.8,100,140,6,0,29.93,10,51.8
4A6,1/8/16 11:15,53.6,50,87.56,0,0,0,29.96,10,53.6
8A0,1/8/16 11:15,50,50,100,140,5,0,29.93,10,47.77
4A6,1/8/16 11:35,53.6,50,87.56,0,0,0,29.96,10,53.6
8A0,1/8/16 11:35,50,50,100,140,4,0,29.94,10,48.44
4A6,1/8/16 11:55,51.8,50,93.55,0,0,0,29.97,10,51.8
8A0,1/8/16 11:55,50,50,100,130,3,0,29.95,10,49.27
4A6,1/8/16 12:15,51.8,50,93.55,160,4,0,29.98,10,51.8
8A0,1/8/16 12:15,50,50,100,170,3,0,29.95,10,49.27
4A6,1/8/16 12:35,51.8,50,93.55,160,5,0,29.98,10,51.8
8A0,1/8/16 12:35,50,50,100,150,3,0,29.96,10,49.27
8A0,1/8/16 12:55,50,50,100,130,3,0,29.96,10,49.27
4A6,1/8/16 12:55,51.8,50,93.55,0,0,0,29.98,10,51.8
8A0,1/8/16 13:15,50,50,100,0,0,0,29.96,7,50
4A6,1/8/16 13:15,51.8,48.2,87.47,170,5,0,29.98,10,51.8
4A6,1/8/16 13:35,51.8,48.2,87.47,140,6,0,29.99,10,51.8
8A0,1/8/16 13:35,50,50,100,130,8,0,29.96,7,46.29
4A6,1/8/16 13:55,50,48.2,93.5,150,5,0,29.99,10,47.77
8A0,1/8/16 13:55,50,50,100,120,5,0,29.97,7,47.77
4A6,1/8/16 14:15,51.8,48.2,87.47,140,7,0,30,10,51.8
8A0,1/8/16 14:15,50,50,100,110,4,0,29.98,10,48.44
4A6,1/8/16 14:35,51.8,48.2,87.47,130,3,0,30,10,51.8
8A0,1/8/16 14:35,50,50,100,120,5,0,29.98,10,47.77
4A6,1/8/16 14:55,51.8,48.2,87.47,180,5,0,30,10,51.8
8A0,1/8/16 14:55,50,50,100,110,5,0,29.99,10,47.77
4A6,1/8/16 15:15,51.8,48.2,87.47,190,7,0,30.01,10,51.8
8A0,1/8/16 15:15,50,50,100,130,4,0,29.99,10,48.44
4A6,1/8/16 15:35,51.8,48.2,87.47,160,6,0,30.02,10,51.8
8A0,1/8/16 15:35,50,50,100,130,8,0,29.99,10,46.29
8A0,1/8/16 15:55,50,50,100,150,4,0,30,10,48.44
4A6,1/8/16 15:55,53.6,48.2,81.87,0,0,0,30.02,10,53.6
4A6,1/8/16 16:15,53.6,48.2,81.87,170,6,0,30.01,10,53.6
8A0,1/8/16 16:15,51.8,51.8,100,150,5,0,30,10,51.8
8A0,1/8/16 16:35,51.8,51.8,100,150,5,0,29.99,10,51.8
4A6,1/8/16 16:35,53.6,48.2,81.87,180,4,0,30.01,10,53.6
4A6,1/8/16 16:55,53.6,48.2,81.87,170,4,0,30,10,53.6
8A0,1/8/16 16:55,51.8,51.8,100,140,6,0,29.98,10,51.8
4A6,1/8/16 17:15,53.6,50,87.56,180,3,0,29.99,10,53.6
8A0,1/8/16 17:15,51.8,51.8,100,160,8,0,29.97,10,51.8
8A0,1/8/16 17:35,51.8,51.8,100,140,4,0,29.97,10,51.8
4A6,1/8/16 17:35,53.6,50,87.56,190,4,0,29.98,10,53.6
4A6,1/8/16 17:55,53.6,50,87.56,200,5,0,29.97,10,53.6
8A0,1/8/16 17:55,51.8,51.8,100,150,7,0,29.95,10,51.8
4A6,1/8/16 18:15,53.6,50,87.56,190,6,0,29.97,10,53.6
8A0,1/8/16 18:15,53.6,53.6,100,160,4,0,29.95,10,53.6
8A0,1/8/16 18:35,51.8,51.8,100,130,5,0,29.94,10,51.8
4A6,1/8/16 18:35,55.4,50,81.99,170,6,0,29.95,10,55.4
4A6,1/8/16 18:55,55.4,50,81.99,150,6,0,29.94,10,55.4
8A0,1/8/16 18:55,53.6,53.6,100,140,6,0,29.93,10,53.6
8A0,1/8/16 19:15,53.6,53.6,100,150,6,0,29.93,10,53.6
4A6,1/8/16 19:15,55.4,50,81.99,180,6,0,29.94,10,55.4
4A6,1/8/16 19:35,55.4,50,81.99,210,6,0,29.94,10,55.4
8A0,1/8/16 19:35,53.6,53.6,100,160,7,0,29.92,10,53.6
4A6,1/8/16 19:55,55.4,50,81.99,190,5,0,29.94,10,55.4
8A0,1/8/16 19:55,53.6,53.6,100,150,5,0,29.92,10,53.6
4A6,1/8/16 20:15,55.4,50,81.99,210,6,0,29.95,10,55.4
8A0,1/8/16 20:15,53.6,53.6,100,180,6,0,29.92,10,53.6
8A0,1/8/16 20:35,53.6,53.6,100,160,4,0,29.92,10,53.6
4A6,1/8/16 20:35,55.4,50,81.99,220,4,0,29.95,10,55.4
4A6,1/8/16 20:55,55.4,50,81.99,210,6,0,29.95,10,55.4
8A0,1/8/16 20:55,53.6,53.6,100,150,6,0,29.93,10,53.6
8A0,1/8/16 21:15,53.6,53.6,100,140,5,0,29.93,10,53.6
4A6,1/8/16 21:15,55.4,50,81.99,200,5,0,29.95,10,55.4
4A6,1/8/16 21:35,55.4,50,81.99,190,5,0,29.95,10,55.4
8A0,1/8/16 21:35,53.6,53.6,100,140,3,0,29.92,10,53.6
8A0,1/8/16 21:55,53.6,53.6,100,140,4,0,29.92,10,53.6
4A6,1/8/16 21:55,55.4,50,81.99,190,3,0,29.95,10,55.4
8A0,1/8/16 22:15,53.6,53.6,100,130,4,0,29.92,10,53.6
4A6,1/8/16 22:15,55.4,50,81.99,160,4,0,29.95,10,55.4
4A6,1/8/16 22:35,55.4,50,81.99,160,4,0,29.96,10,55.4
8A0,1/8/16 22:35,53.6,53.6,100,110,3,0,29.93,10,53.6
4A6,1/8/16 22:55,55.4,50,81.99,0,0,0,29.96,10,55.4
8A0,1/8/16 22:55,53.6,53.6,100,110,3,0,29.94,10,53.6
8A0,1/8/16 23:15,53.6,53.6,100,110,3,0,29.94,10,53.6
4A6,1/8/16 23:15,55.4,50,81.99,0,0,0,29.96,10,55.4
4A6,1/8/16 23:35,53.6,50,87.56,0,0,0,29.97,10,53.6
8A0,1/8/16 23:35,53.6,53.6,100,120,4,0,29.94,10,53.6
8A0,1/8/16 23:55,51.8,51.8,100,0,0,0,29.95,10,51.8
4A6,1/8/16 23:55,53.6,50,87.56,0,0,0,29.97,10,53.6
8A0,1/9/16 0:15,51.8,51.8,100,100,3,0,29.96,10,51.8
4A6,1/9/16 0:15,53.6,50,87.56,0,0,0,29.98,10,53.6
4A6,1/9/16 0:35,53.6,51.8,93.6,210,3,0,29.98,10,53.6
8A0,1/9/16 0:35,51.8,51.8,100,120,3,0,29.95,10,51.8
4A6,1/9/16 0:55,53.6,50,87.56,0,0,0,29.97,10,53.6
8A0,1/9/16 0:55,51.8,51.8,100,120,5,0,29.95,10,51.8
8A0,1/9/16 1:15,51.8,51.8,100,120,4,0,29.96,10,51.8
4A6,1/9/16 1:15,53.6,50,87.56,160,3,0,29.98,10,53.6
4A6,1/9/16 1:35,53.6,50,87.56,170,3,0,29.98,10,53.6
8A0,1/9/16 1:35,51.8,51.8,100,130,5,0,29.96,10,51.8
8A0,1/9/16 1:55,51.8,51.8,100,120,4,0,29.96,10,51.8
4A6,1/9/16 1:55,53.6,50,87.56,120,3,0,29.98,10,53.6
8A0,1/9/16 2:15,50,50,100,120,4,0,29.95,10,48.44
4A6,1/9/16 2:15,53.6,50,87.56,160,3,0,29.99,10,53.6
4A6,1/9/16 2:35,53.6,50,87.56,140,5,0,29.98,10,53.6
8A0,1/9/16 2:35,50,50,100,130,4,0,29.96,10,48.44
4A6,1/9/16 2:55,51.8,50,93.55,0,0,0,29.98,10,51.8
8A0,1/9/16 2:55,50,50,100,130,4,0,29.97,10,48.44
8A0,1/9/16 3:15,48.2,48.2,100,120,3,0,29.96,10,47.21
4A6,1/9/16 3:15,51.8,50,93.55,160,4,0,29.99,10,51.8
4A6,1/9/16 3:35,51.8,50,93.55,160,3,0,29.99,10,51.8
8A0,1/9/16 3:35,48.2,48.2,100,130,4,0,29.96,10,46.34
4A6,1/9/16 3:55,50,50,100,110,4,0,29.98,10,48.44
8A0,1/9/16 3:55,48.2,48.2,100,120,3,0,29.95,10,47.21
8A0,1/9/16 4:15,48.2,48.2,100,120,5,0,29.94,10,45.63
4A6,1/9/16 4:15,50,50,100,160,4,0,29.98,10,48.44
8A0,1/9/16 4:35,48.2,48.2,100,110,3,0,29.94,10,47.21
4A6,1/9/16 4:35,48.2,48.2,100,0,0,0,29.98,10,48.2
4A6,1/9/16 4:55,48.2,48.2,100,0,0,0,29.98,10,48.2
8A0,1/9/16 4:55,48.2,48.2,100,100,4,0,29.95,10,46.34
4A6,1/9/16 5:15,46.4,46.4,100,0,0,0,29.98,9,46.4
8A0,1/9/16 5:15,48.2,48.2,100,120,4,0,29.94,10,46.34
4A6,1/9/16 5:35,46.4,46.4,100,0,0,0,29.97,7,46.4
8A0,1/9/16 5:35,48.2,48.2,100,110,3,0,29.93,10,47.21
4A6,1/9/16 5:55,44.6,44.6,100,0,0,0,29.97,3,44.6
8A0,1/9/16 5:55,48.2,48.2,100,110,5,0,29.93,10,45.63
4A6,1/9/16 6:15,44.6,44.6,100,0,0,0,29.96,3,44.6
8A0,1/9/16 6:15,48.2,48.2,100,100,4,0,29.92,10,46.34
4A6,1/9/16 6:35,44.6,44.6,100,0,0,0,29.95,3,44.6
8A0,1/9/16 6:35,48.2,48.2,100,100,5,0,29.92,10,45.63
8A0,1/9/16 6:55,48.2,48.2,100,120,5,0,29.91,10,45.63
4A6,1/9/16 6:55,44.6,44.6,100,0,0,0,29.95,5,44.6
8A0,1/9/16 7:15,48.2,48.2,100,130,5,0,29.92,10,45.63
4A6,1/9/16 7:15,44.6,44.6,100,0,0,0,29.95,4,44.6
8A0,1/9/16 7:35,50,50,100,120,5,0,29.92,10,47.77
4A6,1/9/16 7:35,44.6,44.6,100,0,0,0,29.95,5,44.6
4A6,1/9/16 7:55,44.6,44.6,100,0,0,0,29.95,5,44.6
8A0,1/9/16 7:55,48.2,48.2,100,100,5,0,29.91,7,45.63
8A0,1/9/16 8:15,48.2,48.2,100,120,6,0,29.9,7,45.04
4A6,1/9/16 8:15,44.6,44.6,100,0,0,0,29.95,4,44.6
4A6,1/9/16 8:35,44.6,44.6,100,0,0,0,29.94,5,44.6
8A0,1/9/16 8:35,48.2,48.2,100,120,5,0,29.9,7,45.63
4A6,1/9/16 8:55,44.6,44.6,100,20,3,0,29.94,4,43.09
8A0,1/9/16 8:55,50,50,100,110,4,0,29.91,7,48.44
8A0,1/9/16 9:15,50,50,100,120,3,0,29.92,10,49.27
4A6,1/9/16 9:15,44.6,44.6,100,0,0,0,29.95,5,44.6
4A6,1/9/16 9:35,44.6,44.6,100,0,0,0,29.96,5,44.6
8A0,1/9/16 9:35,50,50,100,0,0,0,29.92,10,50
8A0,1/9/16 9:55,50,50,100,90,5,0,29.9,10,47.77
4A6,1/9/16 9:55,46.4,46.4,100,0,0,0,29.95,5,46.4
8A0,1/9/16 10:15,50,50,100,110,4,0,29.9,10,48.44
4A6,1/9/16 10:15,46.4,46.4,100,0,0,0,29.95,5,46.4
4A6,1/9/16 10:35,46.4,46.4,100,20,3,0,29.93,5,45.15
8A0,1/9/16 10:35,50,50,100,110,5,0,29.89,10,47.77
8A0,1/9/16 10:55,50,50,100,110,4,0,29.9,7,48.44
4A6,1/9/16 10:55,46.4,46.4,100,0,0,0,29.93,6,46.4
4A6,1/9/16 11:15,46.4,46.4,100,50,3,0,29.93,8,45.15
8A0,1/9/16 11:15,50,50,100,100,6,0,29.89,10,47.21
4A6,1/9/16 11:35,48.2,48.2,100,160,4,0,29.94,10,46.34
8A0,1/9/16 11:35,50,50,100,100,4,0,29.9,10,48.44
8A0,1/9/16 11:55,50,50,100,110,6,0,29.9,10,47.21
4A6,1/9/16 11:55,50,48.2,93.5,0,0,0,29.94,10,50
4A6,1/9/16 12:15,50,48.2,93.5,0,0,0,29.93,10,50
8A0,1/9/16 12:15,48.2,48.2,100,90,7,0,29.87,10,44.53
8A0,1/9/16 12:35,50,50,100,120,3,0,29.91,10,49.27
4A6,1/9/16 12:35,50,48.2,93.5,120,3,0,29.93,10,49.27
4A6,1/9/16 12:55,50,50,100,180,3,0,29.94,10,49.27
8A0,1/9/16 12:55,50,50,100,130,5,0,29.92,10,47.77
4A6,1/9/16 13:15,50,50,100,160,4,0,29.94,10,48.44
8A0,1/9/16 13:15,50,50,100,120,7,0,29.9,10,46.72
4A6,1/9/16 13:35,50,50,100,150,3,0,29.93,10,49.27
8A0,1/9/16 13:35,50,50,100,120,7,0,29.9,10,46.72
8A0,1/9/16 13:55,50,50,100,110,4,0,29.9,10,48.44
4A6,1/9/16 13:55,50,50,100,140,5,0,29.92,10,47.77
4A6,1/9/16 14:15,51.8,50,93.55,210,4,0,29.92,10,51.8
8A0,1/9/16 14:15,50,50,100,110,6,0,29.9,10,47.21
8A0,1/9/16 14:35,50,50,100,110,3,0,29.91,10,49.27
4A6,1/9/16 14:35,51.8,50,93.55,150,5,0,29.92,10,51.8
4A6,1/9/16 14:55,51.8,50,93.55,150,8,0,29.92,10,51.8
8A0,1/9/16 14:55,50,50,100,120,5,0,29.9,7,47.77
8A0,1/9/16 15:15,50,50,100,140,5,0,29.89,5,47.77
4A6,1/9/16 15:15,51.8,50,93.55,180,9,0,29.92,10,51.8
4A6,1/9/16 15:35,51.8,50,93.55,190,6,0,29.92,10,51.8
8A0,1/9/16 15:35,50,50,100,130,5,0,29.9,4,47.77
8A0,1/9/16 15:55,50,50,100,140,7,0,29.9,10,46.72
4A6,1/9/16 15:55,51.8,50,93.55,220,7,0,29.93,10,51.8
4A6,1/9/16 16:15,51.8,50,93.55,190,7,0,29.93,10,51.8
8A0,1/9/16 16:15,50,50,100,140,6,0,29.89,10,47.21
8A0,1/9/16 16:35,50,50,100,140,7,0,29.88,4,46.72
4A6,1/9/16 16:35,53.6,50,87.56,160,4,0,29.91,10,53.6
4A6,1/9/16 16:55,53.6,50,87.56,170,5,0,29.89,10,53.6
8A0,1/9/16 16:55,51.8,51.8,100,120,5,0,29.86,5,51.8
4A6,1/9/16 17:15,53.6,50,87.56,180,6,0,29.88,10,53.6
8A0,1/9/16 17:15,51.8,51.8,100,110,5,0,29.83,10,51.8
8A0,1/9/16 17:35,51.8,51.8,100,110,6,0,29.82,10,51.8
4A6,1/9/16 17:35,53.6,51.8,93.6,150,9,0,29.86,5,53.6
8A0,1/9/16 17:55,51.8,51.8,100,140,5,0,29.81,10,51.8
4A6,1/9/16 17:55,51.8,51.8,100,140,5,0,29.83,10,51.8
4A6,1/9/16 18:15,53.6,51.8,93.6,160,4,0,29.82,10,53.6
8A0,1/9/16 18:15,51.8,51.8,100,130,6,0,29.79,10,51.8
4A6,1/9/16 18:35,53.6,50,87.56,160,4,0,29.8,10,53.6
8A0,1/9/16 18:35,51.8,51.8,100,130,7,0,29.77,10,51.8
4A6,1/9/16 18:55,53.6,50,87.56,170,6,0,29.79,10,53.6
8A0,1/9/16 18:55,51.8,51.8,100,130,8,0,29.76,10,51.8
4A6,1/9/16 19:15,53.6,50,87.56,150,8,0,29.78,10,53.6
8A0,1/9/16 19:15,51.8,51.8,100,140,6,0,29.74,10,51.8
8A0,1/9/16 19:35,51.8,51.8,100,120,6,0,29.73,10,51.8
4A6,1/9/16 19:35,53.6,50,87.56,130,5,0,29.77,10,53.6
4A6,1/9/16 19:55,53.6,50,87.56,180,3,0,29.75,10,53.6
8A0,1/9/16 19:55,51.8,51.8,100,130,7,0,29.7,10,51.8
4A6,1/9/16 20:15,53.6,50,87.56,70,3,0,29.72,10,53.6
8A0,1/9/16 20:15,51.8,51.8,100,120,10,0,29.69,10,51.8
4A6,1/9/16 20:35,53.6,51.8,93.6,160,5,0,29.73,10,53.6
8A0,1/9/16 20:35,51.8,51.8,100,120,8,0,29.67,10,51.8
4A6,1/9/16 20:55,53.6,50,87.56,150,6,0,29.72,10,53.6
8A0,1/9/16 20:55,51.8,51.8,100,130,7,0,29.69,10,51.8
8A0,1/9/16 21:15,51.8,51.8,100,0,0,0,29.69,10,51.8
4A6,1/9/16 21:15,53.6,50,87.56,150,3,0,29.71,10,53.6
8A0,1/9/16 21:35,51.8,51.8,100,120,7,0,29.67,10,51.8
4A6,1/9/16 21:35,53.6,51.8,93.6,130,4,0,29.71,5,53.6
4A6,1/9/16 21:55,53.6,51.8,93.6,130,5,0,29.7,10,53.6
8A0,1/9/16 21:55,51.8,51.8,100,110,6,0,29.67,10,51.8
8A0,1/9/16 22:15,51.8,51.8,100,100,5,0,29.65,10,51.8
4A6,1/9/16 22:15,53.6,51.8,93.6,170,5,0,29.69,10,53.6
4A6,1/9/16 22:35,53.6,51.8,93.6,0,0,0.02,29.7,3,53.6
8A0,1/9/16 22:35,51.8,51.8,100,0,0,0.01,29.66,10,51.8
4A6,1/9/16 22:55,51.8,51.8,100,50,3,0.03,29.69,7,51.8
8A0,1/9/16 22:55,51.8,51.8,100,0,0,0.02,29.65,7,51.8
8A0,1/9/16 23:15,51.8,51.8,100,130,6,0,29.64,10,51.8
4A6,1/9/16 23:15,51.8,51.8,100,80,3,0.02,29.67,5,51.8
8A0,1/9/16 23:35,51.8,51.8,100,190,5,0.01,29.66,7,51.8
4A6,1/9/16 23:35,51.8,51.8,100,0,0,0.13,29.68,1.75,51.8
8A0,1/9/16 23:55,51.8,51.8,100,300,6,0.21,29.69,2.5,51.8
4A6,1/9/16 23:55,50,50,100,290,9,0.17,29.7,3,45.9
8A0,1/10/16 0:15,50,50,100,320,4,0.03,29.69,7,48.44
4A6,1/10/16 0:15,51.8,51.8,100,300,6,0.09,29.71,3,51.8
4A6,1/10/16 0:35,50,50,100,0,0,0.14,29.7,4,50
8A0,1/10/16 0:35,50,50,100,0,0,0.06,29.69,5,50
8A0,1/10/16 0:55,50,50,100,60,3,0.1,29.67,5,49.27
4A6,1/10/16 0:55,50,50,100,150,6,0.16,29.69,5,47.21
8A0,1/10/16 1:15,50,50,100,100,3,0.02,29.67,5,49.27
4A6,1/10/16 1:15,50,50,100,160,4,0.01,29.69,3,48.44
4A6,1/10/16 1:35,50,50,100,0,0,0.02,29.68,4,50
8A0,1/10/16 1:35,50,50,100,0,0,0.02,29.67,10,50
4A6,1/10/16 1:55,50,50,100,240,3,0.04,29.69,5,49.27
8A0,1/10/16 1:55,50,50,100,0,0,0.03,29.68,7,50
8A0,1/10/16 2:15,50,50,100,260,10,0.04,29.69,5,45.54
4A6,1/10/16 2:15,50,50,100,220,4,0.02,29.68,3,48.44
4A6,1/10/16 2:35,50,50,100,210,3,0.05,29.68,7,49.27
8A0,1/10/16 2:35,50,50,100,250,9,0.07,29.69,10,45.9
4A6,1/10/16 2:55,50,50,100,220,5,0.05,29.68,9,47.77
8A0,1/10/16 2:55,50,50,100,210,6,0.1,29.69,7,47.21
4A6,1/10/16 3:15,50,50,100,280,4,0.01,29.69,5,48.44
8A0,1/10/16 3:15,50,50,100,220,5,0.02,29.69,10,47.77
8A0,1/10/16 3:35,50,50,100,220,6,0.02,29.68,10,47.21
4A6,1/10/16 3:35,50,50,100,240,7,0.06,29.69,5,46.72
8A0,1/10/16 3:55,50,50,100,230,7,0.02,29.69,10,46.72
4A6,1/10/16 3:55,50,50,100,220,4,0.07,29.69,10,48.44
8A0,1/10/16 4:15,48.2,48.2,100,230,7,0,29.69,10,44.53
4A6,1/10/16 4:15,50,50,100,0,0,0,29.69,10,50
4A6,1/10/16 4:35,50,50,100,0,0,0,29.69,10,50
8A0,1/10/16 4:35,48.2,48.2,100,240,8,0,29.69,10,44.07
4A6,1/10/16 4:55,50,50,100,250,3,0,29.69,10,49.27
8A0,1/10/16 4:55,48.2,48.2,100,240,13,0,29.69,10,42.32
8A0,1/10/16 5:15,48.2,48.2,100,260,11,0,29.69,10,42.94
4A6,1/10/16 5:15,50,50,100,260,10,0,29.69,10,45.54
8A0,1/10/16 5:35,46.4,46.4,100,250,13,0,29.7,10,40.02
4A6,1/10/16 5:35,50,46.4,87.37,260,9,0,29.69,10,45.9
4A6,1/10/16 5:55,48.2,46.4,93.45,270,7,0,29.69,10,44.53
8A0,1/10/16 5:55,44.6,44.6,100,250,11,0,29.7,10,38.39
4A6,1/10/16 6:15,48.2,46.4,93.45,250,7,0,29.69,10,44.53
8A0,1/10/16 6:15,44.6,44.6,100,240,11,0,29.7,10,38.39
4A6,1/10/16 6:35,48.2,46.4,93.45,250,10,0,29.69,10,43.28
8A0,1/10/16 6:35,44.6,44.6,100,260,14,0,29.7,10,37.4
4A6,1/10/16 6:55,48.2,42.8,81.47,270,14,0,29.71,10,42.04
8A0,1/10/16 6:55,44.6,44.6,100,260,15,0,29.72,10,37.11
8A0,1/10/16 7:15,42.8,42.8,100,260,14,0,29.73,10,35.08
4A6,1/10/16 7:15,46.4,39.2,75.84,280,16,0,29.72,10,39.19
4A6,1/10/16 7:35,44.6,41,87.09,270,12,0,29.73,10,38.04
8A0,1/10/16 7:35,42.8,42.8,100,260,15,0,29.74,10,34.78
8A0,1/10/16 7:55,41,41,100,270,17,0,29.75,10,31.87
4A6,1/10/16 7:55,44.6,39.2,81.2,260,13,0,29.75,10,37.71
4A6,1/10/16 8:15,41,37.4,86.89,270,15,0,29.77,10,32.45
8A0,1/10/16 8:15,41,41,100,290,16,0,29.77,7,32.15
4A6,1/10/16 8:35,41,33.8,75.33,260,12,0,29.79,10,33.46
8A0,1/10/16 8:35,39.2,39.2,100,290,14,0,29.77,10,30.44
8A0,1/10/16 8:55,37.4,37.4,100,280,14,0,29.78,10,28.12
4A6,1/10/16 8:55,39.2,32,75.16,260,8,0,29.79,10,32.98
4A6,1/10/16 9:15,39.2,32,75.16,270,5,0,29.81,10,34.95
8A0,1/10/16 9:15,37.4,37.4,100,280,17,0,29.8,10,27.15
8A0,1/10/16 9:35,37.4,37.4,100,300,12,0,29.81,10,28.87
4A6,1/10/16 9:35,39.2,32,75.16,280,6,0,29.82,10,34.2
8A0,1/10/16 9:55,35.6,33.8,93.08,280,15,0,29.82,10,25.45
4A6,1/10/16 9:55,37.4,32,80.65,280,10,0,29.83,10,29.74
8A0,1/10/16 10:15,33.8,33.8,100,290,8,0,29.83,10,26.33
4A6,1/10/16 10:15,37.4,32,80.65,260,11,0,29.84,10,29.29
8A0,1/10/16 10:35,33.8,33.8,100,290,10,0,29.83,10,25.23
4A6,1/10/16 10:35,35.6,32,86.59,270,8,0,29.85,10,28.55
8A0,1/10/16 10:55,33.8,33.8,100,290,12,0,29.84,10,24.29
4A6,1/10/16 10:55,35.6,32,86.59,260,7,0,29.86,6,29.17
8A0,1/10/16 11:15,33.8,33.8,100,290,15,0,29.85,10,23.11
4A6,1/10/16 11:15,35.6,33.8,93.08,260,3,0,29.87,6,32.8
8A0,1/10/16 11:35,33.8,33.8,100,300,11,0,29.87,10,24.74
4A6,1/10/16 11:35,35.6,32,86.59,250,6,0,29.89,10,29.87
8A0,1/10/16 11:55,33.8,33.8,100,300,10,0,29.88,10,25.23
4A6,1/10/16 11:55,35.6,32,86.59,260,7,0,29.9,10,29.17
8A0,1/10/16 12:15,33.8,33.8,100,290,11,0,29.89,10,24.74
4A6,1/10/16 12:15,35.6,32,86.59,280,6,0,29.91,10,29.87
4A6,1/10/16 12:35,35.6,32,86.59,300,8,0,29.93,10,28.55
8A0,1/10/16 12:35,33.8,33.8,100,290,14,0,29.91,10,23.48
8A0,1/10/16 12:55,33.8,33.8,100,300,8,0,29.92,10,26.33
4A6,1/10/16 12:55,35.6,30.2,80.51,320,4,0,29.94,10,31.62
4A6,1/10/16 13:15,35.6,32,86.59,320,4,0,29.95,10,31.62
8A0,1/10/16 13:15,33.8,33.8,100,290,8,0,29.93,10,26.33
4A6,1/10/16 13:35,35.6,32,86.59,300,8,0,29.96,10,28.55
8A0,1/10/16 13:35,33.8,33.8,100,290,10,0,29.94,10,25.23
4A6,1/10/16 13:55,35.6,32,86.59,290,6,0,29.97,10,29.87
8A0,1/10/16 13:55,33.8,33.8,100,290,14,0,29.95,10,23.48
4A6,1/10/16 14:15,35.6,32,86.59,300,8,0,29.99,10,28.55
8A0,1/10/16 14:15,33.8,33.8,100,290,10,0,29.97,10,25.23
8A0,1/10/16 14:35,33.8,33.8,100,280,11,0,29.98,10,24.74
4A6,1/10/16 14:35,35.6,32,86.59,290,6,0,30,10,29.87
8A0,1/10/16 14:55,33.8,33.8,100,290,11,0,29.99,10,24.74
4A6,1/10/16 14:55,35.6,32,86.59,280,7,0,30.02,10,29.17
8A0,1/10/16 15:15,33.8,33.8,100,280,13,0,30,10,23.87
4A6,1/10/16 15:15,35.6,32,86.59,290,7,0,30.03,10,29.17
8A0,1/10/16 15:35,33.8,33.8,100,280,11,0,30.01,10,24.74
4A6,1/10/16 15:35,35.6,32,86.59,310,7,0,30.04,10,29.17
4A6,1/10/16 15:55,35.6,32,86.59,320,11,0,30.04,10,27.02
8A0,1/10/16 15:55,33.8,33.8,100,300,13,0,30.02,10,23.87
4A6,1/10/16 16:15,35.6,32,86.59,290,7,0,30.05,10,29.17
8A0,1/10/16 16:15,33.8,33.8,100,300,8,0,30.02,10,26.33
4A6,1/10/16 16:35,35.6,32,86.59,290,11,0,30.06,10,27.02
8A0,1/10/16 16:35,33.8,33.8,100,280,13,0,30.03,10,23.87
4A6,1/10/16 16:55,33.8,30.2,86.49,310,9,0,30.06,10,25.75
8A0,1/10/16 16:55,33.8,33.8,100,290,9,0,30.02,10,25.75
8A0,1/10/16 17:15,33.8,33.8,100,290,9,0,30.03,10,25.75
4A6,1/10/16 17:15,35.6,30.2,80.51,310,7,0,30.05,10,29.17
4A6,1/10/16 17:35,33.8,28.4,80.36,300,9,0,30.06,10,25.75
8A0,1/10/16 17:35,33.8,33.8,100,270,11,0,30.03,10,24.74
4A6,1/10/16 17:55,33.8,30.2,86.49,310,10,0,30.06,10,25.23
8A0,1/10/16 17:55,33.8,32,93.03,290,14,0,30.03,10,23.48
8A0,1/10/16 18:15,32,32,100,310,8,0,30.03,10,24.11
4A6,1/10/16 18:15,33.8,30.2,86.49,300,8,0,30.06,10,26.33
4A6,1/10/16 18:35,33.8,28.4,80.36,320,7,0,30.07,10,26.97
8A0,1/10/16 18:35,33.8,32,93.03,310,9,0,30.03,10,25.75
8A0,1/10/16 18:55,33.8,32,93.03,290,12,0,30.03,10,24.29
4A6,1/10/16 18:55,33.8,26.6,74.63,340,7,0,30.07,10,26.97
4A6,1/10/16 19:15,33.8,28.4,80.36,330,6,0,30.07,10,27.7
8A0,1/10/16 19:15,33.8,32,93.03,300,8,0,30.03,10,26.33
4A6,1/10/16 19:35,35.6,26.6,69.46,340,7,0,30.07,10,29.17
8A0,1/10/16 19:35,33.8,32,93.03,290,10,0,30.04,10,25.23
4A6,1/10/16 19:55,35.6,26.6,69.46,300,7,0,30.08,10,29.17
8A0,1/10/16 19:55,33.8,32,93.03,290,10,0,30.05,10,25.23
8A0,1/10/16 20:15,33.8,32,93.03,300,11,0,30.06,10,24.74
4A6,1/10/16 20:15,33.8,26.6,74.63,290,8,0,30.08,10,26.33
8A0,1/10/16 20:35,33.8,32,93.03,300,12,0,30.07,10,24.29
4A6,1/10/16 20:35,33.8,26.6,74.63,290,8,0,30.1,10,26.33
8A0,1/10/16 20:55,33.8,30.2,86.49,290,8,0,30.07,10,26.33
4A6,1/10/16 20:55,35.6,24.8,64.46,270,6,0,30.1,10,29.87
8A0,1/10/16 21:15,33.8,32,93.03,340,7,0,30.08,10,26.97
4A6,1/10/16 21:15,33.8,24.8,69.25,310,5,0,30.11,10,28.53
8A0,1/10/16 21:35,33.8,30.2,86.49,320,6,0,30.09,10,27.7
4A6,1/10/16 21:35,35.6,23,59.79,320,7,0,30.12,10,29.17
8A0,1/10/16 21:55,33.8,30.2,86.49,290,9,0,30.09,10,25.75
4A6,1/10/16 21:55,35.6,23,59.79,290,6,0,30.12,10,29.87
4A6,1/10/16 22:15,35.6,21.2,55.41,300,5,0,30.13,10,30.67
8A0,1/10/16 22:15,33.8,28.4,80.36,310,7,0,30.1,10,26.97
8A0,1/10/16 22:35,33.8,28.4,80.36,320,10,0,30.11,10,25.23
4A6,1/10/16 22:35,35.6,21.2,55.41,280,5,0,30.13,10,30.67
4A6,1/10/16 22:55,33.8,19.4,55.14,300,6,0,30.14,10,27.7
8A0,1/10/16 22:55,32,28.4,86.39,310,6,0,30.11,10,25.53
4A6,1/10/16 23:15,33.8,19.4,55.14,290,4,0,30.15,10,29.52
8A0,1/10/16 23:15,32,26.6,80.22,310,8,0,30.12,10,24.11
8A0,1/10/16 23:35,32,26.6,80.22,310,8,0,30.13,10,24.11
4A6,1/10/16 23:35,32,19.4,59.27,0,0,0,30.15,10,32
8A0,1/10/16 23:55,32,26.6,80.22,300,7,0,30.13,10,24.78
4A6,1/10/16 23:55,32,19.4,59.27,360,4,0,30.18,10,27.42
8A0,1/11/16 0:15,32,26.6,80.22,300,6,0,30.14,10,25.53
4A6,1/11/16 0:15,32,19.4,59.27,10,6,0,30.18,10,25.53
8A0,1/11/16 0:35,32,26.6,80.22,310,5,0,30.15,10,26.4
4A6,1/11/16 0:35,32,17.6,54.87,340,6,0,30.19,10,25.53
4A6,1/11/16 0:55,30.2,17.6,59.01,340,6,0,30.19,10,23.36
8A0,1/11/16 0:55,32,24.8,74.44,300,5,0,30.15,10,26.4
4A6,1/11/16 1:15,30.2,17.6,59.01,360,4,0,30.2,10,25.32
8A0,1/11/16 1:15,30.2,24.8,80.07,300,5,0,30.15,10,24.26
4A6,1/11/16 1:35,28.4,17.6,63.51,350,6,0,30.2,10,21.19
8A0,1/11/16 1:35,30.2,23,74.26,300,4,0,30.16,10,25.32
4A6,1/11/16 1:55,28.4,15.8,58.75,360,7,0,30.2,10,20.39
8A0,1/11/16 1:55,30.2,24.8,80.07,300,5,0,30.16,10,24.26
8A0,1/11/16 2:15,30.2,23,74.26,310,6,0,30.16,10,23.36
4A6,1/11/16 2:15,28.4,15.8,58.75,10,6,0,30.21,10,21.19
8A0,1/11/16 2:35,28.4,23,79.92,20,3,0,30.16,10,24.57
4A6,1/11/16 2:35,28.4,15.8,58.75,360,7,0,30.21,10,20.39
8A0,1/11/16 2:55,28.4,23,79.92,320,4,0,30.16,10,23.22
4A6,1/11/16 2:55,28.4,17.6,63.51,50,4,0,30.21,10,23.22
8A0,1/11/16 3:15,28.4,23,79.92,320,5,0,30.18,10,22.12
4A6,1/11/16 3:15,26.6,17.6,68.4,10,3,0,30.22,10,22.52
4A6,1/11/16 3:35,26.6,17.6,68.4,330,3,0,30.23,10,22.52
8A0,1/11/16 3:35,28.4,23,79.92,330,6,0,30.18,10,21.19
8A0,1/11/16 3:55,28.4,23,79.92,340,6,0,30.18,10,21.19
4A6,1/11/16 3:55,26.6,17.6,68.4,340,3,0,30.23,10,22.52
4A6,1/11/16 4:15,26.6,17.6,68.4,340,5,0,30.23,10,19.98
8A0,1/11/16 4:15,28.4,23,79.92,340,8,0,30.18,10,19.68
4A6,1/11/16 4:35,26.6,17.6,68.4,330,4,0,30.24,10,21.11
8A0,1/11/16 4:35,26.6,23,86.07,330,6,0,30.19,10,19.03
4A6,1/11/16 4:55,24.8,17.6,73.7,320,3,0,30.24,10,20.46
8A0,1/11/16 4:55,26.6,21.2,79.77,340,8,0,30.19,10,17.46
4A6,1/11/16 5:15,24.8,17.6,73.7,0,0,0,30.24,10,24.8
8A0,1/11/16 5:15,26.6,21.2,79.77,340,8,0,30.18,10,17.46
8A0,1/11/16 5:35,26.6,21.2,79.77,330,7,0,30.18,10,18.2
4A6,1/11/16 5:35,24.8,17.6,73.7,330,3,0,30.24,10,20.46
4A6,1/11/16 5:55,24.8,17.6,73.7,330,4,0,30.24,10,19.01
8A0,1/11/16 5:55,26.6,21.2,79.77,340,5,0,30.19,10,19.98
4A6,1/11/16 6:15,24.8,17.6,73.7,350,5,0,30.24,10,17.84
8A0,1/11/16 6:15,24.8,21.2,85.96,340,8,0,30.18,10,15.24
8A0,1/11/16 6:35,24.8,21.2,85.96,340,5,0,30.18,10,17.84
4A6,1/11/16 6:35,23,17.6,79.47,10,5,0,30.24,10,15.71
8A0,1/11/16 6:55,23,21.2,92.69,350,5,0,30.18,10,15.71
4A6,1/11/16 6:55,23,17.6,79.47,360,4,0,30.23,10,16.91
8A0,1/11/16 7:15,23,21.2,92.69,350,7,0,30.18,10,13.81
4A6,1/11/16 7:15,23,17.6,79.47,20,3,0,30.23,10,18.4
4A6,1/11/16 7:35,23,17.6,79.47,350,3,0,30.24,10,18.4
8A0,1/11/16 7:35,23,21.2,92.69,340,4,0,30.19,10,16.91
4A6,1/11/16 7:55,23,17.6,79.47,0,0,0,30.25,10,23
8A0,1/11/16 7:55,23,21.2,92.69,330,4,0,30.2,10,16.91
4A6,1/11/16 8:15,23,17.6,79.47,330,3,0,30.26,10,18.4
8A0,1/11/16 8:15,23,21.2,92.69,0,0,0,30.22,10,23
8A0,1/11/16 8:35,21.2,21.2,100,330,3,0,30.22,10,16.34
4A6,1/11/16 8:35,21.2,17.6,85.74,310,3,0,30.27,10,16.34
8A0,1/11/16 8:55,21.2,21.2,100,0,0,0,30.21,10,21.2
4A6,1/11/16 8:55,21.2,17.6,85.74,350,3,0,30.27,10,16.34
4A6,1/11/16 9:15,19.4,17.6,92.57,0,0,0,30.27,10,19.4
8A0,1/11/16 9:15,21.2,21.2,100,0,0,0,30.21,10,21.2
8A0,1/11/16 9:35,21.2,21.2,100,0,0,0,30.2,10,21.2
4A6,1/11/16 9:35,19.4,17.6,92.57,0,0,0,30.26,10,19.4
8A0,1/11/16 9:55,21.2,21.2,100,20,4,0,30.19,10,14.81
4A6,1/11/16 9:55,19.4,17.6,92.57,0,0,0,30.26,10,19.4
4A6,1/11/16 10:15,19.4,17.6,92.57,0,0,0,30.26,10,19.4
8A0,1/11/16 10:15,19.4,19.4,100,10,3,0,30.19,10,14.28
4A6,1/11/16 10:35,19.4,17.6,92.57,30,3,0,30.25,10,14.28
8A0,1/11/16 10:35,21.2,21.2,100,350,4,0,30.19,10,14.81
4A6,1/11/16 10:55,17.6,17.6,100,0,0,0,30.26,10,17.6
8A0,1/11/16 10:55,21.2,21.2,100,360,5,0,30.19,10,13.57
4A6,1/11/16 11:15,17.6,17.6,100,30,3,0,30.25,10,12.23
8A0,1/11/16 11:15,19.4,19.4,100,10,4,0,30.2,10,12.71
4A6,1/11/16 11:35,17.6,17.6,100,0,0,0,30.26,10,17.6
8A0,1/11/16 11:35,19.4,19.4,100,0,0,0,30.21,10,19.4
4A6,1/11/16 11:55,17.6,17.6,100,0,0,0,30.27,10,17.6
8A0,1/11/16 11:55,19.4,19.4,100,0,0,0,30.22,10,19.4
8A0,1/11/16 12:15,19.4,19.4,100,0,0,0,30.23,10,19.4
4A6,1/11/16 12:15,17.6,17.6,100,0,0,0,30.28,10,17.6
4A6,1/11/16 12:35,17.6,17.6,100,0,0,0,30.29,10,17.6
8A0,1/11/16 12:35,19.4,19.4,100,0,0,0,30.23,10,19.4
8A0,1/11/16 12:55,19.4,19.4,100,10,4,0,30.23,10,12.71
4A6,1/11/16 12:55,17.6,17.6,100,0,0,0,30.29,10,17.6
8A0,1/11/16 13:15,19.4,19.4,100,10,3,0,30.23,10,14.28
4A6,1/11/16 13:15,17.6,17.6,100,0,0,0,30.29,10,17.6
4A6,1/11/16 13:35,17.6,17.6,100,40,3,0,30.29,10,12.23
8A0,1/11/16 13:35,21.2,21.2,100,50,3,0,30.23,10,16.34
8A0,1/11/16 13:55,23,23,100,40,6,0,30.23,10,14.69
4A6,1/11/16 13:55,19.4,17.6,92.57,30,4,0,30.29,10,12.71
8A0,1/11/16 14:15,23,23,100,70,3,0,30.24,10,18.4
4A6,1/11/16 14:15,19.4,17.6,92.57,0,0,0,30.3,10,19.4
8A0,1/11/16 14:35,23,23,100,0,0,0,30.24,10,23
4A6,1/11/16 14:35,19.4,17.6,92.57,40,5,0,30.3,10,11.43
8A0,1/11/16 14:55,23,23,100,80,3,0,30.25,10,18.4
4A6,1/11/16 14:55,23,19.4,85.85,40,5,0,30.31,10,15.71
8A0,1/11/16 15:15,24.8,23,92.74,0,0,0,30.26,10,24.8
4A6,1/11/16 15:15,23,17.6,79.47,60,6,0,30.31,10,14.69
4A6,1/11/16 15:35,23,17.6,79.47,80,4,0,30.31,10,16.91
8A0,1/11/16 15:35,24.8,23,92.74,0,0,0,30.27,10,24.8
4A6,1/11/16 15:55,24.8,17.6,73.7,0,0,0,30.32,10,24.8
8A0,1/11/16 15:55,26.6,24.8,92.8,0,0,0,30.27,10,26.6
8A0,1/11/16 16:15,28.4,23,79.92,0,0,0,30.28,10,28.4
4A6,1/11/16 16:15,26.6,15.8,63.27,0,0,0,30.32,10,26.6
4A6,1/11/16 16:35,28.4,15.8,58.75,0,0,0,30.32,10,28.4
8A0,1/11/16 16:35,28.4,23,79.92,0,0,0,30.28,10,28.4
4A6,1/11/16 16:55,28.4,14,54.31,0,0,0,30.31,10,28.4
8A0,1/11/16 16:55,30.2,23,74.26,0,0,0,30.26,10,30.2
4A6,1/11/16 17:15,30.2,14,50.47,0,0,0,30.29,10,30.2
8A0,1/11/16 17:15,32,23,69.04,0,0,0,30.24,10,32
8A0,1/11/16 17:35,32,23,69.04,0,0,0,30.23,10,32
4A6,1/11/16 17:35,32,10.4,40.01,0,0,0,30.28,10,32
8A0,1/11/16 17:55,33.8,21.2,59.53,0,0,0,30.23,10,33.8
4A6,1/11/16 17:55,32,14,46.92,0,0,0,30.27,10,32
8A0,1/11/16 18:15,33.8,23,64.23,70,3,0,30.21,10,30.75
4A6,1/11/16 18:15,33.8,8.6,34.34,0,0,0,30.26,10,33.8
8A0,1/11/16 18:35,35.6,21.2,55.41,0,0,0,30.21,10,35.6
4A6,1/11/16 18:35,33.8,10.4,37.22,0,0,0,30.24,10,33.8
4A6,1/11/16 18:55,35.6,10.4,34.65,0,0,0,30.24,10,35.6
8A0,1/11/16 18:55,35.6,23,59.79,0,0,0,30.19,10,35.6
4A6,1/11/16 19:15,35.6,8.6,31.97,0,0,0,30.23,10,35.6
8A0,1/11/16 19:15,35.6,21.2,55.41,0,0,0,30.19,10,35.6
8A0,1/11/16 19:35,35.6,21.2,55.41,0,0,0,30.17,10,35.6
4A6,1/11/16 19:35,35.6,10.4,34.65,0,0,0,30.22,10,35.6
8A0,1/11/16 19:55,37.4,21.2,51.61,260,4,0,30.17,10,33.73
4A6,1/11/16 19:55,37.4,10.4,32.27,100,4,0,30.2,10,33.73
8A0,1/11/16 20:15,37.4,21.2,51.61,0,0,0,30.17,10,37.4
4A6,1/11/16 20:15,37.4,8.6,29.77,170,4,0,30.2,10,33.73
8A0,1/11/16 20:35,37.4,19.4,47.8,0,0,0,30.16,10,37.4
4A6,1/11/16 20:35,37.4,8.6,29.77,0,0,0,30.2,10,37.4
4A6,1/11/16 20:55,37.4,8.6,29.77,200,3,0,30.2,10,34.86
8A0,1/11/16 20:55,39.2,21.2,48.1,0,0,0,30.15,10,39.2
8A0,1/11/16 21:15,39.2,19.4,44.55,190,4,0,30.17,10,35.83
8A0,1/11/16 21:35,37.4,21.2,51.61,210,5,0,30.17,10,32.81
8A0,1/11/16 21:55,37.4,21.2,51.61,230,4,0,30.17,10,33.73
8A0,1/11/16 22:15,37.4,21.2,51.61,210,3,0,30.16,10,34.86
8A0,1/11/16 22:35,37.4,21.2,51.61,0,0,0,30.16,10,37.4
8A0,1/11/16 22:55,35.6,21.2,55.41,0,0,0,30.16,10,35.6
8A0,1/11/16 23:15,33.8,21.2,59.53,0,0,0,30.15,10,33.8
8A0,1/11/16 23:35,33.8,21.2,59.53,190,3,0,30.16,10,30.75
8A0,1/11/16 23:55,32,21.2,63.99,190,4,0,30.16,10,27.42
4A6,1/11/16 23:55,32,17.6,54.87,0,0,0,30.19,10,32
8A0,1/12/16 0:15,33.8,21.2,59.53,200,4,0,30.17,10,29.52
4A6,1/12/16 0:15,32,19.4,59.27,0,0,0,30.19,10,32
8A0,1/12/16 0:35,32,23,69.04,170,3,0,30.18,10,28.69
4A6,1/12/16 0:35,30.2,19.4,63.75,0,0,0,30.2,10,30.2
4A6,1/12/16 0:55,30.2,23,74.26,0,0,0,30.2,10,30.2
8A0,1/12/16 0:55,32,21.2,63.99,200,4,0,30.17,10,27.42
4A6,1/12/16 1:15,28.4,23,79.92,0,0,0,30.2,10,28.4
8A0,1/12/16 1:15,32,21.2,63.99,210,4,0,30.17,10,27.42
4A6,1/12/16 1:35,28.4,23,79.92,0,0,0,30.2,10,28.4
8A0,1/12/16 1:35,32,21.2,63.99,190,4,0,30.17,10,27.42
8A0,1/12/16 1:55,32,21.2,63.99,210,5,0,30.18,10,26.4
4A6,1/12/16 1:55,28.4,23,79.92,210,3,0,30.2,10,24.57
8A0,1/12/16 2:15,32,21.2,63.99,220,3,0,30.18,10,28.69
4A6,1/12/16 2:15,28.4,23,79.92,240,5,0,30.21,10,22.12
4A6,1/12/16 2:35,28.4,23,79.92,0,0,0,30.21,10,28.4
8A0,1/12/16 2:35,32,21.2,63.99,220,3,0,30.18,10,28.69
4A6,1/12/16 2:55,28.4,21.2,74.08,0,0,0,30.21,10,28.4
8A0,1/12/16 2:55,32,21.2,63.99,220,4,0,30.19,10,27.42
4A6,1/12/16 3:15,28.4,24.8,86.18,0,0,0,30.21,10,28.4
8A0,1/12/16 3:15,28.4,23,79.92,200,6,0,30.18,10,21.19
4A6,1/12/16 3:35,28.4,23,79.92,250,4,0,30.21,10,23.22
8A0,1/12/16 3:35,30.2,21.2,68.83,210,6,0,30.18,10,23.36
4A6,1/12/16 3:55,28.4,23,79.92,230,3,0,30.2,10,24.57
8A0,1/12/16 3:55,32,19.4,59.27,210,6,0,30.17,10,25.53
8A0,1/12/16 4:15,32,21.2,63.99,200,5,0,30.16,10,26.4
4A6,1/12/16 4:15,28.4,23,79.92,0,0,0,30.19,10,28.4
8A0,1/12/16 4:35,32,21.2,63.99,200,6,0,30.16,10,25.53
4A6,1/12/16 4:35,28.4,23,79.92,210,4,0,30.19,10,23.22
4A6,1/12/16 4:55,28.4,24.8,86.18,0,0,0,30.18,10,28.4
8A0,1/12/16 4:55,32,19.4,59.27,220,4,0,30.16,10,27.42
4A6,1/12/16 5:15,28.4,24.8,86.18,0,0,0,30.18,10,28.4
8A0,1/12/16 5:15,32,19.4,59.27,240,4,0,30.15,10,27.42
8A0,1/12/16 5:35,32,19.4,59.27,220,4,0,30.15,10,27.42
4A6,1/12/16 5:35,28.4,24.8,86.18,0,0,0,30.18,10,28.4
4A6,1/12/16 5:55,28.4,24.8,86.18,240,3,0,30.17,10,24.57
8A0,1/12/16 5:55,30.2,21.2,68.83,220,4,0,30.15,10,25.32
4A6,1/12/16 6:15,32,23,69.04,230,5,0,30.16,10,26.4
8A0,1/12/16 6:15,32,19.4,59.27,220,5,0,30.14,10,26.4
8A0,1/12/16 6:35,30.2,21.2,68.83,210,6,0,30.14,10,23.36
4A6,1/12/16 6:35,32,21.2,63.99,250,4,0,30.16,10,27.42
4A6,1/12/16 6:55,28.4,23,79.92,210,5,0,30.15,10,22.12
8A0,1/12/16 6:55,32,21.2,63.99,220,6,0,30.14,10,25.53
8A0,1/12/16 7:15,32,19.4,59.27,220,5,0,30.14,10,26.4
4A6,1/12/16 7:15,32,21.2,63.99,240,4,0,30.15,10,27.42
4A6,1/12/16 7:35,30.2,21.2,68.83,230,7,0,30.15,10,22.59
8A0,1/12/16 7:35,30.2,21.2,68.83,200,6,0,30.13,10,23.36
4A6,1/12/16 7:55,32,21.2,63.99,240,7,0,30.15,10,24.78
8A0,1/12/16 7:55,32,21.2,63.99,210,8,0,30.12,10,24.11
8A0,1/12/16 8:15,32,21.2,63.99,220,8,0,30.12,10,24.11
4A6,1/12/16 8:15,32,19.4,59.27,220,7,0,30.15,10,24.78
4A6,1/12/16 8:35,32,19.4,59.27,220,6,0,30.14,10,25.53
8A0,1/12/16 8:35,32,21.2,63.99,230,8,0,30.12,10,24.11
8A0,1/12/16 8:55,32,21.2,63.99,240,8,0,30.12,10,24.11
4A6,1/12/16 8:55,32,19.4,59.27,230,4,0,30.14,10,27.42
4A6,1/12/16 9:15,32,17.6,54.87,210,5,0,30.14,10,26.4
8A0,1/12/16 9:15,32,21.2,63.99,240,7,0,30.12,10,24.78
4A6,1/12/16 9:35,33.8,15.8,47.22,210,7,0,30.13,10,26.97
8A0,1/12/16 9:35,32,21.2,63.99,240,7,0,30.12,10,24.78
4A6,1/12/16 9:55,33.8,17.6,51.04,210,6,0,30.13,10,27.7
8A0,1/12/16 9:55,32,21.2,63.99,230,7,0,30.11,10,24.78
8A0,1/12/16 10:15,32,21.2,63.99,220,8,0,30.11,10,24.11
4A6,1/12/16 10:15,32,17.6,54.87,220,6,0,30.12,10,25.53
4A6,1/12/16 10:35,32,17.6,54.87,210,8,0,30.13,10,24.11
8A0,1/12/16 10:35,32,21.2,63.99,220,7,0,30.11,10,24.78
8A0,1/12/16 10:55,30.2,21.2,68.83,230,6,0,30.12,10,23.36
4A6,1/12/16 10:55,32,17.6,54.87,220,5,0,30.13,10,26.4
4A6,1/12/16 11:15,32,19.4,59.27,220,5,0,30.13,10,26.4
8A0,1/12/16 11:15,30.2,21.2,68.83,220,7,0,30.11,10,22.59
4A6,1/12/16 11:35,32,19.4,59.27,230,5,0,30.14,10,26.4
8A0,1/12/16 11:35,30.2,21.2,68.83,230,7,0,30.12,10,22.59
8A0,1/12/16 11:55,30.2,21.2,68.83,230,6,0,30.12,10,23.36
4A6,1/12/16 11:55,32,19.4,59.27,230,7,0,30.14,10,24.78
8A0,1/12/16 12:15,30.2,21.2,68.83,240,5,0,30.13,10,24.26
4A6,1/12/16 12:15,32,19.4,59.27,230,8,0,30.14,10,24.11
4A6,1/12/16 12:35,32,19.4,59.27,230,7,0,30.14,10,24.78
8A0,1/12/16 12:35,30.2,21.2,68.83,240,5,0,30.13,10,24.26
4A6,1/12/16 12:55,32,21.2,63.99,230,3,0,30.14,10,28.69
8A0,1/12/16 12:55,30.2,21.2,68.83,220,4,0,30.13,10,25.32
4A6,1/12/16 13:15,30.2,23,74.26,0,0,0,30.15,10,30.2
8A0,1/12/16 13:15,30.2,21.2,68.83,220,6,0,30.13,10,23.36
4A6,1/12/16 13:35,32,23,69.04,0,0,0,30.16,10,32
8A0,1/12/16 13:35,30.2,21.2,68.83,220,5,0,30.14,10,24.26
8A0,1/12/16 13:55,32,23,69.04,230,4,0,30.15,10,27.42
4A6,1/12/16 13:55,32,23,69.04,0,0,0,30.16,10,32
8A0,1/12/16 14:15,32,23,69.04,240,6,0,30.16,10,25.53
4A6,1/12/16 14:15,35.6,21.2,55.41,210,3,0,30.16,10,32.8
8A0,1/12/16 14:35,33.8,24.8,69.25,240,8,0,30.16,10,26.33
4A6,1/12/16 14:35,37.4,21.2,51.61,230,6,0,30.18,10,32.03
4A6,1/12/16 14:55,39.2,23,51.89,230,5,0,30.18,10,34.95
8A0,1/12/16 14:55,33.8,26.6,74.63,250,9,0,30.17,10,25.75
4A6,1/12/16 15:15,39.2,23,51.89,230,11,0,30.17,10,31.57
8A0,1/12/16 15:15,35.6,26.6,69.46,250,9,0,30.17,10,27.99
4A6,1/12/16 15:35,41,23,48.39,230,11,0,30.17,10,33.84
8A0,1/12/16 15:35,37.4,28.4,69.67,250,8,0,30.18,10,30.76
8A0,1/12/16 15:55,39.2,28.4,64.93,250,8,0,30.17,10,32.98
4A6,1/12/16 15:55,41,23,48.39,240,9,0,30.18,10,34.7
8A0,1/12/16 16:15,41,30.2,65.16,230,9,0,30.17,10,34.7
4A6,1/12/16 16:15,42.8,23,45.14,230,7,0,30.18,10,37.94
4A6,1/12/16 16:35,44.6,23,42.14,250,13,0,30.17,10,37.71
8A0,1/12/16 16:35,41,30.2,65.16,260,10,0,30.17,10,34.25
4A6,1/12/16 16:55,44.6,24.8,45.44,250,12,0,30.16,10,38.04
8A0,1/12/16 16:55,42.8,32,65.38,260,13,0,30.16,10,35.4
8A0,1/12/16 17:15,44.6,32,61.03,250,9,0,30.15,10,39.18
4A6,1/12/16 17:15,46.4,24.8,42.44,260,12,0,30.15,10,40.33
4A6,1/12/16 17:35,46.4,26.6,45.73,210,6,0,30.14,10,42.87
8A0,1/12/16 17:35,44.6,32,61.03,240,12,0,30.14,10,38.04
4A6,1/12/16 17:55,46.4,26.6,45.73,220,7,0,30.13,10,42.33
8A0,1/12/16 17:55,46.4,32,57,250,15,0,30.13,10,39.45
8A0,1/12/16 18:15,46.4,32,57,240,16,0,30.12,10,39.19
4A6,1/12/16 18:15,48.2,26.6,42.73,250,12,0,30.12,10,42.62
8A0,1/12/16 18:35,46.4,32,57,250,13,0,30.11,10,40.02
4A6,1/12/16 18:35,50,26.6,39.95,240,16,0,30.11,10,43.88
4A6,1/12/16 18:55,50,26.6,39.95,250,12,0,30.1,10,44.91
8A0,1/12/16 18:55,50,32,49.81,250,12,0,30.1,10,44.91
4A6,1/12/16 19:15,51.8,26.6,37.38,250,10,0,30.09,10,51.8
8A0,1/12/16 19:15,50,33.8,53.54,260,13,0,30.09,10,44.63
4A6,1/12/16 19:35,51.8,24.8,34.69,300,7,0,30.09,10,51.8
8A0,1/12/16 19:35,50,32,49.81,250,16,0,30.09,10,43.88
4A6,1/12/16 19:55,51.8,24.8,34.69,280,8,0,30.09,10,51.8
8A0,1/12/16 19:55,51.8,32,46.59,260,15,0,30.08,10,51.8
4A6,1/12/16 20:15,53.6,26.6,34.98,280,13,0,30.09,10,53.6
8A0,1/12/16 20:15,51.8,32,46.59,240,18,0,30.07,10,51.8
4A6,1/12/16 20:35,53.6,26.6,34.98,270,10,0,30.09,10,53.6
8A0,1/12/16 20:35,51.8,33.8,50.08,250,12,0,30.08,10,51.8
4A6,1/12/16 20:55,51.8,26.6,37.38,270,11,0,30.09,10,51.8
8A0,1/12/16 20:55,51.8,33.8,50.08,280,14,0,30.08,10,51.8
8A0,1/12/16 21:15,51.8,32,46.59,280,12,0,30.08,10,51.8
4A6,1/12/16 21:15,51.8,26.6,37.38,280,7,0,30.1,10,51.8
4A6,1/12/16 21:35,50,24.8,37.08,300,7,0,30.1,10,46.72
8A0,1/12/16 21:35,51.8,32,46.59,270,12,0,30.08,10,51.8
8A0,1/12/16 21:55,51.8,32,46.59,290,12,0,30.09,10,51.8
4A6,1/12/16 21:55,50,26.6,39.95,260,10,0,30.1,10,45.54
4A6,1/12/16 22:15,50,26.6,39.95,270,11,0,30.1,10,45.21
8A0,1/12/16 22:15,50,33.8,53.54,280,9,0,30.09,10,45.9
8A0,1/12/16 22:35,50,33.8,53.54,290,9,0,30.09,10,45.9
4A6,1/12/16 22:35,48.2,26.6,42.73,270,6,0,30.11,10,45.04
8A0,1/12/16 22:55,48.2,33.8,57.26,300,7,0,30.09,10,44.53
4A6,1/12/16 22:55,48.2,26.6,42.73,270,7,0,30.11,10,44.53
8A0,1/12/16 23:15,46.4,33.8,61.28,290,5,0,30.1,10,43.5
4A6,1/12/16 23:15,48.2,26.6,42.73,270,7,0,30.12,10,44.53
4A6,1/12/16 23:35,46.4,26.6,45.73,280,5,0,30.13,10,43.5
8A0,1/12/16 23:35,46.4,33.8,61.28,300,6,0,30.12,10,42.87
4A6,1/12/16 23:55,44.6,26.6,48.96,280,4,0,30.14,10,42.13
8A0,1/12/16 23:55,44.6,33.8,65.61,310,5,0,30.12,10,41.36
4A6,1/13/16 0:15,42.8,28.4,56.48,280,5,0,30.14,10,39.22
8A0,1/13/16 0:15,44.6,33.8,65.61,310,3,0,30.13,10,43.09
4A6,1/13/16 0:35,42.8,28.4,56.48,290,5,0,30.15,10,39.22
8A0,1/13/16 0:35,42.8,33.8,70.28,300,4,0,30.14,10,40.03
4A6,1/13/16 0:55,42.8,26.6,52.45,300,5,0,30.16,10,39.22
8A0,1/13/16 0:55,42.8,33.8,70.28,290,4,0,30.14,10,40.03
8A0,1/13/16 1:15,42.8,32,65.38,280,5,0,30.14,10,39.22
4A6,1/13/16 1:15,42.8,26.6,52.45,310,4,0,30.16,10,40.03
8A0,1/13/16 1:35,42.8,32,65.38,290,6,0,30.14,10,38.54
4A6,1/13/16 1:35,41,26.6,56.22,360,6,0,30.17,10,36.37
8A0,1/13/16 1:55,42.8,32,65.38,290,5,0,30.15,10,39.22
4A6,1/13/16 1:55,42.8,24.8,48.67,340,5,0,30.18,10,39.22
4A6,1/13/16 2:15,41,24.8,52.17,360,6,0,30.18,10,36.37
8A0,1/13/16 2:15,42.8,32,65.38,300,5,0,30.15,10,39.22
8A0,1/13/16 2:35,42.8,32,65.38,320,8,0,30.16,10,37.42
4A6,1/13/16 2:35,41,23,48.39,350,7,0,30.19,10,35.75
8A0,1/13/16 2:55,41,32,70.08,320,5,0,30.17,10,37.08
4A6,1/13/16 2:55,41,23,48.39,350,6,0,30.2,10,36.37
8A0,1/13/16 3:15,41,32,70.08,310,6,0,30.18,10,36.37
4A6,1/13/16 3:15,39.2,23,51.89,360,4,0,30.21,10,35.83
8A0,1/13/16 3:35,39.2,32,75.16,320,6,0,30.19,10,34.2
4A6,1/13/16 3:35,39.2,23,51.89,40,5,0,30.22,10,34.95
4A6,1/13/16 3:55,37.4,23,55.68,40,5,0,30.23,10,32.81
8A0,1/13/16 3:55,39.2,32,75.16,330,7,0,30.19,10,33.56
8A0,1/13/16 4:15,37.4,32,80.65,340,8,0,30.19,10,30.76
4A6,1/13/16 4:15,35.6,23,59.79,0,0,0,30.24,10,35.6
4A6,1/13/16 4:35,33.8,23,64.23,350,3,0,30.24,10,30.75
8A0,1/13/16 4:35,37.4,30.2,74.98,330,5,0,30.2,10,32.81
4A6,1/13/16 4:55,33.8,23,64.23,0,0,0,30.24,10,33.8
8A0,1/13/16 4:55,37.4,30.2,74.98,0,0,0,30.2,10,37.4
4A6,1/13/16 5:15,32,24.8,74.44,0,0,0,30.24,10,32
8A0,1/13/16 5:15,35.6,30.2,80.51,0,0,0,30.2,10,35.6
4A6,1/13/16 5:35,32,24.8,74.44,0,0,0,30.24,10,32
8A0,1/13/16 5:35,35.6,28.4,74.8,320,3,0,30.2,10,32.8
4A6,1/13/16 5:55,32,23,69.04,0,0,0,30.24,10,32
8A0,1/13/16 5:55,35.6,28.4,74.8,330,4,0,30.2,10,31.62
4A6,1/13/16 6:15,30.2,24.8,80.07,330,3,0,30.25,10,26.63
8A0,1/13/16 6:15,32,30.2,92.97,350,5,0,30.2,10,26.4
4A6,1/13/16 6:35,28.4,24.8,86.18,0,0,0,30.25,10,28.4
8A0,1/13/16 6:35,33.8,30.2,86.49,360,4,0,30.2,10,29.52
4A6,1/13/16 6:55,28.4,24.8,86.18,0,0,0,30.25,10,28.4
8A0,1/13/16 6:55,33.8,30.2,86.49,350,4,0,30.2,10,29.52
8A0,1/13/16 7:15,32,30.2,92.97,0,0,0,30.2,10,32
4A6,1/13/16 7:15,28.4,23,79.92,10,3,0,30.25,10,24.57
8A0,1/13/16 7:35,32,28.4,86.39,360,3,0,30.2,10,28.69
4A6,1/13/16 7:35,26.6,23,86.07,50,4,0,30.25,10,21.11
8A0,1/13/16 7:55,30.2,30.2,100,10,5,0,30.2,10,24.26
4A6,1/13/16 7:55,26.6,23,86.07,10,3,0,30.25,10,22.52
8A0,1/13/16 8:15,32,28.4,86.39,20,6,0,30.2,10,25.53
4A6,1/13/16 8:15,26.6,23,86.07,0,0,0,30.26,10,26.6
4A6,1/13/16 8:35,26.6,23,86.07,0,0,0,30.26,10,26.6
8A0,1/13/16 8:35,32,28.4,86.39,20,5,0,30.2,10,26.4
4A6,1/13/16 8:55,26.6,23,86.07,0,0,0,30.25,10,26.6
8A0,1/13/16 8:55,32,28.4,86.39,40,4,0,30.2,10,27.42
8A0,1/13/16 9:15,30.2,28.4,92.92,30,6,0,30.19,10,23.36
4A6,1/13/16 9:15,26.6,23,86.07,0,0,0,30.25,10,26.6
8A0,1/13/16 9:35,30.2,28.4,92.92,20,8,0,30.19,10,21.9
4A6,1/13/16 9:35,24.8,21.2,85.96,10,3,0,30.24,10,20.46
8A0,1/13/16 9:55,30.2,26.6,86.28,20,5,0,30.19,10,24.26
4A6,1/13/16 9:55,26.6,19.4,73.89,0,0,0,30.24,10,26.6
8A0,1/13/16 10:15,30.2,26.6,86.28,10,3,0,30.19,10,26.63
4A6,1/13/16 10:15,24.8,21.2,85.96,0,0,0,30.24,10,24.8
8A0,1/13/16 10:35,30.2,26.6,86.28,0,0,0,30.2,10,30.2
4A6,1/13/16 10:35,26.6,21.2,79.77,0,0,0,30.25,10,26.6
8A0,1/13/16 10:55,28.4,26.6,92.86,0,0,0,30.21,10,28.4
4A6,1/13/16 10:55,24.8,21.2,85.96,0,0,0,30.25,10,24.8
4A6,1/13/16 11:15,24.8,21.2,85.96,0,0,0,30.26,10,24.8
8A0,1/13/16 11:15,28.4,24.8,86.18,0,0,0,30.21,10,28.4
4A6,1/13/16 11:35,24.8,19.4,79.62,0,0,0,30.27,10,24.8
8A0,1/13/16 11:35,28.4,24.8,86.18,0,0,0,30.21,10,28.4
8A0,1/13/16 11:55,28.4,26.6,92.86,30,3,0,30.21,10,24.57
4A6,1/13/16 11:55,24.8,21.2,85.96,0,0,0,30.27,10,24.8
4A6,1/13/16 12:15,23,21.2,92.69,0,0,0,30.27,10,23
8A0,1/13/16 12:15,28.4,23,79.92,0,0,0,30.23,10,28.4
4A6,1/13/16 12:35,23,21.2,92.69,40,3,0,30.27,10,18.4
8A0,1/13/16 12:35,28.4,23,79.92,0,0,0,30.24,10,28.4
8A0,1/13/16 12:55,26.6,24.8,92.8,0,0,0,30.24,10,26.6
4A6,1/13/16 12:55,23,19.4,85.85,0,0,0,30.27,10,23
4A6,1/13/16 13:15,23,19.4,85.85,0,0,0,30.29,10,23
8A0,1/13/16 13:15,26.6,24.8,92.8,90,3,0,30.24,10,22.52
8A0,1/13/16 13:35,26.6,26.6,100,0,0,0,30.24,10,26.6
4A6,1/13/16 13:35,24.8,19.4,79.62,0,0,0,30.29,10,24.8
4A6,1/13/16 13:55,26.6,21.2,79.77,0,0,0,30.3,10,26.6
8A0,1/13/16 13:55,28.4,23,79.92,0,0,0,30.25,10,28.4
4A6,1/13/16 14:15,28.4,17.6,63.51,0,0,0,30.3,10,28.4
8A0,1/13/16 14:15,32,24.8,74.44,0,0,0,30.26,10,32
8A0,1/13/16 14:35,32,23,69.04,80,3,0,30.26,10,28.69
4A6,1/13/16 14:35,32,19.4,59.27,40,3,0,30.3,10,28.69
8A0,1/13/16 14:55,32,23,69.04,0,0,0,30.26,10,32
4A6,1/13/16 14:55,32,17.6,54.87,60,5,0,30.3,10,26.4
8A0,1/13/16 15:15,33.8,19.4,55.14,50,5,0,30.26,10,28.53
4A6,1/13/16 15:15,33.8,15.8,47.22,40,3,0,30.31,10,30.75
4A6,1/13/16 15:35,33.8,15.8,47.22,80,3,0,30.3,10,30.75
8A0,1/13/16 15:35,35.6,21.2,55.41,90,4,0,30.26,10,31.62
8A0,1/13/16 15:55,35.6,21.2,55.41,0,0,0,30.26,10,35.6
4A6,1/13/16 15:55,35.6,14,40.63,100,4,0,30.29,10,31.62
4A6,1/13/16 16:15,37.4,14,37.84,60,4,0,30.29,10,33.73
8A0,1/13/16 16:15,37.4,23,55.68,0,0,0,30.26,10,37.4
8A0,1/13/16 16:35,37.4,23,55.68,300,3,0,30.26,10,34.86
4A6,1/13/16 16:35,37.4,14,37.84,0,0,0,30.28,10,37.4
4A6,1/13/16 16:55,37.4,14,37.84,170,3,0,30.29,10,34.86
8A0,1/13/16 16:55,37.4,24.8,60.04,280,3,0,30.26,10,34.86
8A0,1/13/16 17:15,39.2,26.6,60.29,270,3,0,30.25,10,36.92
4A6,1/13/16 17:15,39.2,14,35.26,0,0,0,30.28,10,39.2
8A0,1/13/16 17:35,41,26.6,56.22,360,4,0,30.24,10,37.93
4A6,1/13/16 17:35,39.2,12.2,32.58,180,4,0,30.26,10,35.83
4A6,1/13/16 17:55,41,14,32.88,160,5,0,30.25,10,37.08
8A0,1/13/16 17:55,42.8,28.4,56.48,230,4,0,30.24,10,40.03
4A6,1/13/16 18:15,41,15.8,35.57,150,6,0,30.24,10,36.37
8A0,1/13/16 18:15,42.8,28.4,56.48,290,5,0,30.22,10,39.22
8A0,1/13/16 18:35,42.8,28.4,56.48,270,5,0,30.21,10,39.22
4A6,1/13/16 18:35,42.8,15.8,33.18,180,7,0,30.24,10,37.94
4A6,1/13/16 18:55,42.8,15.8,33.18,220,6,0,30.23,10,38.54
8A0,1/13/16 18:55,42.8,28.4,56.48,280,4,0,30.21,10,40.03
8A0,1/13/16 19:15,44.6,28.4,52.72,260,4,0,30.2,10,42.13
4A6,1/13/16 19:15,44.6,15.8,30.98,240,6,0,30.22,10,40.71
8A0,1/13/16 19:35,44.6,30.2,56.74,240,6,0,30.19,10,40.71
4A6,1/13/16 19:35,44.6,15.8,30.98,210,7,0,30.22,10,40.14
8A0,1/13/16 19:55,44.6,30.2,56.74,230,7,0,30.19,10,40.14
4A6,1/13/16 19:55,44.6,14,28.64,230,7,0,30.21,10,40.14
4A6,1/13/16 20:15,46.4,15.8,28.93,220,7,0,30.2,10,42.33
8A0,1/13/16 20:15,46.4,30.2,53,280,7,0,30.18,10,42.33
8A0,1/13/16 20:35,46.4,30.2,53,270,3,0,30.18,10,45.15
4A6,1/13/16 20:35,46.4,15.8,28.93,250,6,0,30.2,10,42.87
4A6,1/13/16 20:55,46.4,15.8,28.93,220,6,0,30.2,10,42.87
8A0,1/13/16 20:55,46.4,30.2,53,240,5,0,30.18,10,43.5
8A0,1/13/16 21:15,46.4,30.2,53,250,5,0,30.17,10,43.5
4A6,1/13/16 21:15,46.4,15.8,28.93,270,3,0,30.19,10,45.15
4A6,1/13/16 21:35,46.4,17.6,31.28,190,5,0,30.19,10,43.5
8A0,1/13/16 21:35,46.4,32,57,170,6,0,30.16,10,42.87
8A0,1/13/16 21:55,44.6,32,61.03,190,5,0,30.16,10,41.36
4A6,1/13/16 21:55,46.4,19.4,33.79,180,6,0,30.18,10,42.87
4A6,1/13/16 22:15,44.6,19.4,36.18,200,5,0,30.19,10,41.36
8A0,1/13/16 22:15,44.6,32,61.03,220,5,0,30.16,10,41.36
8A0,1/13/16 22:35,44.6,30.2,56.74,240,3,0,30.16,10,43.09
4A6,1/13/16 22:35,44.6,19.4,36.18,200,4,0,30.18,10,42.13
4A6,1/13/16 22:55,41,21.2,44.85,0,0,0,30.18,10,41
8A0,1/13/16 22:55,42.8,32,65.38,210,3,0,30.15,10,41.03
4A6,1/13/16 23:15,39.2,23,51.89,240,3,0,30.18,10,36.92
8A0,1/13/16 23:15,42.8,30.2,60.79,0,0,0,30.15,10,42.8
4A6,1/13/16 23:35,39.2,23,51.89,0,0,0,30.18,10,39.2
8A0,1/13/16 23:35,41,30.2,65.16,0,0,0,30.16,10,41
4A6,1/13/16 23:55,35.6,24.8,64.46,0,0,0,30.18,10,35.6
8A0,1/13/16 23:55,39.2,30.2,69.88,0,0,0,30.16,10,39.2
8A0,1/14/16 0:15,39.2,30.2,69.88,160,3,0,30.16,10,36.92
4A6,1/14/16 0:15,35.6,26.6,69.46,0,0,0,30.19,10,35.6
8A0,1/14/16 0:35,39.2,30.2,69.88,160,5,0,30.16,10,34.95
4A6,1/14/16 0:35,33.8,24.8,69.25,0,0,0,30.18,10,33.8
4A6,1/14/16 0:55,32,24.8,74.44,0,0,0,30.18,10,32
8A0,1/14/16 0:55,39.2,30.2,69.88,160,5,0,30.15,10,34.95
8A0,1/14/16 1:15,37.4,30.2,74.98,160,5,0,30.16,10,32.81
4A6,1/14/16 1:15,32,24.8,74.44,0,0,0,30.18,10,32
8A0,1/14/16 1:35,37.4,30.2,74.98,150,5,0,30.15,10,32.81
4A6,1/14/16 1:35,32,24.8,74.44,0,0,0,30.18,10,32
8A0,1/14/16 1:55,39.2,30.2,69.88,160,5,0,30.15,10,34.95
4A6,1/14/16 1:55,32,24.8,74.44,0,0,0,30.17,10,32
4A6,1/14/16 2:15,32,24.8,74.44,0,0,0,30.17,10,32
8A0,1/14/16 2:15,39.2,30.2,69.88,170,5,0,30.15,10,34.95
8A0,1/14/16 2:35,35.6,30.2,80.51,160,4,0,30.15,10,31.62
4A6,1/14/16 2:35,32,24.8,74.44,0,0,0,30.16,10,32
8A0,1/14/16 2:55,35.6,30.2,80.51,170,5,0,30.14,10,30.67
4A6,1/14/16 2:55,30.2,26.6,86.28,0,0,0,30.16,10,30.2
4A6,1/14/16 3:15,28.4,24.8,86.18,0,0,0,30.16,10,28.4
8A0,1/14/16 3:15,37.4,30.2,74.98,160,5,0,30.14,10,32.81
4A6,1/14/16 3:35,28.4,24.8,86.18,0,0,0,30.17,10,28.4
8A0,1/14/16 3:35,35.6,30.2,80.51,170,4,0,30.14,10,31.62
8A0,1/14/16 3:55,37.4,32,80.65,170,6,0,30.13,10,32.03
4A6,1/14/16 3:55,28.4,24.8,86.18,0,0,0,30.16,10,28.4
4A6,1/14/16 4:15,28.4,24.8,86.18,0,0,0,30.16,10,28.4
8A0,1/14/16 4:15,35.6,30.2,80.51,170,5,0,30.12,10,30.67
8A0,1/14/16 4:35,32,30.2,92.97,170,3,0,30.12,10,28.69
4A6,1/14/16 4:35,28.4,24.8,86.18,0,0,0,30.15,10,28.4
8A0,1/14/16 4:55,35.6,32,86.59,160,3,0,30.12,10,32.8
4A6,1/14/16 4:55,28.4,24.8,86.18,0,0,0,30.14,10,28.4
4A6,1/14/16 5:15,28.4,24.8,86.18,0,0,0,30.15,10,28.4
8A0,1/14/16 5:15,32,30.2,92.97,0,0,0,30.12,10,32
8A0,1/14/16 5:35,35.6,32,86.59,180,4,0,30.12,10,31.62
4A6,1/14/16 5:35,28.4,24.8,86.18,0,0,0,30.15,10,28.4
8A0,1/14/16 5:55,33.8,32,93.03,180,6,0,30.11,10,27.7
4A6,1/14/16 5:55,26.6,24.8,92.8,0,0,0,30.14,10,26.6
4A6,1/14/16 6:15,26.6,24.8,92.8,0,0,0,30.14,10,26.6
8A0,1/14/16 6:15,37.4,32,80.65,190,4,0,30.11,10,33.73
8A0,1/14/16 6:35,37.4,32,80.65,200,5,0,30.1,10,32.81
4A6,1/14/16 6:35,26.6,24.8,92.8,0,0,0,30.14,10,26.6
4A6,1/14/16 6:55,26.6,24.8,92.8,0,0,0,30.14,10,26.6
8A0,1/14/16 6:55,37.4,32,80.65,200,3,0,30.1,10,34.86
4A6,1/14/16 7:15,26.6,24.8,92.8,0,0,0,30.14,10,26.6
8A0,1/14/16 7:15,35.6,32,86.59,0,0,0,30.1,10,35.6
4A6,1/14/16 7:35,26.6,24.8,92.8,0,0,0,30.15,10,26.6
8A0,1/14/16 7:35,33.8,30.2,86.49,0,0,0,30.11,10,33.8
4A6,1/14/16 7:55,26.6,24.8,92.8,0,0,0,30.15,10,26.6
8A0,1/14/16 7:55,33.8,32,93.03,0,0,0,30.11,10,33.8
8A0,1/14/16 8:15,33.8,32,93.03,0,0,0,30.11,10,33.8
4A6,1/14/16 8:15,26.6,24.8,92.8,0,0,0,30.15,10,26.6
4A6,1/14/16 8:35,26.6,24.8,92.8,0,0,0,30.15,10,26.6
8A0,1/14/16 8:35,32,32,100,0,0,0,30.11,10,32
8A0,1/14/16 8:55,33.8,32,93.03,0,0,0,30.11,10,33.8
4A6,1/14/16 8:55,26.6,24.8,92.8,0,0,0,30.15,10,26.6
8A0,1/14/16 9:15,33.8,32,93.03,0,0,0,30.11,10,33.8
4A6,1/14/16 9:15,26.6,24.8,92.8,0,0,0,30.14,10,26.6
8A0,1/14/16 9:35,33.8,32,93.03,0,0,0,30.1,10,33.8
4A6,1/14/16 9:35,26.6,24.8,92.8,0,0,0,30.14,10,26.6
8A0,1/14/16 9:55,32,32,100,0,0,0,30.1,10,32
4A6,1/14/16 9:55,24.8,24.8,100,0,0,0,30.14,10,24.8
8A0,1/14/16 10:15,32,32,100,0,0,0,30.1,10,32
4A6,1/14/16 10:15,24.8,24.8,100,0,0,0,30.13,10,24.8
8A0,1/14/16 10:35,32,32,100,0,0,0,30.09,10,32
4A6,1/14/16 10:35,24.8,24.8,100,0,0,0,30.13,10,24.8
8A0,1/14/16 10:55,35.6,32,86.59,250,3,0,30.09,10,32.8
4A6,1/14/16 10:55,24.8,24.8,100,0,0,0,30.13,10,24.8
8A0,1/14/16 11:15,32,32,100,240,3,0,30.09,10,28.69
4A6,1/14/16 11:15,24.8,24.8,100,0,0,0,30.13,10,24.8
4A6,1/14/16 11:35,24.8,24.8,100,0,0,0,30.13,10,24.8
8A0,1/14/16 11:35,32,32,100,200,3,0,30.09,10,28.69
4A6,1/14/16 11:55,24.8,24.8,100,0,0,0,30.14,10,24.8
8A0,1/14/16 11:55,32,32,100,170,4,0,30.1,10,27.42
4A6,1/14/16 12:15,24.8,24.8,100,0,0,0,30.14,10,24.8
8A0,1/14/16 12:15,33.8,32,93.03,180,4,0,30.1,10,29.52
8A0,1/14/16 12:35,35.6,32,86.59,170,3,0,30.1,10,32.8
4A6,1/14/16 12:35,24.8,24.8,100,0,0,0,30.14,10,24.8
8A0,1/14/16 12:55,33.8,32,93.03,170,4,0,30.11,10,29.52
4A6,1/14/16 12:55,24.8,24.8,100,0,0,0,30.15,10,24.8
4A6,1/14/16 13:15,24.8,24.8,100,0,0,0,30.15,10,24.8
8A0,1/14/16 13:15,35.6,32,86.59,160,3,0,30.11,10,32.8
8A0,1/14/16 13:35,35.6,32,86.59,180,3,0,30.12,10,32.8
4A6,1/14/16 13:35,24.8,24.8,100,0,0,0,30.16,10,24.8
8A0,1/14/16 13:55,39.2,33.8,80.79,0,0,0,30.12,10,39.2
4A6,1/14/16 13:55,28.4,26.6,92.86,0,0,0,30.16,10,28.4
4A6,1/14/16 14:15,28.4,26.6,92.86,0,0,0,30.16,10,28.4
8A0,1/14/16 14:15,41,33.8,75.33,0,0,0,30.13,10,41
8A0,1/14/16 14:35,42.8,35.6,75.5,210,3,0,30.13,10,41.03
4A6,1/14/16 14:35,32,28.4,86.39,0,0,0,30.17,10,32
4A6,1/14/16 14:55,35.6,28.4,74.8,0,0,0,30.17,10,35.6
8A0,1/14/16 14:55,44.6,33.8,65.61,210,5,0,30.14,10,41.36
4A6,1/14/16 15:15,37.4,30.2,74.98,0,0,0,30.17,10,37.4
8A0,1/14/16 15:15,46.4,33.8,61.28,210,5,0,30.15,10,43.5
4A6,1/14/16 15:35,39.2,32,75.16,0,0,0,30.18,10,39.2
8A0,1/14/16 15:35,46.4,33.8,61.28,230,4,0,30.14,10,44.24
4A6,1/14/16 15:55,41,32,70.08,0,0,0,30.18,10,41
8A0,1/14/16 15:55,50,35.6,57.52,210,7,0,30.14,10,46.72
4A6,1/14/16 16:15,44.6,32,61.03,0,0,0,30.17,10,44.6
8A0,1/14/16 16:15,51.8,35.6,53.81,200,8,0,30.13,10,51.8
8A0,1/14/16 16:35,51.8,35.6,53.81,230,11,0,30.14,10,51.8
4A6,1/14/16 16:35,46.4,30.2,53,0,0,0,30.16,10,46.4
8A0,1/14/16 16:55,51.8,35.6,53.81,210,9,0,30.12,10,51.8
4A6,1/14/16 16:55,48.2,32,53.27,170,3,0,30.15,10,47.21
4A6,1/14/16 17:15,50,32,49.81,170,3,0,30.13,10,49.27
8A0,1/14/16 17:15,55.4,35.6,47.16,230,14,0,30.11,10,55.4
8A0,1/14/16 17:35,55.4,35.6,47.16,240,15,0,30.1,10,55.4
4A6,1/14/16 17:35,51.8,32,46.59,240,6,0,30.12,10,51.8
8A0,1/14/16 17:55,55.4,35.6,47.16,230,11,0,30.08,10,55.4
4A6,1/14/16 17:55,53.6,32,43.61,240,6,0,30.11,10,53.6
4A6,1/14/16 18:15,55.4,32,40.84,190,6,0,30.09,10,55.4
8A0,1/14/16 18:15,55.4,35.6,47.16,240,9,0,30.06,10,55.4
8A0,1/14/16 18:35,55.4,35.6,47.16,240,10,0,30.05,10,55.4
4A6,1/14/16 18:35,57.2,30.2,35.57,190,7,0,30.06,10,57.2
8A0,1/14/16 18:55,57.2,37.4,47.44,240,7,0,30.04,10,57.2
4A6,1/14/16 18:55,57.2,30.2,35.57,200,6,0,30.05,10,57.2
8A0,1/14/16 19:15,57.2,35.6,44.19,230,10,0,30.03,10,57.2
4A6,1/14/16 19:15,57.2,28.4,33.05,200,11,0,30.04,10,57.2
4A6,1/14/16 19:35,57.2,28.4,33.05,210,9,0,30.04,10,57.2
8A0,1/14/16 19:35,59,37.4,44.47,250,4,0,30.02,10,59
4A6,1/14/16 19:55,57.2,28.4,33.05,200,7,0,30.03,10,57.2
8A0,1/14/16 19:55,57.2,35.6,44.19,210,7,0,30.01,10,57.2
4A6,1/14/16 20:15,57.2,28.4,33.05,200,8,0,30.02,10,57.2
8A0,1/14/16 20:15,59,35.6,41.42,240,9,0,30.01,10,59
8A0,1/14/16 20:35,57.2,35.6,44.19,220,5,0,30,10,57.2
4A6,1/14/16 20:35,57.2,28.4,33.05,250,9,0,30.02,10,57.2
8A0,1/14/16 20:55,57.2,35.6,44.19,170,4,0,30,10,57.2
4A6,1/14/16 20:55,57.2,28.4,33.05,230,7,0,30.01,10,57.2
8A0,1/14/16 21:15,59,35.6,41.42,150,6,0,29.99,10,59
4A6,1/14/16 21:15,59,26.6,28.77,220,9,0,30.01,10,59
8A0,1/14/16 21:35,57.2,35.6,44.19,170,7,0,29.99,10,57.2
4A6,1/14/16 21:35,57.2,26.6,30.69,220,6,0,30,10,57.2
4A6,1/14/16 21:55,57.2,26.6,30.69,200,3,0,30,10,57.2
8A0,1/14/16 21:55,57.2,35.6,44.19,150,8,0,29.99,10,57.2
8A0,1/14/16 22:15,55.4,37.4,50.64,170,6,0,30,10,55.4
4A6,1/14/16 22:15,55.4,28.4,35.28,210,6,0,30,10,55.4
8A0,1/14/16 22:35,53.6,37.4,54.07,170,5,0,30,10,53.6
4A6,1/14/16 22:35,55.4,28.4,35.28,210,6,0,30.01,10,55.4
8A0,1/14/16 22:55,53.6,37.4,54.07,170,6,0,29.99,10,53.6
4A6,1/14/16 22:55,55.4,30.2,37.97,200,4,0,30.01,10,55.4
8A0,1/14/16 23:15,51.8,35.6,53.81,160,5,0,29.99,10,51.8
4A6,1/14/16 23:15,53.6,30.2,40.54,200,5,0,30,10,53.6
8A0,1/14/16 23:35,51.8,35.6,53.81,160,5,0,29.99,10,51.8
4A6,1/14/16 23:35,53.6,28.4,37.67,200,4,0,30,10,53.6
4A6,1/14/16 23:55,48.2,32,53.27,210,3,0,30,10,47.21
8A0,1/14/16 23:55,50,35.6,57.52,160,5,0,29.99,10,47.77
4A6,1/15/16 0:15,46.4,32,57,0,0,0,30,10,46.4
8A0,1/15/16 0:15,50,35.6,57.52,180,8,0,29.98,10,46.29
4A6,1/15/16 0:35,44.6,32,61.03,210,4,0,30,10,42.13
8A0,1/15/16 0:35,50,35.6,57.52,170,6,0,29.99,10,47.21
8A0,1/15/16 0:55,50,35.6,57.52,170,7,0,29.99,10,46.72
4A6,1/15/16 0:55,41,32,70.08,190,3,0,30.01,10,38.98
8A0,1/15/16 1:15,50,33.8,53.54,150,4,0,29.98,10,48.44
4A6,1/15/16 1:15,41,32,70.08,170,3,0,30,10,38.98
8A0,1/15/16 1:35,48.2,33.8,57.26,140,4,0,29.98,10,46.34
4A6,1/15/16 1:35,41,32,70.08,200,5,0,29.99,10,37.08
8A0,1/15/16 1:55,46.4,33.8,61.28,170,4,0,29.98,10,44.24
4A6,1/15/16 1:55,44.6,32,61.03,200,4,0,29.99,10,42.13
8A0,1/15/16 2:15,46.4,33.8,61.28,140,4,0,29.97,10,44.24
4A6,1/15/16 2:15,46.4,32,57,220,5,0,29.99,10,43.5
4A6,1/15/16 2:35,42.8,32,65.38,200,5,0,29.98,10,39.22
8A0,1/15/16 2:35,46.4,33.8,61.28,140,3,0,29.97,10,45.15
4A6,1/15/16 2:55,48.2,30.2,49.53,200,7,0,29.98,10,44.53
8A0,1/15/16 2:55,46.4,33.8,61.28,170,4,0,29.97,10,44.24
4A6,1/15/16 3:15,50,30.2,46.31,210,6,0,29.98,10,47.21
8A0,1/15/16 3:15,46.4,35.6,65.83,170,5,0,29.97,10,43.5
4A6,1/15/16 3:35,48.2,30.2,49.53,200,6,0,29.98,10,45.04
8A0,1/15/16 3:35,44.6,35.6,70.48,170,5,0,29.97,10,41.36
4A6,1/15/16 3:55,48.2,30.2,49.53,210,5,0,29.98,10,45.63
8A0,1/15/16 3:55,44.6,33.8,65.61,150,6,0,29.95,10,40.71
8A0,1/15/16 4:15,46.4,33.8,61.28,150,5,0,29.94,10,43.5
4A6,1/15/16 4:15,48.2,28.4,46.02,200,8,0,29.97,10,44.07
4A6,1/15/16 4:35,48.2,28.4,46.02,210,6,0,29.95,10,45.04
8A0,1/15/16 4:35,44.6,33.8,65.61,160,6,0,29.94,10,40.71
8A0,1/15/16 4:55,44.6,33.8,65.61,160,5,0,29.93,10,41.36
4A6,1/15/16 4:55,48.2,28.4,46.02,200,7,0,29.95,10,44.53
8A0,1/15/16 5:15,44.6,33.8,65.61,140,4,0,29.92,10,42.13
4A6,1/15/16 5:15,48.2,28.4,46.02,210,6,0,29.94,10,45.04
8A0,1/15/16 5:35,44.6,33.8,65.61,140,4,0,29.9,10,42.13
4A6,1/15/16 5:35,48.2,28.4,46.02,200,7,0,29.93,10,44.53
4A6,1/15/16 5:55,41,32,70.08,0,0,0,29.91,10,41
8A0,1/15/16 5:55,42.8,33.8,70.28,130,5,0,29.88,10,39.22
4A6,1/15/16 6:15,37.4,32,80.65,0,0,0,29.9,10,37.4
8A0,1/15/16 6:15,42.8,33.8,70.28,140,6,0,29.87,10,38.54
8A0,1/15/16 6:35,44.6,33.8,65.61,140,6,0,29.86,10,40.71
4A6,1/15/16 6:35,35.6,32,86.59,0,0,0,29.88,10,35.6
4A6,1/15/16 6:55,35.6,32,86.59,0,0,0,29.88,8,35.6
8A0,1/15/16 6:55,44.6,33.8,65.61,130,4,0,29.85,10,42.13
4A6,1/15/16 7:15,35.6,32,86.59,0,0,0,29.87,10,35.6
8A0,1/15/16 7:15,42.8,33.8,70.28,0,0,0,29.84,10,42.8
8A0,1/15/16 7:35,42.8,33.8,70.28,130,4,0,29.84,10,40.03
4A6,1/15/16 7:35,33.8,32,93.03,360,3,0,29.87,10,30.75
8A0,1/15/16 7:55,42.8,33.8,70.28,130,5,0,29.83,10,39.22
4A6,1/15/16 7:55,37.4,30.2,74.98,0,0,0,29.87,9,37.4
4A6,1/15/16 8:15,35.6,32,86.59,0,0,0,29.86,9,35.6
8A0,1/15/16 8:15,42.8,33.8,70.28,110,3,0,29.82,10,41.03
8A0,1/15/16 8:35,42.8,33.8,70.28,90,3,0,29.81,10,41.03
4A6,1/15/16 8:35,35.6,32,86.59,0,0,0,29.84,10,35.6
4A6,1/15/16 8:55,35.6,32,86.59,0,0,0,29.83,10,35.6
8A0,1/15/16 8:55,42.8,33.8,70.28,0,0,0,29.8,10,42.8
8A0,1/15/16 9:15,42.8,33.8,70.28,90,4,0,29.8,10,40.03
4A6,1/15/16 9:15,35.6,32,86.59,0,0,0,29.83,10,35.6
4A6,1/15/16 9:35,37.4,32,80.65,0,0,0,29.82,10,37.4
8A0,1/15/16 9:35,42.8,33.8,70.28,120,4,0,29.79,10,40.03
8A0,1/15/16 9:55,42.8,33.8,70.28,130,4,0,29.79,10,40.03
4A6,1/15/16 9:55,35.6,32,86.59,0,0,0,29.82,10,35.6
8A0,1/15/16 10:15,42.8,33.8,70.28,100,4,0,29.77,10,40.03
4A6,1/15/16 10:15,37.4,32,80.65,0,0,0,29.81,10,37.4
4A6,1/15/16 10:35,37.4,32,80.65,0,0,0,29.8,10,37.4
8A0,1/15/16 10:35,42.8,33.8,70.28,130,5,0,29.76,10,39.22
8A0,1/15/16 10:55,42.8,35.6,75.5,130,6,0,29.76,10,38.54
4A6,1/15/16 10:55,37.4,32,80.65,10,3,0,29.79,10,34.86
4A6,1/15/16 11:15,37.4,32,80.65,0,0,0,29.79,10,37.4
8A0,1/15/16 11:15,41,37.4,86.89,120,4,0,29.76,7,37.93
4A6,1/15/16 11:35,37.4,33.8,86.69,30,3,0,29.77,10,34.86
8A0,1/15/16 11:35,39.2,39.2,100,120,4,0.01,29.73,7,35.83
8A0,1/15/16 11:55,39.2,39.2,100,130,5,0.02,29.73,7,34.95
4A6,1/15/16 11:55,39.2,32,75.16,330,4,0,29.76,10,35.83
8A0,1/15/16 12:15,39.2,39.2,100,130,5,0.01,29.72,7,34.95
4A6,1/15/16 12:15,41,32,70.08,0,0,0,29.76,10,41
8A0,1/15/16 12:35,39.2,39.2,100,120,5,0.03,29.72,5,34.95
4A6,1/15/16 12:35,39.2,33.8,80.79,0,0,0,29.75,10,39.2
8A0,1/15/16 12:55,39.2,39.2,100,120,5,0.05,29.7,5,34.95
4A6,1/15/16 12:55,39.2,35.6,86.79,60,3,0,29.75,9,36.92
8A0,1/15/16 13:15,39.2,39.2,100,120,6,0.01,29.67,7,34.2
4A6,1/15/16 13:15,39.2,37.4,93.19,0,0,0,29.73,5,39.2
8A0,1/15/16 13:35,39.2,39.2,100,110,6,0.04,29.64,5,34.2
4A6,1/15/16 13:35,39.2,39.2,100,360,3,0.01,29.72,6,36.92
4A6,1/15/16 13:55,39.2,39.2,100,0,0,0.02,29.7,8,39.2
8A0,1/15/16 13:55,41,41,100,110,4,0.05,29.66,7,37.93
4A6,1/15/16 14:15,39.2,39.2,100,0,0,0,29.71,10,39.2
8A0,1/15/16 14:15,41,41,100,130,3,0.01,29.67,5,38.98
8A0,1/15/16 14:35,41,41,100,340,3,0.03,29.68,3,38.98
4A6,1/15/16 14:35,39.2,39.2,100,0,0,0,29.71,7,39.2
4A6,1/15/16 14:55,39.2,39.2,100,50,3,0.01,29.72,5,36.92
8A0,1/15/16 14:55,41,41,100,310,4,0.05,29.69,5,37.93
8A0,1/15/16 15:15,41,41,100,0,0,0.01,29.7,4,41
4A6,1/15/16 15:15,39.2,39.2,100,0,0,0.01,29.72,5,39.2
4A6,1/15/16 15:35,41,41,100,0,0,0.02,29.73,7,41
8A0,1/15/16 15:35,41,41,100,0,0,0.01,29.69,5,41
8A0,1/15/16 15:55,41,41,100,80,3,0.02,29.68,4,38.98
4A6,1/15/16 15:55,41,41,100,0,0,0.02,29.72,6,41
4A6,1/15/16 16:15,41,41,100,90,3,0,29.71,10,38.98
8A0,1/15/16 16:15,42.8,42.8,100,0,0,0,29.67,7,42.8
4A6,1/15/16 16:35,41,41,100,60,4,0,29.68,10,37.93
8A0,1/15/16 16:35,42.8,42.8,100,100,4,0,29.66,7,40.03
8A0,1/15/16 16:55,42.8,42.8,100,100,5,0,29.65,10,39.22
4A6,1/15/16 16:55,44.6,41,87.09,110,4,0,29.68,10,42.13
8A0,1/15/16 17:15,42.8,42.8,100,0,0,0,29.64,10,42.8
4A6,1/15/16 17:15,44.6,41,87.09,40,4,0,29.66,10,42.13
8A0,1/15/16 17:35,44.6,44.6,100,0,0,0,29.63,10,44.6
4A6,1/15/16 17:35,44.6,41,87.09,0,0,0,29.65,10,44.6
8A0,1/15/16 17:55,44.6,44.6,100,150,3,0,29.62,10,43.09
4A6,1/15/16 17:55,46.4,42.8,87.19,30,4,0,29.63,10,44.24
4A6,1/15/16 18:15,48.2,41,76.01,0,0,0,29.61,10,48.2
8A0,1/15/16 18:15,44.6,44.6,100,160,3,0,29.6,10,43.09
8A0,1/15/16 18:35,46.4,46.4,100,0,0,0,29.59,10,46.4
4A6,1/15/16 18:35,48.2,41,76.01,0,0,0,29.61,9,48.2
8A0,1/15/16 18:55,46.4,46.4,100,200,3,0,29.59,4,45.15
4A6,1/15/16 18:55,48.2,41,76.01,0,0,0,29.6,10,48.2
4A6,1/15/16 19:15,48.2,41,76.01,290,4,0,29.59,10,46.34
8A0,1/15/16 19:15,46.4,46.4,100,190,4,0,29.58,3,44.24
4A6,1/15/16 19:35,48.2,44.6,87.28,250,4,0,29.59,5,46.34
8A0,1/15/16 19:35,46.4,46.4,100,230,4,0,29.59,3,44.24
8A0,1/15/16 19:55,46.4,46.4,100,220,6,0.01,29.59,1.5,42.87
4A6,1/15/16 19:55,48.2,44.6,87.28,240,5,0,29.6,4,45.63
8A0,1/15/16 20:15,46.4,46.4,100,200,4,0,29.6,2,44.24
4A6,1/15/16 20:15,46.4,46.4,100,240,5,0,29.61,1.25,43.5
8A0,1/15/16 20:35,46.4,46.4,100,200,5,0,29.59,3,43.5
4A6,1/15/16 20:35,46.4,46.4,100,230,4,0,29.61,1.5,44.24
8A0,1/15/16 20:55,46.4,46.4,100,200,5,0,29.6,3,43.5
4A6,1/15/16 20:55,46.4,46.4,100,220,4,0.01,29.61,5,44.24
4A6,1/15/16 21:15,46.4,46.4,100,230,4,0,29.61,8,44.24
8A0,1/15/16 21:15,46.4,46.4,100,220,4,0,29.6,1.75,44.24
4A6,1/15/16 21:35,46.4,46.4,100,210,5,0,29.62,1.75,43.5
8A0,1/15/16 21:35,46.4,46.4,100,230,6,0,29.6,1,42.87
8A0,1/15/16 21:55,46.4,46.4,100,230,6,0,29.61,0.75,42.87
4A6,1/15/16 21:55,46.4,46.4,100,210,6,0,29.62,5,42.87
4A6,1/15/16 22:15,46.4,46.4,100,230,5,0,29.63,5,43.5
8A0,1/15/16 22:15,46.4,46.4,100,220,7,0,29.62,0.75,42.33
4A6,1/15/16 22:35,46.4,46.4,100,260,5,0,29.64,5,43.5
8A0,1/15/16 22:35,46.4,46.4,100,240,7,0,29.63,1,42.33
8A0,1/15/16 22:55,46.4,46.4,100,240,6,0,29.64,1,42.87
4A6,1/15/16 22:55,46.4,46.4,100,230,4,0,29.64,3,44.24
8A0,1/15/16 23:15,46.4,46.4,100,230,5,0,29.64,1,43.5
4A6,1/15/16 23:15,46.4,46.4,100,230,5,0,29.65,1.5,43.5
8A0,1/15/16 23:35,46.4,46.4,100,240,4,0,29.64,0.75,44.24
4A6,1/15/16 23:35,48.2,48.2,100,230,4,0,29.66,1.5,46.34
4A6,1/15/16 23:55,48.2,48.2,100,220,4,0,29.66,1.5,46.34
8A0,1/15/16 23:55,48.2,48.2,100,240,7,0,29.65,0.75,44.53
8A0,1/16/16 0:15,48.2,48.2,100,260,7,0,29.66,0.75,44.53
4A6,1/16/16 0:15,48.2,48.2,100,230,5,0,29.67,1.5,45.63
8A0,1/16/16 0:35,48.2,48.2,100,250,6,0,29.67,1.25,45.04
4A6,1/16/16 0:35,48.2,48.2,100,230,4,0,29.68,1.25,46.34
8A0,1/16/16 0:55,48.2,48.2,100,260,4,0,29.67,3,46.34
4A6,1/16/16 0:55,48.2,48.2,100,230,4,0,29.68,1.5,46.34
4A6,1/16/16 1:15,48.2,48.2,100,230,4,0,29.69,1.5,46.34
8A0,1/16/16 1:15,48.2,48.2,100,240,5,0,29.68,3,45.63
4A6,1/16/16 1:35,48.2,48.2,100,220,7,0,29.69,2,44.53
8A0,1/16/16 1:35,48.2,48.2,100,250,7,0,29.69,3,44.53
8A0,1/16/16 1:55,48.2,48.2,100,260,3,0,29.7,3,47.21
4A6,1/16/16 1:55,48.2,48.2,100,210,6,0,29.7,5,45.04
4A6,1/16/16 2:15,48.2,48.2,100,220,5,0,29.7,4,45.63
8A0,1/16/16 2:15,48.2,48.2,100,250,5,0,29.7,2.5,45.63
8A0,1/16/16 2:35,48.2,48.2,100,240,4,0,29.7,2,46.34
4A6,1/16/16 2:35,48.2,48.2,100,220,6,0,29.71,4,45.04
8A0,1/16/16 2:55,50,50,100,220,4,0,29.7,2,48.44
4A6,1/16/16 2:55,48.2,48.2,100,210,5,0,29.71,5,45.63
4A6,1/16/16 3:15,48.2,48.2,100,220,6,0,29.71,5,45.04
8A0,1/16/16 3:15,50,50,100,190,4,0.01,29.69,2,48.44
8A0,1/16/16 3:35,50,50,100,240,3,0.01,29.7,1.5,49.27
4A6,1/16/16 3:35,48.2,48.2,100,220,5,0,29.71,5,45.63
8A0,1/16/16 3:55,50,50,100,200,5,0.01,29.7,0.5,47.77
4A6,1/16/16 3:55,48.2,48.2,100,220,5,0,29.71,4,45.63
4A6,1/16/16 4:15,48.2,48.2,100,230,6,0,29.71,4,45.04
8A0,1/16/16 4:15,50,50,100,220,3,0,29.7,0.75,49.27
4A6,1/16/16 4:35,48.2,48.2,100,220,6,0,29.7,4,45.04
8A0,1/16/16 4:35,50,50,100,230,5,0,29.7,1,47.77
4A6,1/16/16 4:55,48.2,48.2,100,230,6,0,29.7,4,45.04
8A0,1/16/16 4:55,50,50,100,240,7,0,29.7,0.5,46.72
4A6,1/16/16 5:15,48.2,48.2,100,250,7,0,29.71,4,44.53
8A0,1/16/16 5:15,50,50,100,240,7,0,29.7,1.5,46.72
8A0,1/16/16 5:35,50,50,100,240,7,0,29.7,4,46.72
4A6,1/16/16 5:35,48.2,48.2,100,230,7,0,29.71,4,44.53
4A6,1/16/16 5:55,48.2,48.2,100,230,5,0,29.71,3,45.63
8A0,1/16/16 5:55,50,50,100,260,8,0,29.71,4,46.29
8A0,1/16/16 6:15,50,50,100,280,6,0.01,29.71,2.5,47.21
4A6,1/16/16 6:15,48.2,48.2,100,230,4,0,29.71,3,46.34
4A6,1/16/16 6:35,48.2,48.2,100,240,4,0,29.71,2.5,46.34
8A0,1/16/16 6:35,50,50,100,280,6,0.01,29.7,7,47.21
8A0,1/16/16 6:55,50,50,100,270,6,0.01,29.7,7,47.21
4A6,1/16/16 6:55,46.4,46.4,100,0,0,0,29.71,2,46.4
8A0,1/16/16 7:15,48.2,48.2,100,280,6,0,29.72,7,45.04
4A6,1/16/16 7:15,46.4,46.4,100,0,0,0,29.72,0.75,46.4
8A0,1/16/16 7:35,46.4,46.4,100,270,4,0,29.72,7,44.24
4A6,1/16/16 7:35,46.4,46.4,100,250,4,0,29.73,6,44.24
8A0,1/16/16 7:55,46.4,46.4,100,290,4,0,29.73,7,44.24
4A6,1/16/16 7:55,46.4,46.4,100,0,0,0,29.73,7,46.4
8A0,1/16/16 8:15,46.4,46.4,100,290,8,0,29.74,10,41.85
4A6,1/16/16 8:15,44.6,44.6,100,280,6,0,29.74,9,40.71
4A6,1/16/16 8:35,46.4,46.4,100,320,4,0,29.75,10,44.24
8A0,1/16/16 8:35,46.4,46.4,100,290,4,0,29.74,10,44.24
8A0,1/16/16 8:55,44.6,44.6,100,300,7,0,29.75,10,40.14
4A6,1/16/16 8:55,46.4,44.6,93.4,290,6,0,29.76,10,42.87
4A6,1/16/16 9:15,46.4,44.6,93.4,290,4,0,29.77,10,44.24
8A0,1/16/16 9:15,42.8,42.8,100,300,8,0,29.77,10,37.42
8A0,1/16/16 9:35,42.8,42.8,100,260,5,0,29.78,10,39.22
4A6,1/16/16 9:35,46.4,44.6,93.4,290,5,0,29.78,10,43.5
4A6,1/16/16 9:55,44.6,41,87.09,290,5,0,29.79,10,41.36
8A0,1/16/16 9:55,41,41,100,270,4,0,29.78,10,37.93
4A6,1/16/16 10:15,42.8,39.2,86.99,280,8,0,29.79,10,37.42
8A0,1/16/16 10:15,41,41,100,260,5,0,29.79,10,37.08
4A6,1/16/16 10:35,41,37.4,86.89,0,0,0,29.8,10,41
8A0,1/16/16 10:35,39.2,39.2,100,280,8,0,29.79,10,32.98
8A0,1/16/16 10:55,37.4,37.4,100,290,5,0,29.79,10,32.81
4A6,1/16/16 10:55,41,37.4,86.89,240,4,0,29.81,10,37.93
8A0,1/16/16 11:15,37.4,37.4,100,320,5,0,29.8,10,32.81
4A6,1/16/16 11:15,41,37.4,86.89,180,3,0,29.81,10,38.98
4A6,1/16/16 11:35,39.2,39.2,100,270,3,0,29.82,10,36.92
8A0,1/16/16 11:35,37.4,37.4,100,320,5,0,29.8,10,32.81
4A6,1/16/16 11:55,37.4,37.4,100,290,4,0,29.83,10,33.73
8A0,1/16/16 11:55,35.6,35.6,100,320,5,0,29.81,10,30.67
8A0,1/16/16 12:15,35.6,35.6,100,320,5,0,29.82,10,30.67
4A6,1/16/16 12:15,37.4,37.4,100,310,4,0,29.84,10,33.73
4A6,1/16/16 12:35,35.6,35.6,100,310,5,0,29.84,10,30.67
8A0,1/16/16 12:35,35.6,35.6,100,330,5,0,29.82,10,30.67
4A6,1/16/16 12:55,35.6,35.6,100,0,0,0,29.85,10,35.6
8A0,1/16/16 12:55,35.6,35.6,100,330,5,0,29.83,10,30.67
8A0,1/16/16 13:15,35.6,35.6,100,330,4,0,29.83,10,31.62
4A6,1/16/16 13:15,35.6,35.6,100,0,0,0,29.86,9,35.6
8A0,1/16/16 13:35,35.6,35.6,100,310,3,0,29.84,10,32.8
4A6,1/16/16 13:35,35.6,35.6,100,0,0,0,29.87,10,35.6
8A0,1/16/16 13:55,37.4,37.4,100,320,4,0,29.84,10,33.73
4A6,1/16/16 13:55,37.4,37.4,100,0,0,0,29.87,10,37.4
8A0,1/16/16 14:15,37.4,37.4,100,340,5,0,29.85,10,32.81
4A6,1/16/16 14:15,41,39.2,93.24,340,3,0,29.89,10,38.98
8A0,1/16/16 14:35,41,37.4,86.89,340,6,0,29.86,10,36.37
4A6,1/16/16 14:35,41,35.6,80.93,340,3,0,29.89,10,38.98
4A6,1/16/16 14:55,42.8,35.6,75.5,10,4,0,29.9,10,40.03
8A0,1/16/16 14:55,41,37.4,86.89,340,8,0,29.87,10,35.2
4A6,1/16/16 15:15,44.6,35.6,70.48,30,7,0,29.91,10,40.14
8A0,1/16/16 15:15,42.8,37.4,81.07,360,9,0,29.89,10,36.94
8A0,1/16/16 15:35,42.8,37.4,81.07,350,8,0,29.89,10,37.42
4A6,1/16/16 15:35,44.6,35.6,70.48,360,4,0,29.91,10,42.13
4A6,1/16/16 15:55,44.6,35.6,70.48,320,3,0,29.91,10,43.09
8A0,1/16/16 15:55,42.8,37.4,81.07,340,6,0,29.89,10,38.54
8A0,1/16/16 16:15,42.8,39.2,86.99,350,5,0,29.89,10,39.22
4A6,1/16/16 16:15,44.6,33.8,65.61,320,4,0,29.91,10,42.13
8A0,1/16/16 16:35,44.6,39.2,81.2,10,4,0,29.89,10,42.13
4A6,1/16/16 16:35,46.4,33.8,61.28,340,3,0,29.91,10,45.15
8A0,1/16/16 16:55,44.6,39.2,81.2,360,4,0,29.89,10,42.13
4A6,1/16/16 16:55,46.4,35.6,65.83,340,4,0,29.91,10,44.24
8A0,1/16/16 17:15,44.6,39.2,81.2,330,4,0,29.88,10,42.13
4A6,1/16/16 17:15,46.4,33.8,61.28,40,5,0,29.91,10,43.5
4A6,1/16/16 17:35,46.4,33.8,61.28,320,5,0,29.9,10,43.5
8A0,1/16/16 17:35,44.6,39.2,81.2,310,4,0,29.88,10,42.13
8A0,1/16/16 17:55,44.6,39.2,81.2,260,3,0,29.87,10,43.09
4A6,1/16/16 17:55,48.2,33.8,57.26,350,5,0,29.89,10,45.63
8A0,1/16/16 18:15,46.4,41,81.34,310,3,0,29.87,10,45.15
4A6,1/16/16 18:15,48.2,33.8,57.26,350,4,0,29.89,10,46.34
4A6,1/16/16 18:35,48.2,35.6,61.52,20,6,0,29.89,10,45.04
8A0,1/16/16 18:35,46.4,39.2,75.84,320,3,0,29.86,10,45.15
4A6,1/16/16 18:55,48.2,33.8,57.26,350,8,0,29.88,10,44.07
8A0,1/16/16 18:55,46.4,41,81.34,350,5,0,29.86,10,43.5
4A6,1/16/16 19:15,48.2,33.8,57.26,320,5,0,29.88,10,45.63
8A0,1/16/16 19:15,46.4,41,81.34,330,6,0,29.86,10,42.87
8A0,1/16/16 19:35,46.4,41,81.34,350,8,0,29.86,10,41.85
4A6,1/16/16 19:35,48.2,33.8,57.26,330,3,0,29.89,10,47.21
4A6,1/16/16 19:55,50,33.8,53.54,300,7,0,29.88,10,46.72
8A0,1/16/16 19:55,46.4,41,81.34,340,8,0,29.86,10,41.85
4A6,1/16/16 20:15,50,33.8,53.54,330,5,0,29.89,10,47.77
8A0,1/16/16 20:15,46.4,39.2,75.84,360,7,0,29.87,10,42.33
8A0,1/16/16 20:35,46.4,39.2,75.84,300,6,0,29.87,10,42.87
4A6,1/16/16 20:35,48.2,33.8,57.26,340,9,0,29.89,10,43.66
8A0,1/16/16 20:55,46.4,39.2,75.84,350,6,0,29.87,10,42.87
4A6,1/16/16 20:55,48.2,35.6,61.52,340,8,0,29.9,10,44.07
4A6,1/16/16 21:15,46.4,35.6,65.83,340,8,0,29.9,10,41.85
8A0,1/16/16 21:15,46.4,39.2,75.84,320,6,0,29.87,10,42.87
8A0,1/16/16 21:35,46.4,39.2,75.84,350,7,0,29.86,10,42.33
4A6,1/16/16 21:35,46.4,33.8,61.28,330,6,0,29.91,10,42.87
8A0,1/16/16 21:55,46.4,39.2,75.84,350,7,0,29.86,10,42.33
4A6,1/16/16 21:55,46.4,33.8,61.28,10,6,0,29.9,10,42.87
4A6,1/16/16 22:15,44.6,33.8,65.61,360,7,0,29.89,10,40.14
8A0,1/16/16 22:15,46.4,39.2,75.84,350,6,0,29.85,10,42.87
8A0,1/16/16 22:35,44.6,39.2,81.2,350,9,0,29.86,10,39.18
4A6,1/16/16 22:35,44.6,33.8,65.61,10,8,0,29.91,10,39.63
8A0,1/16/16 22:55,42.8,39.2,86.99,350,4,0,29.86,10,40.03
4A6,1/16/16 22:55,41,32,70.08,360,6,0,29.91,10,36.37
8A0,1/16/16 23:15,42.8,39.2,86.99,360,5,0,29.87,10,39.22
4A6,1/16/16 23:15,41,32,70.08,10,7,0,29.91,10,35.75
8A0,1/16/16 23:35,41,39.2,93.24,340,4,0,29.89,10,37.93
4A6,1/16/16 23:35,41,32,70.08,10,7,0,29.92,10,35.75
8A0,1/16/16 23:55,41,37.4,86.89,350,6,0,29.89,10,36.37
4A6,1/16/16 23:55,39.2,32,75.16,20,5,0,29.94,10,34.95
8A0,1/17/16 0:15,41,37.4,86.89,360,7,0,29.89,10,35.75
4A6,1/17/16 0:15,39.2,32,75.16,20,7,0,29.94,10,33.56
4A6,1/17/16 0:35,39.2,32,75.16,20,6,0,29.95,10,34.2
8A0,1/17/16 0:35,41,37.4,86.89,360,8,0,29.9,10,35.2
8A0,1/17/16 0:55,39.2,37.4,93.19,350,8,0,29.9,10,32.98
4A6,1/17/16 0:55,39.2,32,75.16,10,8,0,29.94,10,32.98
4A6,1/17/16 1:15,39.2,32,75.16,10,7,0,29.94,10,33.56
8A0,1/17/16 1:15,39.2,37.4,93.19,350,7,0,29.89,10,33.56
4A6,1/17/16 1:35,37.4,32,80.65,10,4,0,29.95,10,33.73
8A0,1/17/16 1:35,37.4,37.4,100,340,7,0,29.91,10,31.36
4A6,1/17/16 1:55,37.4,32,80.65,360,5,0,29.94,10,32.81
8A0,1/17/16 1:55,37.4,37.4,100,340,7,0,29.92,10,31.36
8A0,1/17/16 2:15,37.4,37.4,100,350,7,0,29.9,10,31.36
4A6,1/17/16 2:15,37.4,30.2,74.98,10,4,0,29.94,10,33.73
4A6,1/17/16 2:35,35.6,32,86.59,10,4,0,29.94,10,31.62
8A0,1/17/16 2:35,37.4,35.6,93.14,350,8,0,29.9,7,30.76
4A6,1/17/16 2:55,35.6,30.2,80.51,10,5,0,29.94,10,30.67
8A0,1/17/16 2:55,37.4,35.6,93.14,360,6,0,29.89,7,32.03
8A0,1/17/16 3:15,35.6,35.6,100,360,7,0,29.9,7,29.17
4A6,1/17/16 3:15,35.6,28.4,74.8,20,5,0,29.94,9,30.67
4A6,1/17/16 3:35,35.6,28.4,74.8,10,4,0,29.94,9,31.62
8A0,1/17/16 3:35,35.6,35.6,100,10,5,0,29.91,7,30.67
4A6,1/17/16 3:55,35.6,28.4,74.8,20,3,0,29.96,8,32.8
8A0,1/17/16 3:55,35.6,35.6,100,360,4,0,29.9,7,31.62
4A6,1/17/16 4:15,35.6,30.2,80.51,10,4,0,29.95,8,31.62
8A0,1/17/16 4:15,35.6,35.6,100,350,6,0,29.91,7,29.87
8A0,1/17/16 4:35,35.6,35.6,100,10,5,0,29.89,7,30.67
4A6,1/17/16 4:35,35.6,30.2,80.51,20,4,0,29.94,10,31.62
4A6,1/17/16 4:55,35.6,28.4,74.8,20,4,0,29.91,10,31.62
8A0,1/17/16 4:55,35.6,33.8,93.08,10,6,0,29.87,7,29.87
4A6,1/17/16 5:15,35.6,28.4,74.8,20,4,0,29.91,10,31.62
8A0,1/17/16 5:15,35.6,33.8,93.08,10,4,0,29.87,7,31.62
8A0,1/17/16 5:35,33.8,33.8,100,20,5,0,29.84,7,28.53
4A6,1/17/16 5:35,35.6,28.4,74.8,10,4,0,29.91,10,31.62
8A0,1/17/16 5:55,33.8,33.8,100,20,7,0,29.83,7,26.97
4A6,1/17/16 5:55,35.6,28.4,74.8,30,6,0,29.88,10,29.87
8A0,1/17/16 6:15,33.8,33.8,100,40,8,0,29.83,7,26.33
4A6,1/17/16 6:15,35.6,28.4,74.8,30,5,0,29.88,10,30.67
4A6,1/17/16 6:35,35.6,28.4,74.8,20,3,0,29.89,10,32.8
8A0,1/17/16 6:35,33.8,33.8,100,10,6,0,29.84,7,27.7
4A6,1/17/16 6:55,35.6,28.4,74.8,360,4,0,29.88,10,31.62
8A0,1/17/16 6:55,33.8,33.8,100,20,6,0,29.82,7,27.7
8A0,1/17/16 7:15,33.8,33.8,100,10,7,0,29.8,7,26.97
4A6,1/17/16 7:15,35.6,28.4,74.8,30,5,0,29.87,10,30.67
4A6,1/17/16 7:35,35.6,28.4,74.8,10,5,0,29.86,10,30.67
8A0,1/17/16 7:35,33.8,32,93.03,10,6,0,29.84,7,27.7
4A6,1/17/16 7:55,35.6,28.4,74.8,20,5,0,29.87,10,30.67
8A0,1/17/16 7:55,33.8,33.8,100,20,6,0,29.83,7,27.7
4A6,1/17/16 8:15,35.6,28.4,74.8,340,5,0,29.89,10,30.67
8A0,1/17/16 8:15,33.8,32,93.03,360,7,0,29.85,10,26.97
4A6,1/17/16 8:35,35.6,28.4,74.8,360,4,0,29.9,10,31.62
8A0,1/17/16 8:35,33.8,32,93.03,330,8,0,29.86,10,26.33
8A0,1/17/16 8:55,33.8,32,93.03,360,7,0,29.87,10,26.97
4A6,1/17/16 8:55,35.6,28.4,74.8,350,3,0,29.91,10,32.8
8A0,1/17/16 9:15,33.8,32,93.03,360,8,0,29.87,10,26.33
4A6,1/17/16 9:15,35.6,28.4,74.8,20,5,0,29.91,10,30.67
8A0,1/17/16 9:35,33.8,32,93.03,360,6,0,29.87,10,27.7
4A6,1/17/16 9:35,35.6,28.4,74.8,350,4,0,29.91,10,31.62
4A6,1/17/16 9:55,35.6,28.4,74.8,360,3,0,29.92,10,32.8
8A0,1/17/16 9:55,33.8,32,93.03,350,7,0,29.89,10,26.97
8A0,1/17/16 10:15,33.8,32,93.03,340,8,0,29.89,10,26.33
4A6,1/17/16 10:15,35.6,28.4,74.8,340,4,0,29.93,10,31.62
8A0,1/17/16 10:35,33.8,32,93.03,350,7,0,29.9,10,26.97
4A6,1/17/16 10:35,35.6,28.4,74.8,350,4,0,29.93,10,31.62
8A0,1/17/16 10:55,33.8,32,93.03,340,6,0,29.91,10,27.7
4A6,1/17/16 10:55,35.6,28.4,74.8,350,4,0,29.93,10,31.62
4A6,1/17/16 11:15,35.6,28.4,74.8,360,4,0,29.95,10,31.62
8A0,1/17/16 11:15,32,32,100,330,7,0,29.91,10,24.78
4A6,1/17/16 11:35,35.6,28.4,74.8,360,5,0,29.94,10,30.67
8A0,1/17/16 11:35,32,32,100,330,7,0,29.92,10,24.78
8A0,1/17/16 11:55,32,32,100,330,6,0,29.93,10,25.53
4A6,1/17/16 11:55,35.6,28.4,74.8,350,5,0,29.96,10,30.67
4A6,1/17/16 12:15,35.6,28.4,74.8,10,5,0,29.96,10,30.67
8A0,1/17/16 12:15,32,32,100,350,8,0,29.93,10,24.11
8A0,1/17/16 12:35,32,32,100,350,10,0,29.94,10,22.97
4A6,1/17/16 12:35,35.6,28.4,74.8,340,7,0,29.98,10,29.17
4A6,1/17/16 12:55,35.6,28.4,74.8,340,5,0,29.99,10,30.67
8A0,1/17/16 12:55,32,32,100,320,13,0,29.95,10,21.57
4A6,1/17/16 13:15,33.8,28.4,80.36,350,7,0,30,10,26.97
8A0,1/17/16 13:15,32,32,100,350,11,0,29.96,10,22.47
4A6,1/17/16 13:35,33.8,26.6,74.63,350,8,0,30,10,26.33
8A0,1/17/16 13:35,32,32,100,340,7,0,29.97,10,24.78
8A0,1/17/16 13:55,32,30.2,92.97,340,12,0,29.97,10,22
4A6,1/17/16 13:55,33.8,24.8,69.25,350,6,0,30.01,10,27.7
4A6,1/17/16 14:15,35.6,24.8,64.46,350,10,0,30.02,10,27.48
8A0,1/17/16 14:15,32,30.2,92.97,350,12,0,29.98,10,22
4A6,1/17/16 14:35,35.6,24.8,64.46,350,10,0,30.03,10,27.48
8A0,1/17/16 14:35,32,32,100,330,11,0,30.01,10,22.47
4A6,1/17/16 14:55,35.6,24.8,64.46,350,9,0,30.05,10,27.99
8A0,1/17/16 14:55,33.8,30.2,86.49,330,13,0,30.02,10,23.87
8A0,1/17/16 15:15,33.8,32,93.03,350,12,0,30.02,10,24.29
4A6,1/17/16 15:15,35.6,24.8,64.46,350,6,0,30.05,10,29.87
4A6,1/17/16 15:35,37.4,24.8,60.04,360,6,0,30.05,10,32.03
8A0,1/17/16 15:35,35.6,32,86.59,340,11,0,30.02,10,27.02
8A0,1/17/16 15:55,35.6,32,86.59,330,10,0,30.02,10,27.48
4A6,1/17/16 15:55,37.4,24.8,60.04,350,5,0,30.05,10,32.81
4A6,1/17/16 16:15,39.2,24.8,55.95,360,5,0,30.05,10,34.95
8A0,1/17/16 16:15,37.4,32,80.65,320,12,0,30.02,10,28.87
8A0,1/17/16 16:35,37.4,32,80.65,340,10,0,30.02,10,29.74
4A6,1/17/16 16:35,39.2,24.8,55.95,20,7,0,30.05,10,33.56
4A6,1/17/16 16:55,41,24.8,52.17,340,9,0,30.04,10,34.7
8A0,1/17/16 16:55,37.4,32,80.65,330,11,0,30.02,10,29.29
4A6,1/17/16 17:15,39.2,23,51.89,10,8,0,30.04,10,32.98
8A0,1/17/16 17:15,39.2,32,75.16,350,12,0,30.01,10,31.17
4A6,1/17/16 17:35,41,23,48.39,320,7,0,30.04,10,35.75
8A0,1/17/16 17:35,41,30.2,65.16,330,11,0,30.01,10,33.84
4A6,1/17/16 17:55,41,23,48.39,310,9,0,30.03,10,34.7
8A0,1/17/16 17:55,41,30.2,65.16,320,11,0,30,10,33.84
4A6,1/17/16 18:15,41,23,48.39,350,10,0,30.02,10,34.25
8A0,1/17/16 18:15,41,32,70.08,350,9,0,29.99,10,34.7
8A0,1/17/16 18:35,41,32,70.08,330,12,0,29.98,10,33.46
4A6,1/17/16 18:35,41,23,48.39,10,8,0,30.01,10,35.2
4A6,1/17/16 18:55,42.8,23,45.14,340,6,0,30.01,10,38.54
8A0,1/17/16 18:55,41,32,70.08,330,12,0,29.98,10,33.46
8A0,1/17/16 19:15,41,32,70.08,300,9,0,29.98,10,34.7
4A6,1/17/16 19:15,41,23,48.39,320,8,0,30.01,10,35.2
4A6,1/17/16 19:35,41,21.2,44.85,300,6,0,30.01,10,36.37
8A0,1/17/16 19:35,41,32,70.08,330,10,0,29.99,10,34.25
4A6,1/17/16 19:55,41,21.2,44.85,340,11,0,30.02,10,33.84
8A0,1/17/16 19:55,42.8,30.2,60.79,300,11,0,29.99,10,36.11
8A0,1/17/16 20:15,41,30.2,65.16,330,12,0,30,10,33.46
4A6,1/17/16 20:15,42.8,23,45.14,330,8,0,30.03,10,37.42
4A6,1/17/16 20:35,42.8,21.2,41.84,340,9,0,30.03,10,36.94
8A0,1/17/16 20:35,42.8,30.2,60.79,330,11,0,30.01,10,36.11
8A0,1/17/16 20:55,42.8,30.2,60.79,320,11,0,30.02,10,36.11
4A6,1/17/16 20:55,42.8,21.2,41.84,340,7,0,30.04,10,37.94
4A6,1/17/16 21:15,42.8,21.2,41.84,340,6,0,30.04,10,38.54
8A0,1/17/16 21:15,41,30.2,65.16,330,9,0,30.02,10,34.7
8A0,1/17/16 21:35,41,30.2,65.16,310,10,0,30.02,10,34.25
4A6,1/17/16 21:35,42.8,21.2,41.84,350,8,0,30.05,10,37.42
4A6,1/17/16 21:55,41,23,48.39,350,6,0,30.05,10,36.37
8A0,1/17/16 21:55,41,30.2,65.16,320,8,0,30.03,10,35.2
4A6,1/17/16 22:15,41,23,48.39,330,3,0,30.06,10,38.98
8A0,1/17/16 22:15,41,30.2,65.16,300,8,0,30.03,10,35.2
8A0,1/17/16 22:35,41,30.2,65.16,300,6,0,30.04,10,36.37
4A6,1/17/16 22:35,41,23,48.39,340,5,0,30.06,10,37.08
4A6,1/17/16 22:55,39.2,23,51.89,320,3,0,30.07,10,36.92
8A0,1/17/16 22:55,39.2,30.2,69.88,290,7,0,30.05,10,33.56
4A6,1/17/16 23:15,39.2,23,51.89,290,3,0,30.09,10,36.92
8A0,1/17/16 23:15,37.4,30.2,74.98,300,4,0,30.06,10,33.73
8A0,1/17/16 23:35,37.4,28.4,69.67,300,5,0,30.07,10,32.81
4A6,1/17/16 23:35,39.2,23,51.89,290,4,0,30.1,10,35.83
8A0,1/17/16 23:55,37.4,30.2,74.98,280,6,0,30.09,10,32.03
4A6,1/17/16 23:55,37.4,23,55.68,310,4,0,30.11,10,33.73
4A6,1/18/16 0:15,37.4,23,55.68,0,0,0,30.11,10,37.4
8A0,1/18/16 0:15,35.6,30.2,80.51,300,6,0,30.09,10,29.87
8A0,1/18/16 0:35,35.6,30.2,80.51,290,5,0,30.09,10,30.67
4A6,1/18/16 0:35,35.6,24.8,64.46,0,0,0,30.11,10,35.6
8A0,1/18/16 0:55,35.6,30.2,80.51,290,6,0,30.1,10,29.87
4A6,1/18/16 0:55,33.8,24.8,69.25,0,0,0,30.12,10,33.8
4A6,1/18/16 1:15,32,24.8,74.44,240,4,0,30.12,10,27.42
8A0,1/18/16 1:15,35.6,30.2,80.51,280,4,0,30.1,10,31.62
8A0,1/18/16 1:35,35.6,28.4,74.8,270,5,0,30.1,10,30.67
4A6,1/18/16 1:35,32,24.8,74.44,0,0,0,30.13,10,32
4A6,1/18/16 1:55,32,23,69.04,290,4,0,30.14,10,27.42
8A0,1/18/16 1:55,33.8,28.4,80.36,290,5,0,30.11,10,28.53
4A6,1/18/16 2:15,33.8,23,64.23,300,3,0,30.14,10,30.75
8A0,1/18/16 2:15,33.8,28.4,80.36,280,4,0,30.11,10,29.52
8A0,1/18/16 2:35,33.8,28.4,80.36,290,5,0,30.11,10,28.53
4A6,1/18/16 2:35,35.6,21.2,55.41,330,4,0,30.14,10,31.62
8A0,1/18/16 2:55,33.8,28.4,80.36,300,5,0,30.12,10,28.53
4A6,1/18/16 2:55,35.6,21.2,55.41,320,3,0,30.15,10,32.8
8A0,1/18/16 3:15,33.8,28.4,80.36,300,4,0,30.12,10,29.52
4A6,1/18/16 3:15,35.6,21.2,55.41,280,4,0,30.15,10,31.62
8A0,1/18/16 3:35,33.8,28.4,80.36,300,5,0,30.12,10,28.53
4A6,1/18/16 3:35,35.6,21.2,55.41,310,6,0,30.15,10,29.87
8A0,1/18/16 3:55,33.8,28.4,80.36,300,5,0,30.13,10,28.53
4A6,1/18/16 3:55,35.6,21.2,55.41,30,3,0,30.16,10,32.8
4A6,1/18/16 4:15,32,23,69.04,0,0,0,30.16,10,32
8A0,1/18/16 4:15,33.8,28.4,80.36,300,5,0,30.13,10,28.53
4A6,1/18/16 4:35,32,21.2,63.99,0,0,0,30.16,10,32
8A0,1/18/16 4:35,32,28.4,86.39,310,6,0,30.12,10,25.53
8A0,1/18/16 4:55,32,28.4,86.39,310,6,0,30.12,10,25.53
4A6,1/18/16 4:55,32,21.2,63.99,330,3,0,30.16,10,28.69
8A0,1/18/16 5:15,32,28.4,86.39,310,6,0,30.13,10,25.53
4A6,1/18/16 5:15,32,21.2,63.99,310,3,0,30.16,10,28.69
8A0,1/18/16 5:35,32,28.4,86.39,310,6,0,30.13,10,25.53
4A6,1/18/16 5:35,32,21.2,63.99,330,5,0,30.15,10,26.4
4A6,1/18/16 5:55,32,21.2,63.99,320,4,0,30.15,10,27.42
8A0,1/18/16 5:55,32,28.4,86.39,310,6,0,30.13,10,25.53
4A6,1/18/16 6:15,32,21.2,63.99,340,7,0,30.16,10,24.78
8A0,1/18/16 6:15,32,28.4,86.39,300,4,0,30.13,10,27.42
8A0,1/18/16 6:35,32,28.4,86.39,310,6,0,30.13,10,25.53
4A6,1/18/16 6:35,32,23,69.04,350,9,0,30.17,10,23.51
4A6,1/18/16 6:55,30.2,23,74.26,360,6,0,30.18,10,23.36
8A0,1/18/16 6:55,32,28.4,86.39,300,6,0,30.14,10,25.53
8A0,1/18/16 7:15,32,28.4,86.39,300,5,0,30.14,10,26.4
4A6,1/18/16 7:15,30.2,23,74.26,360,5,0,30.18,10,24.26
8A0,1/18/16 7:35,32,28.4,86.39,300,5,0,30.15,10,26.4
4A6,1/18/16 7:35,30.2,23,74.26,340,5,0,30.19,10,24.26
8A0,1/18/16 7:55,30.2,28.4,92.92,300,4,0,30.15,10,25.32
4A6,1/18/16 7:55,30.2,23,74.26,360,3,0,30.19,10,26.63
4A6,1/18/16 8:15,28.4,19.4,68.61,20,7,0,30.2,10,20.39
8A0,1/18/16 8:15,30.2,28.4,92.92,310,4,0,30.16,10,25.32
4A6,1/18/16 8:35,28.4,19.4,68.61,10,6,0,30.21,10,21.19
8A0,1/18/16 8:35,30.2,28.4,92.92,330,6,0,30.16,10,23.36
4A6,1/18/16 8:55,28.4,19.4,68.61,0,0,0,30.21,10,28.4
8A0,1/18/16 8:55,30.2,28.4,92.92,350,7,0,30.17,10,22.59
8A0,1/18/16 9:15,28.4,28.4,100,340,9,0,30.17,10,19.04
4A6,1/18/16 9:15,28.4,19.4,68.61,360,9,0,30.22,10,19.04
4A6,1/18/16 9:35,28.4,17.6,63.51,360,5,0,30.22,10,22.12
8A0,1/18/16 9:35,30.2,28.4,92.92,330,8,0,30.18,10,21.9
8A0,1/18/16 9:55,30.2,28.4,92.92,330,7,0,30.19,10,22.59
4A6,1/18/16 9:55,28.4,17.6,63.51,340,5,0,30.23,10,22.12
8A0,1/18/16 10:15,30.2,28.4,92.92,350,9,0,30.18,10,21.28
4A6,1/18/16 10:15,26.6,15.8,63.27,360,5,0,30.25,10,19.98
8A0,1/18/16 10:35,30.2,28.4,92.92,350,8,0,30.18,10,21.9
4A6,1/18/16 10:35,26.6,15.8,63.27,360,6,0,30.26,10,19.03
8A0,1/18/16 10:55,28.4,26.6,92.86,350,9,0,30.19,10,19.04
4A6,1/18/16 10:55,24.8,14,63.03,20,8,0,30.26,10,15.24
8A0,1/18/16 11:15,28.4,26.6,92.86,360,10,0,30.19,10,18.45
4A6,1/18/16 11:15,23,10.4,57.96,10,9,0,30.26,10,12.32
8A0,1/18/16 11:35,26.6,23,86.07,350,13,0,30.2,10,14.65
4A6,1/18/16 11:35,23,8.6,53.47,350,7,0,30.28,10,13.81
4A6,1/18/16 11:55,23,8.6,53.47,350,7,0,30.28,10,13.81
8A0,1/18/16 11:55,26.6,21.2,79.77,350,9,0,30.21,10,16.8
8A0,1/18/16 12:15,26.6,19.4,73.89,350,10,0,30.22,10,16.2
4A6,1/18/16 12:15,23,6.8,49.29,350,8,0,30.29,10,13.03
8A0,1/18/16 12:35,24.8,19.4,79.62,340,7,0,30.24,10,16
4A6,1/18/16 12:35,21.2,8.6,57.69,350,5,0,30.3,10,13.57
8A0,1/18/16 12:55,23,17.6,79.47,340,11,0,30.24,10,11.09
4A6,1/18/16 12:55,21.2,8.6,57.69,350,6,0,30.3,10,12.52
4A6,1/18/16 13:15,21.2,8.6,57.69,10,8,0,30.31,10,10.81
8A0,1/18/16 13:15,23,17.6,79.47,330,8,0,30.25,10,13.03
4A6,1/18/16 13:35,21.2,8.6,57.69,360,9,0,30.32,10,10.08
8A0,1/18/16 13:35,23,14,67.96,340,12,0,30.26,10,10.55
8A0,1/18/16 13:55,23,14,67.96,330,10,0,30.27,10,11.68
4A6,1/18/16 13:55,21.2,10.4,62.53,10,8,0,30.33,10,10.81
8A0,1/18/16 14:15,23,14,67.96,350,11,0,30.28,10,11.09
4A6,1/18/16 14:15,21.2,10.4,62.53,360,8,0,30.34,10,10.81
8A0,1/18/16 14:35,23,14,67.96,330,7,0,30.29,10,13.81
4A6,1/18/16 14:35,23,8.6,53.47,350,9,0,30.34,10,12.32
8A0,1/18/16 14:55,24.8,14,63.03,330,6,0,30.3,10,16.86
4A6,1/18/16 14:55,23,6.8,49.29,10,9,0,30.35,10,12.32
4A6,1/18/16 15:15,23,5,45.41,10,11,0,30.36,10,11.09
8A0,1/18/16 15:15,24.8,14,63.03,350,11,0,30.31,10,13.37
8A0,1/18/16 15:35,24.8,12.2,58.22,360,11,0,30.32,10,13.37
4A6,1/18/16 15:35,23,3.2,41.8,10,9,0,30.37,10,12.32
8A0,1/18/16 15:55,24.8,14,63.03,350,12,0,30.32,10,12.84
4A6,1/18/16 15:55,24.8,5,42.11,20,6,0,30.37,10,16.86
8A0,1/18/16 16:15,24.8,14,63.03,350,8,0,30.32,10,15.24
4A6,1/18/16 16:15,24.8,5,42.11,280,4,0,30.38,10,19.01
8A0,1/18/16 16:35,26.6,14,58.49,350,8,0,30.32,10,17.46
4A6,1/18/16 16:35,24.8,3.2,38.77,340,7,0,30.38,10,16
4A6,1/18/16 16:55,26.6,1.4,33.09,330,8,0,30.37,10,17.46
8A0,1/18/16 16:55,26.6,14,58.49,360,9,0,30.32,10,16.8
8A0,1/18/16 17:15,26.6,14,58.49,360,6,0,30.32,10,19.03
4A6,1/18/16 17:15,26.6,5,39.08,360,6,0,30.36,10,19.03
4A6,1/18/16 17:35,28.4,5,36.29,10,7,0,30.36,10,20.39
8A0,1/18/16 17:35,26.6,14,58.49,330,5,0,30.31,10,19.98
4A6,1/18/16 17:55,28.4,3.2,33.41,330,9,0,30.34,10,19.04
8A0,1/18/16 17:55,28.4,14,54.31,290,8,0,30.31,10,19.68
4A6,1/18/16 18:15,28.4,3.2,33.41,340,5,0,30.34,10,22.12
8A0,1/18/16 18:15,28.4,15.8,58.75,310,6,0,30.29,10,21.19
4A6,1/18/16 18:35,30.2,5,33.72,360,10,0,30.32,10,20.71
8A0,1/18/16 18:35,30.2,14,50.47,300,10,0,30.29,10,20.71
8A0,1/18/16 18:55,30.2,12.2,46.62,330,10,0,30.29,10,20.71
4A6,1/18/16 18:55,30.2,5,33.72,330,8,0,30.32,10,21.9
8A0,1/18/16 19:15,30.2,12.2,46.62,330,6,0,30.28,10,23.36
4A6,1/18/16 19:15,32,5,31.35,350,7,0,30.32,10,24.78
4A6,1/18/16 19:35,32,5,31.35,340,8,0,30.31,10,24.11
8A0,1/18/16 19:35,30.2,14,50.47,330,7,0,30.28,10,22.59
4A6,1/18/16 19:55,30.2,5,33.72,340,8,0,30.31,10,21.9
8A0,1/18/16 19:55,32,14,46.92,290,10,0,30.28,10,22.97
4A6,1/18/16 20:15,32,5,31.35,320,3,0,30.31,10,28.69
8A0,1/18/16 20:15,32,14,46.92,310,9,0,30.27,10,23.51
4A6,1/18/16 20:35,32,5,31.35,340,7,0,30.31,10,24.78
4A6,1/18/16 20:55,32,1.4,26.55,320,6,0,30.31,10,25.53
8A0,1/18/16 20:55,32,12.2,43.34,310,11,0,30.28,10,22.47
8A0,1/18/16 21:15,30.2,14,50.47,310,9,0,30.28,10,21.28
4A6,1/18/16 21:15,32,1.4,26.55,320,4,0,30.32,10,27.42
4A6,1/18/16 21:35,30.2,1.4,28.55,270,8,0,30.33,10,21.9
8A0,1/18/16 21:35,30.2,14,50.47,320,9,0,30.29,10,21.28
8A0,1/18/16 21:55,30.2,14,50.47,310,6,0,30.29,10,23.36
4A6,1/18/16 21:55,30.2,3.2,31.04,270,7,0,30.33,10,22.59
8A0,1/18/16 22:15,30.2,14,50.47,290,7,0,30.29,10,22.59
4A6,1/18/16 22:15,30.2,3.2,31.04,300,7,0,30.33,10,22.59
8A0,1/18/16 22:35,30.2,14,50.47,290,9,0,30.29,10,21.28
4A6,1/18/16 22:35,28.4,3.2,33.41,310,6,0,30.33,10,21.19
8A0,1/18/16 22:55,28.4,14,54.31,310,7,0,30.29,10,20.39
4A6,1/18/16 22:55,28.4,5,36.29,290,3,0,30.34,10,24.57
8A0,1/18/16 23:15,28.4,14,54.31,320,5,0,30.29,10,22.12
4A6,1/18/16 23:15,28.4,5,36.29,270,5,0,30.34,10,22.12
4A6,1/18/16 23:35,26.6,5,39.08,290,3,0,30.35,10,22.52
8A0,1/18/16 23:35,28.4,14,54.31,310,6,0,30.3,10,21.19
8A0,1/18/16 23:55,28.4,14,54.31,310,4,0,30.31,10,23.22
4A6,1/18/16 23:55,26.6,5,39.08,300,5,0,30.36,10,19.98
8A0,1/19/16 0:15,26.6,14,58.49,320,3,0,30.32,10,22.52
4A6,1/19/16 0:15,26.6,5,39.08,300,3,0,30.36,10,22.52
4A6,1/19/16 0:35,24.8,6.8,45.71,0,0,0,30.36,10,24.8
8A0,1/19/16 0:35,26.6,14,58.49,320,3,0,30.32,10,22.52
8A0,1/19/16 0:55,26.6,14,58.49,310,4,0,30.32,10,21.11
4A6,1/19/16 0:55,24.8,8.6,49.59,0,0,0,30.36,10,24.8
8A0,1/19/16 1:15,26.6,14,58.49,320,5,0,30.32,10,19.98
4A6,1/19/16 1:15,24.8,10.4,53.75,0,0,0,30.36,10,24.8
8A0,1/19/16 1:35,26.6,14,58.49,330,5,0,30.32,10,19.98
4A6,1/19/16 1:35,23,10.4,57.96,0,0,0,30.37,10,23
4A6,1/19/16 1:55,23,10.4,57.96,0,0,0,30.37,10,23
8A0,1/19/16 1:55,26.6,14,58.49,310,5,0,30.32,10,19.98
4A6,1/19/16 2:15,21.2,10.4,62.53,0,0,0,30.38,10,21.2
8A0,1/19/16 2:15,26.6,14,58.49,320,4,0,30.33,10,21.11
8A0,1/19/16 2:35,24.8,15.8,68.18,310,4,0,30.33,10,19.01
4A6,1/19/16 2:35,21.2,10.4,62.53,0,0,0,30.38,10,21.2
8A0,1/19/16 2:55,24.8,14,63.03,310,5,0,30.33,10,17.84
4A6,1/19/16 2:55,19.4,12.2,73.13,0,0,0,30.39,10,19.4
4A6,1/19/16 3:15,19.4,12.2,73.13,0,0,0,30.39,10,19.4
8A0,1/19/16 3:15,24.8,15.8,68.18,310,5,0,30.34,10,17.84
4A6,1/19/16 3:35,19.4,12.2,73.13,0,0,0,30.4,10,19.4
8A0,1/19/16 3:35,24.8,14,63.03,320,4,0,30.34,10,19.01
8A0,1/19/16 3:55,23,14,67.96,310,5,0,30.35,10,15.71
4A6,1/19/16 3:55,19.4,14,79.16,350,3,0,30.4,10,14.28
8A0,1/19/16 4:15,23,14,67.96,330,4,0,30.35,10,16.91
4A6,1/19/16 4:15,19.4,10.4,67.51,0,0,0,30.4,10,19.4
8A0,1/19/16 4:35,23,14,67.96,310,3,0,30.35,10,18.4
4A6,1/19/16 4:35,19.4,10.4,67.51,0,0,0,30.4,10,19.4
8A0,1/19/16 4:55,23,15.8,73.51,330,5,0,30.35,10,15.71
4A6,1/19/16 4:55,19.4,10.4,67.51,0,0,0,30.41,10,19.4
4A6,1/19/16 5:15,19.4,8.6,62.28,0,0,0,30.4,10,19.4
8A0,1/19/16 5:15,23,14,67.96,340,4,0,30.35,10,16.91
4A6,1/19/16 5:35,19.4,10.4,67.51,0,0,0,30.4,10,19.4
8A0,1/19/16 5:35,23,14,67.96,330,4,0,30.35,10,16.91
4A6,1/19/16 5:55,19.4,10.4,67.51,350,4,0,30.4,10,12.71
8A0,1/19/16 5:55,23,14,67.96,310,4,0,30.36,10,16.91
8A0,1/19/16 6:15,21.2,14,73.32,310,4,0,30.36,10,14.81
4A6,1/19/16 6:15,19.4,8.6,62.28,0,0,0,30.41,10,19.4
4A6,1/19/16 6:35,17.6,8.6,67.28,0,0,0,30.41,10,17.6
8A0,1/19/16 6:35,21.2,14,73.32,310,3,0,30.36,10,16.34
4A6,1/19/16 6:55,17.6,10.4,72.93,0,0,0,30.41,10,17.6
8A0,1/19/16 6:55,21.2,14,73.32,310,4,0,30.36,10,14.81
4A6,1/19/16 7:15,17.6,10.4,72.93,0,0,0,30.42,10,17.6
8A0,1/19/16 7:15,21.2,14,73.32,300,4,0,30.36,10,14.81
8A0,1/19/16 7:35,21.2,14,73.32,310,3,0,30.36,10,16.34
4A6,1/19/16 7:35,17.6,10.4,72.93,0,0,0,30.41,10,17.6
4A6,1/19/16 7:55,17.6,10.4,72.93,0,0,0,30.43,10,17.6
8A0,1/19/16 7:55,19.4,14,79.16,320,4,0,30.36,10,12.71
4A6,1/19/16 8:15,15.8,10.4,78.84,0,0,0,30.43,10,15.8
8A0,1/19/16 8:15,19.4,14,79.16,310,4,0,30.37,10,12.71
4A6,1/19/16 8:35,17.6,8.6,67.28,340,4,0,30.42,10,10.6
8A0,1/19/16 8:35,19.4,14,79.16,340,4,0,30.36,10,12.71
8A0,1/19/16 8:55,19.4,14,79.16,10,5,0,30.35,10,11.43
4A6,1/19/16 8:55,17.6,8.6,67.28,360,5,0,30.42,10,9.29
4A6,1/19/16 9:15,17.6,10.4,72.93,0,0,0,30.42,10,17.6
8A0,1/19/16 9:15,19.4,12.2,73.13,10,4,0,30.35,10,12.71
8A0,1/19/16 9:35,19.4,12.2,73.13,360,3,0,30.36,10,14.28
4A6,1/19/16 9:35,15.8,10.4,78.84,0,0,0,30.41,10,15.8
4A6,1/19/16 9:55,15.8,8.6,72.73,0,0,0,30.41,10,15.8
8A0,1/19/16 9:55,19.4,12.2,73.13,340,5,0,30.36,10,11.43
4A6,1/19/16 10:15,15.8,8.6,72.73,0,0,0,30.42,10,15.8
8A0,1/19/16 10:15,19.4,12.2,73.13,350,3,0,30.36,10,14.28
4A6,1/19/16 10:35,15.8,8.6,72.73,40,3,0,30.42,10,10.17
8A0,1/19/16 10:35,17.6,12.2,79,0,0,0,30.36,10,17.6
8A0,1/19/16 10:55,19.4,12.2,73.13,360,4,0,30.37,10,12.71
4A6,1/19/16 10:55,15.8,10.4,78.84,20,3,0,30.42,10,10.17
8A0,1/19/16 11:15,19.4,12.2,73.13,340,4,0,30.38,10,12.71
4A6,1/19/16 11:15,15.8,8.6,72.73,10,5,0,30.45,10,7.16
4A6,1/19/16 11:35,15.8,8.6,72.73,40,3,0,30.45,10,10.17
8A0,1/19/16 11:35,19.4,12.2,73.13,360,3,0,30.39,10,14.28
8A0,1/19/16 11:55,19.4,12.2,73.13,350,3,0,30.4,10,14.28
4A6,1/19/16 11:55,15.8,8.6,72.73,0,0,0,30.47,10,15.8
8A0,1/19/16 12:15,19.4,12.2,73.13,20,3,0,30.4,10,14.28
4A6,1/19/16 12:15,15.8,8.6,72.73,0,0,0,30.48,10,15.8
4A6,1/19/16 12:35,15.8,8.6,72.73,60,3,0,30.48,10,10.17
8A0,1/19/16 12:35,17.6,14,85.51,10,7,0,30.41,10,7.23
8A0,1/19/16 12:55,17.6,12.2,79,350,6,0,30.42,10,8.19
4A6,1/19/16 12:55,15.8,8.6,72.73,0,0,0,30.49,10,15.8
8A0,1/19/16 13:15,17.6,12.2,79,350,4,0,30.43,10,10.6
4A6,1/19/16 13:15,15.8,8.6,72.73,60,4,0,30.49,10,8.5
4A6,1/19/16 13:35,17.6,8.6,67.28,50,6,0,30.49,10,8.19
8A0,1/19/16 13:35,19.4,14,79.16,350,3,0,30.44,10,14.28
8A0,1/19/16 13:55,19.4,14,79.16,10,6,0,30.44,10,10.36
4A6,1/19/16 13:55,19.4,6.8,57.41,50,6,0,30.5,10,10.36
8A0,1/19/16 14:15,21.2,14,73.32,340,5,0,30.45,10,13.57
4A6,1/19/16 14:15,19.4,6.8,57.41,30,6,0,30.51,10,10.36
8A0,1/19/16 14:35,21.2,14,73.32,10,5,0,30.46,10,13.57
4A6,1/19/16 14:35,19.4,5,52.89,360,6,0,30.52,10,10.36
8A0,1/19/16 14:55,21.2,14,73.32,350,8,0,30.46,10,10.81
4A6,1/19/16 14:55,23,6.8,49.29,10,5,0,30.52,10,15.71
4A6,1/19/16 15:15,23,6.8,49.29,60,6,0,30.53,10,14.69
8A0,1/19/16 15:15,23,14,67.96,360,7,0,30.46,10,13.81
4A6,1/19/16 15:35,23,6.8,49.29,40,6,0,30.53,10,14.69
8A0,1/19/16 15:35,23,14,67.96,20,8,0,30.47,10,13.03
8A0,1/19/16 15:55,24.8,14,63.03,360,6,0,30.48,10,16.86
4A6,1/19/16 15:55,24.8,6.8,45.71,50,4,0,30.53,10,19.01
8A0,1/19/16 16:15,24.8,14,63.03,360,5,0,30.47,10,17.84
4A6,1/19/16 16:15,24.8,5,42.11,40,5,0,30.53,10,17.84
4A6,1/19/16 16:35,24.8,5,42.11,330,3,0,30.52,10,20.46
8A0,1/19/16 16:35,26.6,14,58.49,350,7,0,30.47,10,18.2
4A6,1/19/16 16:55,26.6,6.8,42.42,0,0,0,30.52,10,26.6
8A0,1/19/16 16:55,26.6,14,58.49,0,0,0,30.46,10,26.6
8A0,1/19/16 17:15,30.2,17.6,59.01,40,6,0,30.45,10,23.36
4A6,1/19/16 17:15,28.4,6.8,39.39,0,0,0,30.5,10,28.4
4A6,1/19/16 17:35,28.4,6.8,39.39,0,0,0,30.49,10,28.4
8A0,1/19/16 17:35,30.2,17.6,59.01,20,5,0,30.43,10,24.26
8A0,1/19/16 17:55,30.2,15.8,54.59,30,5,0,30.42,10,24.26
4A6,1/19/16 17:55,28.4,6.8,39.39,0,0,0,30.48,10,28.4
8A0,1/19/16 18:15,32,17.6,54.87,50,4,0,30.41,10,27.42
4A6,1/19/16 18:15,30.2,6.8,36.6,0,0,0,30.47,10,30.2
4A6,1/19/16 18:35,32,6.8,34.03,0,0,0,30.45,10,32
8A0,1/19/16 18:35,32,17.6,54.87,10,5,0,30.41,10,26.4
4A6,1/19/16 18:55,32,6.8,34.03,120,5,0,30.45,10,26.4
8A0,1/19/16 18:55,32,17.6,54.87,350,4,0,30.41,10,27.42
8A0,1/19/16 19:15,32,17.6,54.87,0,0,0,30.39,10,32
4A6,1/19/16 19:15,32,6.8,34.03,30,4,0,30.43,10,27.42
8A0,1/19/16 19:35,32,17.6,54.87,320,3,0,30.39,10,28.69
4A6,1/19/16 19:35,32,6.8,34.03,0,0,0,30.42,10,32
8A0,1/19/16 19:55,33.8,15.8,47.22,320,5,0,30.39,10,28.53
4A6,1/19/16 19:55,32,6.8,34.03,70,4,0,30.42,10,27.42
8A0,1/19/16 20:15,33.8,15.8,47.22,10,3,0,30.38,10,30.75
4A6,1/19/16 20:15,32,6.8,34.03,0,0,0,30.42,10,32
4A6,1/19/16 20:35,33.8,8.6,34.34,80,4,0,30.42,10,29.52
8A0,1/19/16 20:35,33.8,19.4,55.14,350,6,0,30.37,10,27.7
4A6,1/19/16 20:55,33.8,8.6,34.34,110,3,0,30.41,10,30.75
8A0,1/19/16 20:55,33.8,17.6,51.04,10,4,0,30.37,10,29.52
4A6,1/19/16 21:15,33.8,8.6,34.34,200,6,0,30.41,10,27.7
8A0,1/19/16 21:15,32,17.6,54.87,360,3,0,30.37,10,28.69
4A6,1/19/16 21:35,33.8,8.6,34.34,0,0,0,30.41,10,33.8
8A0,1/19/16 21:35,33.8,17.6,51.04,0,0,0,30.37,10,33.8
8A0,1/19/16 21:55,33.8,17.6,51.04,0,0,0,30.37,10,33.8
4A6,1/19/16 21:55,33.8,8.6,34.34,0,0,0,30.41,10,33.8
8A0,1/19/16 22:15,33.8,17.6,51.04,360,3,0,30.37,10,30.75
4A6,1/19/16 22:15,33.8,8.6,34.34,170,3,0,30.4,10,30.75
8A0,1/19/16 22:35,33.8,17.6,51.04,0,0,0,30.37,10,33.8
4A6,1/19/16 22:35,33.8,6.8,31.66,0,0,0,30.42,10,33.8
4A6,1/19/16 22:55,33.8,8.6,34.34,0,0,0,30.42,10,33.8
8A0,1/19/16 22:55,33.8,17.6,51.04,340,3,0,30.37,10,30.75
8A0,1/19/16 23:15,32,19.4,59.27,0,0,0,30.37,10,32
4A6,1/19/16 23:15,33.8,8.6,34.34,0,0,0,30.41,10,33.8
4A6,1/19/16 23:35,33.8,10.4,37.22,0,0,0,30.42,10,33.8
8A0,1/19/16 23:35,32,19.4,59.27,0,0,0,30.37,10,32
8A0,1/19/16 23:55,32,19.4,59.27,0,0,0,30.37,10,32
4A6,1/19/16 23:55,33.8,8.6,34.34,80,3,0,30.41,10,30.75
4A6,1/20/16 0:15,33.8,10.4,37.22,0,0,0,30.41,10,33.8
8A0,1/20/16 0:15,32,19.4,59.27,290,3,0,30.38,10,28.69
4A6,1/20/16 0:35,32,12.2,43.34,0,0,0,30.41,10,32
8A0,1/20/16 0:35,32,19.4,59.27,0,0,0,30.37,10,32
4A6,1/20/16 0:55,32,10.4,40.01,0,0,0,30.41,10,32
8A0,1/20/16 0:55,32,19.4,59.27,0,0,0,30.37,10,32
8A0,1/20/16 1:15,32,21.2,63.99,0,0,0,30.37,10,32
4A6,1/20/16 1:15,32,12.2,43.34,0,0,0,30.41,10,32
8A0,1/20/16 1:35,32,21.2,63.99,0,0,0,30.37,10,32
4A6,1/20/16 1:35,32,12.2,43.34,0,0,0,30.41,10,32
8A0,1/20/16 1:55,32,21.2,63.99,0,0,0,30.37,10,32
4A6,1/20/16 1:55,32,14,46.92,0,0,0,30.42,10,32
4A6,1/20/16 2:15,32,12.2,43.34,0,0,0,30.41,10,32
8A0,1/20/16 2:15,32,23,69.04,0,0,0,30.37,10,32
4A6,1/20/16 2:35,32,14,46.92,70,3,0,30.41,10,28.69
8A0,1/20/16 2:35,32,23,69.04,0,0,0,30.36,10,32
4A6,1/20/16 2:55,32,14,46.92,80,3,0,30.4,10,28.69
8A0,1/20/16 2:55,32,23,69.04,0,0,0,30.36,10,32
8A0,1/20/16 3:15,32,23,69.04,0,0,0,30.36,10,32
4A6,1/20/16 3:15,32,14,46.92,80,3,0,30.39,10,28.69
8A0,1/20/16 3:35,32,23,69.04,0,0,0,30.35,10,32
4A6,1/20/16 3:35,32,14,46.92,0,0,0,30.39,10,32
8A0,1/20/16 3:55,32,21.2,63.99,100,3,0,30.34,10,28.69
4A6,1/20/16 3:55,32,15.8,50.75,0,0,0,30.39,10,32
8A0,1/20/16 4:15,32,21.2,63.99,120,4,0,30.34,10,27.42
4A6,1/20/16 4:15,32,15.8,50.75,0,0,0,30.38,10,32
4A6,1/20/16 4:35,32,17.6,54.87,0,0,0,30.37,10,32
8A0,1/20/16 4:35,32,21.2,63.99,120,5,0,30.32,10,26.4
4A6,1/20/16 4:55,30.2,17.6,59.01,0,0,0,30.36,10,30.2
8A0,1/20/16 4:55,32,21.2,63.99,110,6,0,30.31,10,25.53
4A6,1/20/16 5:15,30.2,17.6,59.01,0,0,0,30.34,10,30.2
8A0,1/20/16 5:15,32,21.2,63.99,130,5,0,30.3,10,26.4
4A6,1/20/16 5:35,30.2,17.6,59.01,0,0,0,30.34,10,30.2
8A0,1/20/16 5:35,32,21.2,63.99,130,5,0,30.29,10,26.4
8A0,1/20/16 5:55,32,21.2,63.99,140,4,0,30.29,10,27.42
4A6,1/20/16 5:55,30.2,17.6,59.01,0,0,0,30.34,10,30.2
8A0,1/20/16 6:15,32,21.2,63.99,140,4,0,30.28,10,27.42
4A6,1/20/16 6:15,30.2,19.4,63.75,20,3,0,30.32,10,26.63
8A0,1/20/16 6:35,32,21.2,63.99,140,5,0,30.28,10,26.4
4A6,1/20/16 6:35,30.2,19.4,63.75,0,0,0,30.33,10,30.2
8A0,1/20/16 6:55,32,21.2,63.99,130,3,0,30.28,10,28.69
4A6,1/20/16 6:55,30.2,19.4,63.75,0,0,0,30.32,10,30.2
4A6,1/20/16 7:15,30.2,19.4,63.75,0,0,0,30.32,10,30.2
8A0,1/20/16 7:15,32,21.2,63.99,0,0,0,30.28,10,32
8A0,1/20/16 7:35,32,21.2,63.99,140,3,0,30.28,10,28.69
4A6,1/20/16 7:35,32,17.6,54.87,0,0,0,30.32,10,32
8A0,1/20/16 7:55,32,21.2,63.99,120,4,0,30.26,10,27.42
4A6,1/20/16 7:55,32,19.4,59.27,0,0,0,30.32,10,32
4A6,1/20/16 8:15,32,19.4,59.27,0,0,0,30.31,10,32
8A0,1/20/16 8:15,32,21.2,63.99,140,4,0,30.26,10,27.42
4A6,1/20/16 8:35,32,17.6,54.87,0,0,0,30.29,10,32
8A0,1/20/16 8:35,32,21.2,63.99,130,4,0,30.26,10,27.42
4A6,1/20/16 8:55,32,17.6,54.87,0,0,0,30.31,10,32
8A0,1/20/16 8:55,32,21.2,63.99,150,5,0,30.27,10,26.4
8A0,1/20/16 9:15,32,21.2,63.99,140,5,0,30.26,10,26.4
4A6,1/20/16 9:15,32,17.6,54.87,0,0,0,30.3,10,32
4A6,1/20/16 9:35,32,19.4,59.27,0,0,0,30.3,10,32
8A0,1/20/16 9:35,32,21.2,63.99,140,6,0,30.24,10,25.53
4A6,1/20/16 9:55,32,17.6,54.87,0,0,0,30.29,10,32
8A0,1/20/16 9:55,32,21.2,63.99,130,4,0,30.24,10,27.42
8A0,1/20/16 10:15,32,21.2,63.99,130,7,0,30.22,10,24.78
4A6,1/20/16 10:15,32,19.4,59.27,30,3,0,30.27,10,28.69
8A0,1/20/16 10:35,32,21.2,63.99,140,6,0,30.2,10,25.53
4A6,1/20/16 10:35,32,17.6,54.87,360,3,0,30.26,10,28.69
4A6,1/20/16 10:55,32,19.4,59.27,0,0,0,30.25,10,32
8A0,1/20/16 10:55,32,21.2,63.99,140,4,0,30.21,10,27.42
8A0,1/20/16 11:15,33.8,21.2,59.53,150,6,0,30.2,10,27.7
4A6,1/20/16 11:15,32,19.4,59.27,0,0,0,30.26,10,32
8A0,1/20/16 11:35,33.8,21.2,59.53,140,6,0,30.19,10,27.7
4A6,1/20/16 11:35,32,17.6,54.87,0,0,0,30.25,10,32
8A0,1/20/16 11:55,33.8,21.2,59.53,140,5,0,30.19,10,28.53
4A6,1/20/16 11:55,32,19.4,59.27,40,3,0,30.25,10,28.69
4A6,1/20/16 12:15,32,19.4,59.27,0,0,0,30.25,10,32
8A0,1/20/16 12:15,33.8,21.2,59.53,130,3,0,30.2,10,30.75
4A6,1/20/16 12:35,32,19.4,59.27,0,0,0,30.25,10,32
8A0,1/20/16 12:35,33.8,21.2,59.53,150,7,0,30.2,10,26.97
8A0,1/20/16 12:55,33.8,21.2,59.53,140,7,0,30.2,10,26.97
4A6,1/20/16 12:55,32,19.4,59.27,0,0,0,30.25,10,32
4A6,1/20/16 13:15,32,19.4,59.27,0,0,0,30.24,10,32
8A0,1/20/16 13:15,32,21.2,63.99,150,5,0,30.2,10,26.4
4A6,1/20/16 13:35,32,19.4,59.27,0,0,0,30.23,10,32
8A0,1/20/16 13:35,33.8,21.2,59.53,150,6,0,30.19,10,27.7
4A6,1/20/16 13:55,32,19.4,59.27,0,0,0,30.23,10,32
8A0,1/20/16 13:55,33.8,23,64.23,130,7,0,30.19,10,26.97
8A0,1/20/16 14:15,33.8,23,64.23,150,5,0,30.18,10,28.53
4A6,1/20/16 14:15,32,19.4,59.27,0,0,0,30.22,10,32
4A6,1/20/16 14:35,32,19.4,59.27,350,4,0,30.22,10,27.42
8A0,1/20/16 14:35,35.6,24.8,64.46,150,8,0,30.18,10,28.55
4A6,1/20/16 14:55,32,24.8,74.44,320,4,0,30.25,2.5,27.42
8A0,1/20/16 14:55,35.6,26.6,69.46,160,6,0,30.18,10,29.87
4A6,1/20/16 15:15,32,26.6,80.22,0,0,0,30.25,2,32
8A0,1/20/16 15:15,35.6,28.4,74.8,170,11,0,30.18,7,27.02
4A6,1/20/16 15:35,32,28.4,86.39,0,0,0,30.25,3,32
8A0,1/20/16 15:35,33.8,32,93.03,270,4,0.03,30.23,1.5,29.52
8A0,1/20/16 15:55,32,32,100,130,4,0.07,30.21,1.75,27.42
4A6,1/20/16 15:55,32,28.4,86.39,0,0,0.03,30.25,3,32
8A0,1/20/16 16:15,32,32,100,140,4,0.01,30.19,2.5,27.42
4A6,1/20/16 16:15,32,32,100,60,3,0.01,30.24,7,28.69
8A0,1/20/16 16:35,32,32,100,140,5,0.02,30.19,5,26.4
4A6,1/20/16 16:35,32,32,100,0,0,0.03,30.23,4,32
8A0,1/20/16 16:55,32,32,100,140,5,0.03,30.18,7,26.4
4A6,1/20/16 16:55,32,32,100,0,0,0.03,30.22,2.5,32
8A0,1/20/16 17:15,33.8,33.8,100,0,0,0,30.17,4,33.8
4A6,1/20/16 17:15,32,32,100,340,3,0,30.21,8,28.69
8A0,1/20/16 17:35,33.8,33.8,100,160,4,0,30.17,7,29.52
4A6,1/20/16 17:35,32,32,100,0,0,0.01,30.21,3,32
4A6,1/20/16 17:55,32,32,100,340,3,0.01,30.2,8,28.69
8A0,1/20/16 17:55,33.8,33.8,100,160,5,0.01,30.16,4,28.53
8A0,1/20/16 18:15,33.8,33.8,100,160,5,0,30.14,10,28.53
4A6,1/20/16 18:15,32,32,100,0,0,0.01,30.2,2.5,32
4A6,1/20/16 18:35,32,32,100,20,4,0.01,30.2,1.75,27.42
8A0,1/20/16 18:35,33.8,33.8,100,160,7,0,30.14,5,26.97
8A0,1/20/16 18:55,33.8,33.8,100,0,0,0,30.14,3,33.8
4A6,1/20/16 18:55,32,32,100,30,3,0.01,30.2,3,28.69
8A0,1/20/16 19:15,33.8,33.8,100,0,0,0,30.14,5,33.8
4A6,1/20/16 19:15,32,32,100,30,3,0,30.19,1.75,28.69
8A0,1/20/16 19:35,33.8,33.8,100,0,0,0,30.14,2.5,33.8
4A6,1/20/16 19:35,33.8,33.8,100,0,0,0,30.18,2,33.8
8A0,1/20/16 19:55,33.8,33.8,100,0,0,0.01,30.13,4,33.8
4A6,1/20/16 19:55,33.8,33.8,100,0,0,0,30.18,2.5,33.8
8A0,1/20/16 20:15,33.8,33.8,100,0,0,0,30.13,1.75,33.8
4A6,1/20/16 20:15,32,32,100,80,3,0,30.18,1.25,28.69
8A0,1/20/16 20:35,33.8,33.8,100,90,4,0,30.12,2.5,29.52
4A6,1/20/16 20:35,32,32,100,80,3,0,30.17,0.75,28.69
4A6,1/20/16 20:55,33.8,33.8,100,0,0,0,30.17,1.5,33.8
8A0,1/20/16 20:55,33.8,33.8,100,0,0,0,30.12,2,33.8
4A6,1/20/16 21:15,33.8,33.8,100,0,0,0,30.16,1,33.8
8A0,1/20/16 21:15,35.6,35.6,100,0,0,0,30.13,1.5,35.6
8A0,1/20/16 21:35,35.6,35.6,100,90,4,0,30.13,1.25,31.62
4A6,1/20/16 21:35,33.8,33.8,100,0,0,0,30.17,1.5,33.8
4A6,1/20/16 21:55,33.8,33.8,100,0,0,0,30.17,1,33.8
8A0,1/20/16 21:55,35.6,35.6,100,0,0,0,30.14,1.25,35.6
8A0,1/20/16 22:15,35.6,35.6,100,0,0,0.01,30.13,1,35.6
4A6,1/20/16 22:15,33.8,33.8,100,0,0,0,30.17,0.75,33.8
4A6,1/20/16 22:35,33.8,33.8,100,0,0,0.01,30.18,1.75,33.8
8A0,1/20/16 22:35,35.6,35.6,100,90,3,0.01,30.14,1.5,32.8
8A0,1/20/16 22:55,35.6,35.6,100,110,3,0.01,30.14,1.75,32.8
4A6,1/20/16 22:55,35.6,35.6,100,0,0,0.01,30.18,1.5,35.6
4A6,1/20/16 23:15,35.6,35.6,100,0,0,0,30.18,1.25,35.6
8A0,1/20/16 23:15,35.6,35.6,100,110,3,0,30.14,2,32.8
4A6,1/20/16 23:35,33.8,33.8,100,20,3,0,30.19,1.5,30.75
8A0,1/20/16 23:35,35.6,35.6,100,90,5,0,30.13,2,30.67
4A6,1/20/16 23:55,35.6,35.6,100,20,3,0,30.18,1.5,32.8
8A0,1/20/16 23:55,35.6,35.6,100,90,3,0,30.14,2.5,32.8
8A0,1/21/16 0:15,35.6,35.6,100,0,0,0,30.15,2.5,35.6
4A6,1/21/16 0:15,35.6,35.6,100,10,3,0,30.19,1.5,32.8
4A6,1/21/16 0:35,35.6,35.6,100,20,4,0,30.19,1.25,31.62
8A0,1/21/16 0:35,35.6,35.6,100,130,3,0,30.15,2.5,32.8
8A0,1/21/16 0:55,35.6,35.6,100,0,0,0,30.16,2.5,35.6
4A6,1/21/16 0:55,35.6,35.6,100,0,0,0,30.21,1,35.6
8A0,1/21/16 1:15,35.6,35.6,100,100,3,0,30.15,2.5,32.8
4A6,1/21/16 1:15,35.6,35.6,100,0,0,0,30.21,0.75,35.6
4A6,1/21/16 1:35,35.6,35.6,100,60,4,0,30.2,0.75,31.62
8A0,1/21/16 1:35,35.6,35.6,100,80,3,0,30.15,2.5,32.8
4A6,1/21/16 1:55,35.6,35.6,100,60,3,0,30.2,0.75,32.8
8A0,1/21/16 1:55,35.6,35.6,100,0,0,0,30.15,2.5,35.6
4A6,1/21/16 2:15,35.6,35.6,100,40,5,0,30.2,1,30.67
8A0,1/21/16 2:15,35.6,35.6,100,80,3,0,30.15,2.5,32.8
8A0,1/21/16 2:35,35.6,35.6,100,0,0,0,30.16,2.5,35.6
4A6,1/21/16 2:35,35.6,35.6,100,50,4,0,30.2,1.5,31.62
4A6,1/21/16 2:55,35.6,35.6,100,50,3,0,30.21,1.5,32.8
8A0,1/21/16 2:55,35.6,35.6,100,90,5,0,30.16,2,30.67
4A6,1/21/16 3:15,35.6,35.6,100,50,5,0,30.2,2,30.67
8A0,1/21/16 3:15,35.6,35.6,100,80,4,0,30.16,1.75,31.62
4A6,1/21/16 3:35,35.6,35.6,100,40,4,0,30.21,2,31.62
8A0,1/21/16 3:35,35.6,35.6,100,70,3,0,30.16,1.25,32.8
8A0,1/21/16 3:55,35.6,35.6,100,0,0,0,30.16,1.25,35.6
4A6,1/21/16 3:55,35.6,35.6,100,20,4,0,30.22,2,31.62
4A6,1/21/16 4:15,35.6,35.6,100,40,6,0,30.21,2,29.87
8A0,1/21/16 4:15,35.6,35.6,100,0,0,0,30.17,1.5,35.6
4A6,1/21/16 4:35,35.6,35.6,100,40,4,0,30.21,2,31.62
8A0,1/21/16 4:35,35.6,35.6,100,0,0,0,30.17,1.5,35.6
4A6,1/21/16 4:55,35.6,35.6,100,30,4,0,30.21,1.5,31.62
8A0,1/21/16 4:55,35.6,35.6,100,0,0,0,30.17,1,35.6
8A0,1/21/16 5:15,35.6,35.6,100,0,0,0,30.17,0.75,35.6
4A6,1/21/16 5:15,35.6,35.6,100,30,5,0,30.22,1.25,30.67
4A6,1/21/16 5:35,35.6,35.6,100,30,4,0,30.21,1,31.62
8A0,1/21/16 5:35,35.6,35.6,100,90,3,0,30.17,0.75,32.8
4A6,1/21/16 5:55,35.6,35.6,100,0,0,0,30.21,0.75,35.6
8A0,1/21/16 5:55,35.6,35.6,100,0,0,0,30.17,0.75,35.6
8A0,1/21/16 6:15,35.6,35.6,100,40,4,0,30.16,0.75,31.62
4A6,1/21/16 6:15,35.6,35.6,100,0,0,0,30.21,0.75,35.6
8A0,1/21/16 6:35,35.6,35.6,100,50,4,0,30.15,0.75,31.62
4A6,1/21/16 6:35,35.6,35.6,100,50,4,0,30.21,1.25,31.62
8A0,1/21/16 6:55,35.6,35.6,100,0,0,0,30.15,0.75,35.6
4A6,1/21/16 6:55,35.6,35.6,100,50,5,0,30.2,1,30.67
4A6,1/21/16 7:15,35.6,35.6,100,50,5,0,30.2,1.25,30.67
8A0,1/21/16 7:15,35.6,35.6,100,0,0,0,30.16,0.75,35.6
8A0,1/21/16 7:35,35.6,35.6,100,70,3,0,30.15,0.75,32.8
4A6,1/21/16 7:35,35.6,35.6,100,50,7,0,30.19,1.25,29.17
8A0,1/21/16 7:55,35.6,35.6,100,80,4,0,30.15,0.75,31.62
4A6,1/21/16 7:55,35.6,35.6,100,50,7,0,30.2,1.75,29.17
8A0,1/21/16 8:15,35.6,35.6,100,90,3,0,30.14,1.25,32.8
4A6,1/21/16 8:15,35.6,35.6,100,50,7,0,30.2,2.5,29.17
8A0,1/21/16 8:35,35.6,35.6,100,60,3,0,30.14,1.5,32.8
4A6,1/21/16 8:35,35.6,35.6,100,50,6,0,30.2,1.75,29.87
8A0,1/21/16 8:55,35.6,35.6,100,70,3,0,30.14,1.5,32.8
4A6,1/21/16 8:55,35.6,35.6,100,50,7,0,30.19,3,29.17
8A0,1/21/16 9:15,35.6,35.6,100,70,4,0,30.13,1.75,31.62
4A6,1/21/16 9:15,35.6,35.6,100,40,8,0,30.18,3,28.55
4A6,1/21/16 9:35,35.6,35.6,100,30,6,0,30.18,3,29.87
8A0,1/21/16 9:35,35.6,35.6,100,60,3,0,30.13,1.75,32.8
8A0,1/21/16 9:55,35.6,35.6,100,70,3,0,30.13,1.75,32.8
4A6,1/21/16 9:55,35.6,35.6,100,40,7,0,30.18,4,29.17
4A6,1/21/16 10:15,35.6,35.6,100,40,5,0,30.18,3,30.67
8A0,1/21/16 10:15,35.6,35.6,100,70,3,0,30.13,1.75,32.8
4A6,1/21/16 10:35,35.6,35.6,100,30,4,0,30.18,4,31.62
8A0,1/21/16 10:35,35.6,35.6,100,0,0,0,30.14,2,35.6
8A0,1/21/16 10:55,35.6,35.6,100,90,3,0,30.14,2.5,32.8
4A6,1/21/16 10:55,35.6,35.6,100,40,7,0,30.18,4,29.17
8A0,1/21/16 11:15,35.6,35.6,100,90,5,0,30.13,2,30.67
4A6,1/21/16 11:15,35.6,35.6,100,40,7,0,30.18,5,29.17
8A0,1/21/16 11:35,35.6,35.6,100,90,5,0,30.13,2,30.67
4A6,1/21/16 11:35,35.6,35.6,100,50,6,0,30.19,5,29.87
4A6,1/21/16 11:55,35.6,35.6,100,50,7,0,30.19,6,29.17
8A0,1/21/16 11:55,35.6,35.6,100,90,4,0,30.12,2,31.62
4A6,1/21/16 12:15,35.6,35.6,100,50,6,0,30.18,6,29.87
8A0,1/21/16 12:15,35.6,35.6,100,80,5,0,30.13,2.5,30.67
4A6,1/21/16 12:35,35.6,35.6,100,40,5,0,30.19,7,30.67
8A0,1/21/16 12:35,35.6,35.6,100,50,3,0,30.14,2.5,32.8
8A0,1/21/16 12:55,35.6,35.6,100,80,3,0,30.15,1.75,32.8
4A6,1/21/16 12:55,35.6,35.6,100,50,7,0,30.2,7,29.17
4A6,1/21/16 13:15,35.6,35.6,100,50,6,0,30.2,8,29.87
8A0,1/21/16 13:15,35.6,35.6,100,100,5,0,30.15,1.5,30.67
8A0,1/21/16 13:35,35.6,35.6,100,80,3,0,30.15,0.75,32.8
4A6,1/21/16 13:35,35.6,35.6,100,50,4,0,30.2,9,31.62
8A0,1/21/16 13:55,35.6,35.6,100,80,4,0,30.14,1,31.62
4A6,1/21/16 13:55,35.6,35.6,100,40,6,0,30.2,8,29.87
8A0,1/21/16 14:15,37.4,37.4,100,90,5,0,30.15,1.25,32.81
4A6,1/21/16 14:15,37.4,37.4,100,40,7,0,30.2,9,31.36
8A0,1/21/16 14:35,37.4,37.4,100,80,7,0,30.16,1.5,31.36
4A6,1/21/16 14:35,37.4,37.4,100,30,5,0,30.21,5,32.81
8A0,1/21/16 14:55,37.4,37.4,100,80,5,0,30.17,1.75,32.81
4A6,1/21/16 14:55,37.4,37.4,100,50,6,0,30.21,4,32.03
4A6,1/21/16 15:15,37.4,37.4,100,40,7,0,30.22,5,31.36
8A0,1/21/16 15:15,37.4,37.4,100,100,5,0,30.17,2,32.81
4A6,1/21/16 15:35,37.4,37.4,100,40,6,0,30.22,7,32.03
8A0,1/21/16 15:35,37.4,37.4,100,80,7,0,30.16,2,31.36
8A0,1/21/16 15:55,37.4,37.4,100,80,7,0,30.17,2.5,31.36
4A6,1/21/16 15:55,37.4,37.4,100,50,7,0,30.22,9,31.36
4A6,1/21/16 16:15,37.4,37.4,100,40,9,0,30.21,9,30.23
8A0,1/21/16 16:15,37.4,37.4,100,100,5,0,30.16,4,32.81
4A6,1/21/16 16:35,37.4,37.4,100,40,6,0,30.21,9,32.03
8A0,1/21/16 16:35,37.4,37.4,100,100,9,0,30.16,4,30.23
8A0,1/21/16 16:55,39.2,39.2,100,80,7,0,30.15,4,33.56
4A6,1/21/16 16:55,37.4,37.4,100,30,6,0,30.2,8,32.03
4A6,1/21/16 17:15,37.4,37.4,100,40,8,0,30.19,5,30.76
8A0,1/21/16 17:15,39.2,39.2,100,90,6,0,30.14,4,34.2
4A6,1/21/16 17:35,39.2,39.2,100,40,7,0,30.19,5,33.56
8A0,1/21/16 17:35,39.2,39.2,100,100,8,0,30.13,4,32.98
4A6,1/21/16 17:55,39.2,39.2,100,50,7,0,30.16,5,33.56
8A0,1/21/16 17:55,39.2,39.2,100,90,7,0,30.12,4,33.56
8A0,1/21/16 18:15,41,41,100,90,8,0,30.09,4,35.2
4A6,1/21/16 18:15,39.2,39.2,100,40,9,0,30.15,6,32.47
4A6,1/21/16 18:35,39.2,39.2,100,40,9,0,30.14,8,32.47
8A0,1/21/16 18:35,41,41,100,90,7,0,30.08,4,35.75
4A6,1/21/16 18:55,39.2,39.2,100,40,6,0,30.13,9,34.2
8A0,1/21/16 18:55,41,41,100,100,5,0,30.06,4,37.08
4A6,1/21/16 19:15,39.2,39.2,100,50,10,0,30.1,9,32
8A0,1/21/16 19:15,42.8,42.8,100,100,6,0,30.05,4,38.54
4A6,1/21/16 19:35,39.2,37.4,93.19,30,6,0,30.11,9,34.2
8A0,1/21/16 19:35,42.8,42.8,100,70,4,0,30.04,4,40.03
8A0,1/21/16 19:55,41,41,100,100,5,0,30.04,4,37.08
4A6,1/21/16 19:55,39.2,37.4,93.19,40,8,0,30.1,9,32.98
4A6,1/21/16 20:15,39.2,37.4,93.19,40,8,0,30.09,9,32.98
8A0,1/21/16 20:15,41,41,100,90,6,0,30.03,4,36.37
8A0,1/21/16 20:35,41,41,100,80,6,0,30.03,3,36.37
4A6,1/21/16 20:35,39.2,37.4,93.19,40,8,0,30.09,9,32.98
8A0,1/21/16 20:55,41,41,100,70,4,0,30.02,3,37.93
4A6,1/21/16 20:55,39.2,37.4,93.19,40,8,0,30.08,10,32.98
4A6,1/21/16 21:15,39.2,37.4,93.19,40,10,0,30.08,10,32
8A0,1/21/16 21:15,41,41,100,80,7,0,30.01,2.5,35.75
4A6,1/21/16 21:35,39.2,37.4,93.19,50,10,0,30.06,9,32
8A0,1/21/16 21:35,41,41,100,90,8,0,30.01,2.5,35.2
8A0,1/21/16 21:55,41,41,100,90,8,0.01,30,2,35.2
4A6,1/21/16 21:55,39.2,37.4,93.19,40,9,0,30.06,9,32.47
8A0,1/21/16 22:15,39.2,39.2,100,90,7,0,30,1.75,33.56
4A6,1/21/16 22:15,39.2,37.4,93.19,40,9,0,30.06,7,32.47
8A0,1/21/16 22:35,39.2,39.2,100,90,6,0,30,2.5,34.2
4A6,1/21/16 22:35,39.2,37.4,93.19,40,9,0,30.06,9,32.47
8A0,1/21/16 22:55,39.2,39.2,100,90,7,0,29.99,2.5,33.56
4A6,1/21/16 22:55,37.4,37.4,100,40,9,0,30.06,6,30.23
8A0,1/21/16 23:15,41,41,100,90,12,0,29.99,2.5,33.46
4A6,1/21/16 23:15,37.4,37.4,100,30,7,0.01,30.06,2.5,31.36
8A0,1/21/16 23:35,39.2,39.2,100,80,4,0,29.99,2.5,35.83
4A6,1/21/16 23:35,37.4,37.4,100,40,7,0.01,30.05,5,31.36
4A6,1/21/16 23:55,37.4,37.4,100,40,8,0.01,30.04,5,30.76
8A0,1/21/16 23:55,41,41,100,100,10,0,29.98,2.5,34.25
4A6,1/22/16 0:15,37.4,37.4,100,40,8,0,30.04,5,30.76
8A0,1/22/16 0:15,41,41,100,90,9,0,29.97,2,34.7
8A0,1/22/16 0:35,41,41,100,90,9,0,29.96,4,34.7
4A6,1/22/16 0:35,37.4,37.4,100,30,8,0,30.04,5,30.76
4A6,1/22/16 0:55,37.4,37.4,100,30,8,0,30.03,5,30.76
8A0,1/22/16 0:55,41,41,100,90,13,0,29.94,4,33.1
4A6,1/22/16 1:15,37.4,37.4,100,30,9,0,30.02,5,30.23
8A0,1/22/16 1:15,41,41,100,90,10,0,29.93,4,34.25
4A6,1/22/16 1:35,37.4,37.4,100,40,11,0,30,5,29.29
8A0,1/22/16 1:35,41,41,100,100,13,0,29.93,4,33.1
4A6,1/22/16 1:55,37.4,37.4,100,40,10,0.01,30,2.5,29.74
8A0,1/22/16 1:55,41,41,100,100,13,0.01,29.92,4,33.1
4A6,1/22/16 2:15,37.4,37.4,100,30,8,0.01,29.99,4,30.76
8A0,1/22/16 2:15,42.8,42.8,100,100,13,0.02,29.91,4,35.4
4A6,1/22/16 2:35,37.4,37.4,100,40,8,0.04,29.98,3,30.76
8A0,1/22/16 2:35,42.8,42.8,100,100,9,0.07,29.9,3,36.94
8A0,1/22/16 2:55,42.8,42.8,100,90,11,0.14,29.9,3,36.11
4A6,1/22/16 2:55,37.4,37.4,100,40,9,0.05,29.97,3,30.23
8A0,1/22/16 3:15,42.8,42.8,100,90,13,0.03,29.88,5,35.4
4A6,1/22/16 3:15,37.4,37.4,100,40,6,0.01,29.97,3,32.03
8A0,1/22/16 3:35,42.8,42.8,100,90,13,0.07,29.88,5,35.4
4A6,1/22/16 3:35,37.4,37.4,100,40,11,0.08,29.95,2.5,29.29
4A6,1/22/16 3:55,37.4,37.4,100,30,8,0.13,29.96,3,30.76
8A0,1/22/16 3:55,42.8,42.8,100,90,10,0.14,29.86,3,36.51
8A0,1/22/16 4:15,42.8,42.8,100,90,11,0.03,29.85,5,36.11
4A6,1/22/16 4:15,37.4,37.4,100,20,6,0.03,29.95,3,32.03
4A6,1/22/16 4:35,37.4,37.4,100,40,5,0.08,29.93,2.5,32.81
8A0,1/22/16 4:35,42.8,42.8,100,100,10,0.04,29.83,10,36.51
8A0,1/22/16 4:55,42.8,42.8,100,90,10,0.04,29.81,7,36.51
4A6,1/22/16 4:55,37.4,37.4,100,40,10,0.14,29.9,3,29.74
4A6,1/22/16 5:15,37.4,37.4,100,40,9,0.01,29.88,5,30.23
8A0,1/22/16 5:15,42.8,42.8,100,100,10,0.02,29.8,5,36.51
4A6,1/22/16 5:35,37.4,37.4,100,40,8,0.03,29.87,3,30.76
8A0,1/22/16 5:35,44.6,44.6,100,100,11,0.11,29.79,2,38.39
8A0,1/22/16 5:55,44.6,44.6,100,100,9,0.19,29.79,2.5,39.18
4A6,1/22/16 5:55,37.4,37.4,100,10,8,0.09,29.87,3,30.76
8A0,1/22/16 6:15,44.6,44.6,100,100,10,0.05,29.77,5,38.77
4A6,1/22/16 6:15,37.4,37.4,100,30,7,0.06,29.85,2.5,31.36
4A6,1/22/16 6:35,39.2,39.2,100,30,5,0.14,29.84,2.5,34.95
8A0,1/22/16 6:35,44.6,44.6,100,160,3,0.09,29.79,5,43.09
4A6,1/22/16 6:55,39.2,39.2,100,30,6,0.2,29.82,3,34.2
8A0,1/22/16 6:55,44.6,44.6,100,120,3,0.15,29.79,2.5,43.09
4A6,1/22/16 7:15,39.2,39.2,100,340,3,0.04,29.84,2.5,36.92
8A0,1/22/16 7:15,44.6,44.6,100,90,7,0.03,29.76,5,40.14
8A0,1/22/16 7:35,44.6,44.6,100,100,7,0.06,29.75,5,40.14
4A6,1/22/16 7:35,39.2,39.2,100,20,4,0.08,29.81,3,35.83
8A0,1/22/16 7:55,44.6,44.6,100,90,7,0.1,29.72,5,40.14
4A6,1/22/16 7:55,39.2,39.2,100,40,3,0.11,29.8,3,36.92
8A0,1/22/16 8:15,44.6,44.6,100,100,13,0.01,29.66,10,37.71
4A6,1/22/16 8:15,39.2,39.2,100,40,7,0.01,29.77,4,33.56
8A0,1/22/16 8:35,44.6,44.6,100,110,12,0.02,29.62,10,38.04
4A6,1/22/16 8:35,39.2,39.2,100,40,6,0.01,29.74,7,34.2
8A0,1/22/16 8:55,44.6,44.6,100,110,9,0.02,29.63,10,39.18
4A6,1/22/16 8:55,41,41,100,10,6,0.02,29.7,10,36.37
8A0,1/22/16 9:15,44.6,44.6,100,100,10,0,29.6,10,38.77
4A6,1/22/16 9:15,41,41,100,40,5,0,29.69,10,37.08
4A6,1/22/16 9:35,42.8,42.8,100,60,5,0,29.67,10,39.22
8A0,1/22/16 9:35,46.4,46.4,100,110,9,0,29.59,10,41.42
4A6,1/22/16 9:55,44.6,44.6,100,70,4,0,29.66,10,42.13
8A0,1/22/16 9:55,46.4,46.4,100,140,7,0,29.61,10,42.33
8A0,1/22/16 10:15,46.4,46.4,100,120,5,0,29.62,10,43.5
4A6,1/22/16 10:15,46.4,44.6,93.4,80,6,0,29.67,10,42.87
4A6,1/22/16 10:35,46.4,44.6,93.4,80,4,0,29.68,10,44.24
8A0,1/22/16 10:35,46.4,46.4,100,140,6,0,29.62,10,42.87
8A0,1/22/16 10:55,46.4,46.4,100,120,7,0,29.61,5,42.33
4A6,1/22/16 10:55,44.6,44.6,100,0,0,0,29.67,10,44.6
8A0,1/22/16 11:15,44.6,44.6,100,110,5,0,29.6,4,41.36
4A6,1/22/16 11:15,46.4,46.4,100,60,3,0,29.66,10,45.15
8A0,1/22/16 11:35,44.6,44.6,100,110,8,0,29.59,4,39.63
4A6,1/22/16 11:35,46.4,46.4,100,40,4,0,29.64,5,44.24
4A6,1/22/16 11:55,46.4,46.4,100,40,5,0,29.63,6,43.5
8A0,1/22/16 11:55,44.6,44.6,100,110,7,0,29.58,5,40.14
4A6,1/22/16 12:15,46.4,46.4,100,70,5,0,29.63,10,43.5
8A0,1/22/16 12:15,44.6,44.6,100,120,6,0,29.58,7,40.71
8A0,1/22/16 12:35,44.6,44.6,100,130,10,0,29.57,7,38.77
4A6,1/22/16 12:35,46.4,44.6,93.4,100,5,0,29.62,10,43.5
8A0,1/22/16 12:55,44.6,44.6,100,110,7,0,29.57,10,40.14
4A6,1/22/16 12:55,46.4,44.6,93.4,50,3,0,29.64,10,45.15
8A0,1/22/16 13:15,44.6,44.6,100,280,10,0.07,29.61,2.5,38.77
4A6,1/22/16 13:15,46.4,46.4,100,40,3,0.01,29.64,9,45.15
8A0,1/22/16 13:35,44.6,44.6,100,10,4,0.24,29.61,2.5,42.13
4A6,1/22/16 13:35,46.4,44.6,93.4,300,3,0.02,29.65,5,45.15
8A0,1/22/16 13:55,44.6,44.6,100,70,3,0.32,29.6,2,43.09
4A6,1/22/16 13:55,44.6,44.6,100,0,0,0.06,29.66,3,44.6
8A0,1/22/16 14:15,44.6,44.6,100,50,3,0.02,29.59,5,43.09
4A6,1/22/16 14:15,44.6,44.6,100,40,5,0.04,29.66,2.5,41.36
4A6,1/22/16 14:35,44.6,44.6,100,70,7,0.09,29.66,3,40.14
8A0,1/22/16 14:35,44.6,44.6,100,60,3,0.04,29.59,7,43.09
8A0,1/22/16 14:55,46.4,46.4,100,80,7,0.05,29.59,10,42.33
4A6,1/22/16 14:55,44.6,44.6,100,80,8,0.13,29.65,5,39.63
8A0,1/22/16 15:15,46.4,46.4,100,110,6,0.01,29.6,7,42.87
4A6,1/22/16 15:15,44.6,44.6,100,60,5,0.03,29.65,9,41.36
8A0,1/22/16 15:35,46.4,46.4,100,120,3,0.04,29.6,5,45.15
4A6,1/22/16 15:35,44.6,44.6,100,40,6,0.04,29.64,7,40.71
4A6,1/22/16 15:55,46.4,46.4,100,50,6,0.05,29.63,10,42.87
8A0,1/22/16 15:55,46.4,46.4,100,90,3,0.05,29.59,7,45.15
4A6,1/22/16 16:15,44.6,42.8,93.35,20,5,0,29.63,10,41.36
8A0,1/22/16 16:15,46.4,46.4,100,130,4,0.01,29.59,10,44.24
4A6,1/22/16 16:35,44.6,42.8,93.35,360,3,0,29.62,10,43.09
8A0,1/22/16 16:35,46.4,46.4,100,120,3,0.01,29.58,10,45.15
8A0,1/22/16 16:55,46.4,46.4,100,0,0,0.01,29.58,7,46.4
4A6,1/22/16 16:55,44.6,42.8,93.35,0,0,0,29.62,10,44.6
8A0,1/22/16 17:15,46.4,46.4,100,240,14,0,29.59,3,39.72
4A6,1/22/16 17:15,46.4,42.8,87.19,100,3,0,29.61,10,45.15
4A6,1/22/16 17:35,46.4,44.6,93.4,0,0,0,29.6,10,46.4
8A0,1/22/16 17:35,42.8,42.8,100,260,15,0.02,29.59,1.75,34.78
4A6,1/22/16 17:55,46.4,42.8,87.19,180,5,0,29.59,10,43.5
8A0,1/22/16 17:55,41,41,100,260,14,0.03,29.59,2,32.76
4A6,1/22/16 18:15,44.6,42.8,93.35,190,6,0,29.59,3,40.71
8A0,1/22/16 18:15,39.2,39.2,100,260,13,0,29.59,2,30.79
4A6,1/22/16 18:35,44.6,44.6,100,210,3,0,29.58,1.25,43.09
8A0,1/22/16 18:35,37.4,37.4,100,270,12,0,29.59,1.75,28.87
4A6,1/22/16 18:55,44.6,44.6,100,190,3,0,29.58,1,43.09
8A0,1/22/16 18:55,37.4,37.4,100,260,17,0.01,29.59,1.5,27.15
4A6,1/22/16 19:15,44.6,44.6,100,180,5,0,29.58,1.5,41.36
8A0,1/22/16 19:15,37.4,37.4,100,270,15,0,29.59,1.75,27.78
8A0,1/22/16 19:35,35.6,35.6,100,270,15,0,29.6,1.75,25.45
4A6,1/22/16 19:35,44.6,44.6,100,140,3,0,29.57,1.75,43.09
8A0,1/22/16 19:55,35.6,35.6,100,270,11,0,29.6,1.75,27.02
4A6,1/22/16 19:55,41,41,100,230,8,0,29.57,1,35.2
8A0,1/22/16 20:15,33.8,33.8,100,280,13,0,29.6,1.5,23.87
4A6,1/22/16 20:15,39.2,39.2,100,230,8,0,29.58,1.25,32.98
4A6,1/22/16 20:35,39.2,39.2,100,210,9,0.01,29.59,2,32.47
8A0,1/22/16 20:35,33.8,33.8,100,280,15,0.01,29.62,1.75,23.11
8A0,1/22/16 20:55,32,32,100,280,11,0.01,29.62,0.75,22.47
4A6,1/22/16 20:55,39.2,39.2,100,320,5,0.03,29.6,4,34.95
8A0,1/22/16 21:15,32,32,100,290,9,0,29.63,1.25,23.51
4A6,1/22/16 21:15,37.4,37.4,100,300,10,0.01,29.62,4,29.74
4A6,1/22/16 21:35,35.6,35.6,100,330,5,0.02,29.63,2,30.67
8A0,1/22/16 21:35,32,32,100,280,14,0,29.64,1.25,21.16
8A0,1/22/16 21:55,32,32,100,280,12,0,29.65,0.75,22
4A6,1/22/16 21:55,33.8,33.8,100,310,8,0.03,29.65,1.25,26.33
8A0,1/22/16 22:15,32,32,100,290,11,0,29.66,0.5,22.47
4A6,1/22/16 22:15,32,32,100,330,9,0,29.67,1,23.51
8A0,1/22/16 22:35,30.2,30.2,100,310,15,0.01,29.67,1.25,18.45
4A6,1/22/16 22:35,32,30.2,92.97,330,5,0,29.68,1.5,26.4
8A0,1/22/16 22:55,30.2,30.2,100,310,15,0.01,29.68,3,18.45
4A6,1/22/16 22:55,32,30.2,92.97,330,5,0,29.7,2.5,26.4
4A6,1/22/16 23:15,32,28.4,86.39,350,9,0,29.71,1.75,23.51
8A0,1/22/16 23:15,30.2,30.2,100,310,10,0,29.69,2.5,20.71
4A6,1/22/16 23:35,30.2,28.4,92.92,360,9,0,29.73,1.25,21.28
8A0,1/22/16 23:35,30.2,30.2,100,320,15,0,29.71,3,18.45
4A6,1/22/16 23:55,28.4,28.4,100,350,9,0,29.75,1.5,19.04
8A0,1/22/16 23:55,28.4,28.4,100,320,15,0,29.72,1.75,16.11
8A0,1/23/16 0:15,28.4,28.4,100,320,18,0,29.74,1.5,15.01
4A6,1/23/16 0:15,28.4,28.4,100,350,8,0,29.77,1.75,19.68
8A0,1/23/16 0:35,28.4,28.4,100,330,16,0.01,29.74,3,15.73
4A6,1/23/16 0:35,28.4,26.6,92.86,10,6,0,29.78,1.75,21.19
8A0,1/23/16 0:55,30.2,30.2,100,330,18,0.01,29.75,4,17.38
4A6,1/23/16 0:55,30.2,26.6,86.28,360,11,0,29.79,3,20.19
4A6,1/23/16 1:15,30.2,24.8,80.07,10,9,0,29.8,2.5,21.28
8A0,1/23/16 1:15,30.2,30.2,100,330,16,0,29.76,3,18.07
4A6,1/23/16 1:35,30.2,26.6,86.28,360,13,0,29.81,2.5,19.26
8A0,1/23/16 1:35,30.2,30.2,100,330,13,0,29.77,4,19.26
4A6,1/23/16 1:55,30.2,24.8,80.07,10,15,0,29.82,4,18.45
8A0,1/23/16 1:55,30.2,30.2,100,340,19,0,29.79,5,17.06
8A0,1/23/16 2:15,30.2,30.2,100,340,17,0,29.79,10,17.72
4A6,1/23/16 2:15,30.2,24.8,80.07,10,10,0,29.83,9,20.71
4A6,1/23/16 2:35,30.2,24.8,80.07,350,9,0,29.83,7,21.28
8A0,1/23/16 2:35,28.4,28.4,100,340,17,0,29.8,7,15.36
4A6,1/23/16 2:55,30.2,23,74.26,10,13,0,29.84,9,19.26
8A0,1/23/16 2:55,28.4,28.4,100,340,16,0,29.8,5,15.73
4A6,1/23/16 3:15,30.2,23,74.26,350,12,0,29.85,9,19.71
8A0,1/23/16 3:15,28.4,28.4,100,340,19,0,29.81,10,14.68
8A0,1/23/16 3:35,28.4,28.4,100,330,19,0,29.81,5,14.68
4A6,1/23/16 3:35,28.4,23,79.92,360,15,0,29.86,10,16.11
4A6,1/23/16 3:55,28.4,23,79.92,360,15,0,29.86,10,16.11
8A0,1/23/16 3:55,28.4,28.4,100,340,19,0,29.82,5,14.68
4A6,1/23/16 4:15,28.4,23,79.92,360,14,0,29.86,10,16.52
8A0,1/23/16 4:15,28.4,26.6,92.86,340,21,0,29.82,7,14.05
8A0,1/23/16 4:35,28.4,26.6,92.86,350,20,0,29.83,10,14.36
4A6,1/23/16 4:35,28.4,23,79.92,360,15,0,29.87,10,16.11
8A0,1/23/16 4:55,28.4,26.6,92.86,350,19,0,29.83,10,14.68
4A6,1/23/16 4:55,28.4,23,79.92,10,16,0,29.87,10,15.73
8A0,1/23/16 5:15,28.4,26.6,92.86,340,19,0,29.84,10,14.68
4A6,1/23/16 5:15,28.4,23,79.92,10,12,0,29.88,10,17.42
4A6,1/23/16 5:35,28.4,23,79.92,360,10,0,29.88,10,18.45
8A0,1/23/16 5:35,28.4,26.6,92.86,340,17,0,29.84,10,15.36
8A0,1/23/16 5:55,28.4,26.6,92.86,340,17,0,29.84,10,15.36
4A6,1/23/16 5:55,28.4,21.2,74.08,10,13,0,29.88,10,16.96
8A0,1/23/16 6:15,28.4,26.6,92.86,330,23,0,29.84,10,13.47
4A6,1/23/16 6:15,28.4,23,79.92,360,12,0,29.89,10,17.42
8A0,1/23/16 6:35,28.4,26.6,92.86,330,18,0,29.85,10,15.01
4A6,1/23/16 6:35,28.4,21.2,74.08,360,11,0,29.89,10,17.92
8A0,1/23/16 6:55,28.4,26.6,92.86,340,21,0,29.85,10,14.05
4A6,1/23/16 6:55,28.4,21.2,74.08,350,15,0,29.89,10,16.11
4A6,1/23/16 7:15,28.4,21.2,74.08,360,14,0,29.9,10,16.52
8A0,1/23/16 7:15,28.4,26.6,92.86,330,21,0,29.85,10,14.05
8A0,1/23/16 7:35,28.4,26.6,92.86,340,17,0,29.86,10,15.36
4A6,1/23/16 7:35,28.4,19.4,68.61,10,18,0,29.9,10,15.01
8A0,1/23/16 7:55,26.6,26.6,100,330,16,0,29.87,10,13.38
4A6,1/23/16 7:55,28.4,19.4,68.61,10,15,0,29.91,10,16.11
4A6,1/23/16 8:15,28.4,21.2,74.08,350,11,0,29.91,10,17.92
8A0,1/23/16 8:15,26.6,26.6,100,330,14,0,29.87,10,14.2
8A0,1/23/16 8:35,26.6,26.6,100,330,20,0,29.87,10,11.97
4A6,1/23/16 8:35,28.4,21.2,74.08,360,9,0,29.92,10,19.04
8A0,1/23/16 8:55,26.6,26.6,100,330,21,0,29.87,10,11.65
4A6,1/23/16 8:55,28.4,21.2,74.08,330,10,0,29.92,10,18.45
8A0,1/23/16 9:15,26.6,26.6,100,330,19,0,29.88,10,12.3
4A6,1/23/16 9:15,26.6,21.2,79.77,360,11,0,29.92,10,15.64
8A0,1/23/16 9:35,26.6,24.8,92.8,330,19,0,29.89,10,12.3
4A6,1/23/16 9:35,26.6,19.4,73.89,360,13,0,29.93,10,14.65
8A0,1/23/16 9:55,26.6,24.8,92.8,330,19,0,29.89,10,12.3
4A6,1/23/16 9:55,26.6,19.4,73.89,10,11,0,29.94,10,15.64
8A0,1/23/16 10:15,26.6,24.8,92.8,320,22,0,29.9,10,11.35
4A6,1/23/16 10:15,26.6,19.4,73.89,340,13,0,29.94,10,14.65
4A6,1/23/16 10:35,26.6,19.4,73.89,360,9,0,29.95,10,16.8
8A0,1/23/16 10:35,26.6,24.8,92.8,330,18,0,29.91,10,12.64
8A0,1/23/16 10:55,26.6,23,86.07,330,20,0,29.92,10,11.97
4A6,1/23/16 10:55,26.6,19.4,73.89,350,11,0,29.96,10,15.64
4A6,1/23/16 11:15,26.6,19.4,73.89,340,13,0,29.97,10,14.65
8A0,1/23/16 11:15,26.6,24.8,92.8,330,19,0,29.93,10,12.3
4A6,1/23/16 11:35,26.6,17.6,68.4,340,13,0,29.98,10,14.65
8A0,1/23/16 11:35,26.6,24.8,92.8,330,15,0,29.94,10,13.78
8A0,1/23/16 11:55,26.6,24.8,92.8,330,18,0,29.95,10,12.64
4A6,1/23/16 11:55,26.6,17.6,68.4,350,8,0,29.99,10,17.46
4A6,1/23/16 12:15,26.6,17.6,68.4,360,6,0,30,10,19.03
8A0,1/23/16 12:15,26.6,24.8,92.8,330,20,0,29.96,10,11.97
4A6,1/23/16 12:35,26.6,17.6,68.4,360,10,0,30.01,10,16.2
8A0,1/23/16 12:35,26.6,24.8,92.8,330,12,0,29.97,10,15.13
4A6,1/23/16 12:55,26.6,17.6,68.4,360,8,0,30.02,10,17.46
8A0,1/23/16 12:55,26.6,24.8,92.8,320,13,0,29.99,10,14.65
8A0,1/23/16 13:15,26.6,23,86.07,320,18,0,30,10,12.64
4A6,1/23/16 13:15,26.6,17.6,68.4,340,11,0,30.03,10,15.64
8A0,1/23/16 13:35,26.6,23,86.07,330,20,0,30.01,10,11.97
4A6,1/23/16 13:35,26.6,17.6,68.4,360,6,0,30.04,10,19.03
8A0,1/23/16 13:55,26.6,21.2,79.77,320,15,0,30.02,10,13.78
4A6,1/23/16 13:55,26.6,19.4,73.89,350,8,0,30.05,10,17.46
4A6,1/23/16 14:15,26.6,19.4,73.89,350,8,0,30.05,10,17.46
8A0,1/23/16 14:15,26.6,23,86.07,320,16,0,30.03,10,13.38
8A0,1/23/16 14:35,26.6,23,86.07,330,18,0,30.03,10,12.64
4A6,1/23/16 14:35,26.6,19.4,73.89,340,8,0,30.06,9,17.46
8A0,1/23/16 14:55,26.6,23,86.07,320,17,0,30.03,10,13
4A6,1/23/16 14:55,26.6,19.4,73.89,350,8,0,30.07,9,17.46
8A0,1/23/16 15:15,26.6,23,86.07,340,18,0,30.03,10,12.64
4A6,1/23/16 15:15,26.6,19.4,73.89,360,10,0,30.07,10,16.2
4A6,1/23/16 15:35,26.6,19.4,73.89,360,9,0,30.08,10,16.8
8A0,1/23/16 15:35,26.6,23,86.07,330,17,0,30.04,10,13
4A6,1/23/16 15:55,28.4,19.4,68.61,350,12,0,30.08,10,17.42
8A0,1/23/16 15:55,28.4,23,79.92,340,13,0,30.05,10,16.96
8A0,1/23/16 16:15,28.4,23,79.92,330,11,0,30.06,10,17.92
4A6,1/23/16 16:15,28.4,19.4,68.61,340,11,0,30.09,10,17.92
4A6,1/23/16 16:35,28.4,19.4,68.61,350,11,0,30.09,10,17.92
8A0,1/23/16 16:35,28.4,23,79.92,320,13,0,30.06,10,16.96
4A6,1/23/16 16:55,28.4,19.4,68.61,350,8,0,30.09,10,19.68
8A0,1/23/16 16:55,28.4,23,79.92,340,13,0,30.06,10,16.96
4A6,1/23/16 17:15,28.4,19.4,68.61,340,9,0,30.09,10,19.04
8A0,1/23/16 17:15,28.4,23,79.92,320,14,0,30.06,10,16.52
4A6,1/23/16 17:35,28.4,19.4,68.61,340,8,0,30.08,10,19.68
8A0,1/23/16 17:35,28.4,23,79.92,330,13,0,30.05,10,16.96
8A0,1/23/16 17:55,28.4,24.8,86.18,320,9,0,30.05,10,19.04
4A6,1/23/16 17:55,28.4,19.4,68.61,340,11,0,30.08,10,17.92
8A0,1/23/16 18:15,28.4,23,79.92,330,12,0,30.04,10,17.42
4A6,1/23/16 18:15,28.4,19.4,68.61,340,7,0,30.09,10,20.39
8A0,1/23/16 18:35,28.4,23,79.92,300,11,0,30.05,10,17.92
4A6,1/23/16 18:35,28.4,19.4,68.61,340,7,0,30.09,10,20.39
8A0,1/23/16 18:55,28.4,23,79.92,310,10,0,30.04,10,18.45
4A6,1/23/16 18:55,28.4,19.4,68.61,340,6,0,30.08,10,21.19
8A0,1/23/16 19:15,28.4,23,79.92,310,7,0,30.04,10,20.39
4A6,1/23/16 19:15,28.4,19.4,68.61,360,9,0,30.08,10,19.04
8A0,1/23/16 19:35,28.4,24.8,86.18,300,9,0,30.04,10,19.04
4A6,1/23/16 19:35,28.4,19.4,68.61,340,8,0,30.08,10,19.68
4A6,1/23/16 19:55,28.4,19.4,68.61,330,9,0,30.09,10,19.04
8A0,1/23/16 19:55,28.4,24.8,86.18,300,13,0,30.05,10,16.96
8A0,1/23/16 20:15,28.4,24.8,86.18,320,15,0,30.06,10,16.11
4A6,1/23/16 20:15,28.4,19.4,68.61,350,10,0,30.09,10,18.45
4A6,1/23/16 20:35,28.4,19.4,68.61,340,6,0,30.1,10,21.19
8A0,1/23/16 20:35,28.4,24.8,86.18,330,13,0,30.07,10,16.96
8A0,1/23/16 20:55,28.4,26.6,92.86,320,12,0,30.07,10,17.42
4A6,1/23/16 20:55,28.4,19.4,68.61,340,8,0,30.11,10,19.68
4A6,1/23/16 21:15,28.4,17.6,63.51,350,9,0,30.11,10,19.04
8A0,1/23/16 21:15,28.4,24.8,86.18,320,12,0,30.07,10,17.42
4A6,1/23/16 21:35,28.4,17.6,63.51,350,10,0,30.13,10,18.45
8A0,1/23/16 21:35,28.4,23,79.92,330,13,0,30.08,10,16.96
8A0,1/23/16 21:55,28.4,23,79.92,340,9,0,30.09,10,19.04
4A6,1/23/16 21:55,28.4,17.6,63.51,360,9,0,30.13,10,19.04
8A0,1/23/16 22:15,28.4,23,79.92,340,10,0,30.09,10,18.45
4A6,1/23/16 22:15,28.4,17.6,63.51,340,10,0,30.14,10,18.45
8A0,1/23/16 22:35,28.4,23,79.92,340,9,0,30.09,10,19.04
4A6,1/23/16 22:35,28.4,17.6,63.51,350,11,0,30.14,10,17.92
8A0,1/23/16 22:55,28.4,23,79.92,340,8,0,30.09,10,19.68
4A6,1/23/16 22:55,28.4,17.6,63.51,360,6,0,30.13,10,21.19
4A6,1/23/16 23:15,28.4,17.6,63.51,10,7,0,30.14,10,20.39
8A0,1/23/16 23:15,28.4,23,79.92,330,7,0,30.09,10,20.39
8A0,1/23/16 23:35,28.4,23,79.92,360,4,0,30.09,10,23.22
4A6,1/23/16 23:35,28.4,17.6,63.51,360,8,0,30.14,10,19.68
8A0,1/23/16 23:55,26.6,23,86.07,360,3,0,30.09,10,22.52
4A6,1/23/16 23:55,28.4,17.6,63.51,10,9,0,30.14,10,19.04
8A0,1/24/16 0:15,26.6,23,86.07,340,7,0,30.11,10,18.2
4A6,1/24/16 0:15,26.6,17.6,68.4,350,9,0,30.16,10,16.8
4A6,1/24/16 0:35,26.6,17.6,68.4,350,10,0,30.17,10,16.2
8A0,1/24/16 0:35,26.6,23,86.07,350,7,0,30.12,10,18.2
4A6,1/24/16 0:55,26.6,17.6,68.4,10,9,0,30.18,10,16.8
8A0,1/24/16 0:55,26.6,23,86.07,360,7,0,30.12,10,18.2
8A0,1/24/16 1:15,26.6,23,86.07,360,7,0,30.13,10,18.2
4A6,1/24/16 1:15,26.6,17.6,68.4,10,7,0,30.18,10,18.2
4A6,1/24/16 1:35,26.6,17.6,68.4,20,7,0,30.19,10,18.2
8A0,1/24/16 1:35,26.6,23,86.07,10,8,0,30.14,10,17.46
8A0,1/24/16 1:55,26.6,23,86.07,20,5,0,30.14,10,19.98
4A6,1/24/16 1:55,26.6,17.6,68.4,30,7,0,30.19,10,18.2
8A0,1/24/16 2:15,26.6,23,86.07,10,5,0,30.15,10,19.98
4A6,1/24/16 2:15,26.6,17.6,68.4,20,5,0,30.2,10,19.98
4A6,1/24/16 2:35,24.8,17.6,73.7,20,5,0,30.2,10,17.84
8A0,1/24/16 2:35,26.6,23,86.07,360,6,0,30.15,10,19.03
8A0,1/24/16 2:55,24.8,23,92.74,360,6,0,30.15,10,16.86
4A6,1/24/16 2:55,24.8,17.6,73.7,30,3,0,30.2,10,20.46
8A0,1/24/16 3:15,24.8,23,92.74,10,4,0,30.16,10,19.01
4A6,1/24/16 3:15,24.8,17.6,73.7,0,0,0,30.21,10,24.8
8A0,1/24/16 3:35,23,23,100,20,4,0,30.16,10,16.91
4A6,1/24/16 3:35,23,19.4,85.85,0,0,0,30.2,10,23
8A0,1/24/16 3:55,23,23,100,10,4,0,30.16,10,16.91
4A6,1/24/16 3:55,23,19.4,85.85,0,0,0,30.21,10,23
4A6,1/24/16 4:15,23,19.4,85.85,0,0,0,30.21,10,23
8A0,1/24/16 4:15,23,23,100,360,4,0,30.16,10,16.91
4A6,1/24/16 4:35,21.2,19.4,92.63,0,0,0,30.21,10,21.2
8A0,1/24/16 4:35,23,23,100,0,0,0,30.16,10,23
8A0,1/24/16 4:55,23,23,100,0,0,0,30.15,10,23
4A6,1/24/16 4:55,21.2,19.4,92.63,0,0,0,30.21,10,21.2
4A6,1/24/16 5:15,19.4,19.4,100,0,0,0,30.2,10,19.4
8A0,1/24/16 5:15,23,23,100,40,3,0,30.15,10,18.4
4A6,1/24/16 5:35,19.4,19.4,100,0,0,0,30.19,10,19.4
8A0,1/24/16 5:35,21.2,21.2,100,100,3,0,30.14,10,16.34
8A0,1/24/16 5:55,21.2,21.2,100,0,0,0,30.13,10,21.2
4A6,1/24/16 5:55,19.4,19.4,100,0,0,0,30.18,10,19.4
8A0,1/24/16 6:15,21.2,21.2,100,0,0,0,30.12,10,21.2
4A6,1/24/16 6:15,19.4,19.4,100,0,0,0,30.16,10,19.4
8A0,1/24/16 6:35,19.4,19.4,100,0,0,0,30.12,10,19.4
4A6,1/24/16 6:35,19.4,19.4,100,0,0,0,30.16,10,19.4
4A6,1/24/16 6:55,19.4,19.4,100,0,0,0,30.18,10,19.4
8A0,1/24/16 6:55,21.2,21.2,100,310,3,0,30.13,10,16.34
8A0,1/24/16 7:15,21.2,21.2,100,350,4,0,30.14,10,14.81
4A6,1/24/16 7:15,19.4,19.4,100,0,0,0,30.18,10,19.4
4A6,1/24/16 7:35,19.4,19.4,100,0,0,0,30.19,10,19.4
8A0,1/24/16 7:35,21.2,21.2,100,360,4,0,30.13,10,14.81
8A0,1/24/16 7:55,21.2,21.2,100,360,4,0,30.13,10,14.81
4A6,1/24/16 7:55,19.4,19.4,100,0,0,0,30.19,10,19.4
4A6,1/24/16 8:15,19.4,19.4,100,0,0,0,30.19,10,19.4
8A0,1/24/16 8:15,21.2,21.2,100,360,4,0,30.14,10,14.81
8A0,1/24/16 8:35,19.4,19.4,100,340,5,0,30.14,10,11.43
4A6,1/24/16 8:35,19.4,17.6,92.57,0,0,0,30.2,10,19.4
4A6,1/24/16 8:55,19.4,19.4,100,0,0,0,30.19,10,19.4
8A0,1/24/16 8:55,19.4,19.4,100,310,4,0,30.14,10,12.71
8A0,1/24/16 9:15,21.2,21.2,100,300,3,0,30.15,10,16.34
4A6,1/24/16 9:15,19.4,19.4,100,0,0,0,30.19,10,19.4
4A6,1/24/16 9:35,19.4,19.4,100,0,0,0,30.19,10,19.4
8A0,1/24/16 9:35,21.2,21.2,100,320,3,0,30.15,10,16.34
4A6,1/24/16 9:55,19.4,17.6,92.57,0,0,0,30.19,10,19.4
8A0,1/24/16 9:55,21.2,21.2,100,0,0,0,30.14,10,21.2
8A0,1/24/16 10:15,19.4,19.4,100,340,3,0,30.14,10,14.28
4A6,1/24/16 10:15,17.6,17.6,100,0,0,0,30.19,10,17.6
8A0,1/24/16 10:35,19.4,19.4,100,0,0,0,30.15,7,19.4
4A6,1/24/16 10:35,17.6,17.6,100,0,0,0,30.2,10,17.6
8A0,1/24/16 10:55,19.4,19.4,100,0,0,0,30.15,10,19.4
4A6,1/24/16 10:55,19.4,17.6,92.57,0,0,0,30.2,10,19.4
8A0,1/24/16 11:15,17.6,17.6,100,0,0,0,30.15,7,17.6
4A6,1/24/16 11:15,17.6,17.6,100,0,0,0,30.21,10,17.6
8A0,1/24/16 11:35,19.4,19.4,100,20,3,0,30.15,7,14.28
4A6,1/24/16 11:35,17.6,17.6,100,0,0,0,30.21,10,17.6
4A6,1/24/16 11:55,17.6,17.6,100,0,0,0,30.22,10,17.6
8A0,1/24/16 11:55,19.4,19.4,100,10,4,0,30.17,7,12.71
8A0,1/24/16 12:15,19.4,19.4,100,360,4,0,30.17,10,12.71
4A6,1/24/16 12:15,17.6,17.6,100,0,0,0,30.23,10,17.6
4A6,1/24/16 12:35,17.6,17.6,100,0,0,0,30.24,10,17.6
8A0,1/24/16 12:35,19.4,19.4,100,340,5,0,30.18,10,11.43
8A0,1/24/16 12:55,21.2,21.2,100,0,0,0,30.18,10,21.2
4A6,1/24/16 12:55,17.6,17.6,100,0,0,0,30.24,10,17.6
8A0,1/24/16 13:15,21.2,21.2,100,10,3,0,30.18,10,16.34
4A6,1/24/16 13:15,17.6,17.6,100,0,0,0,30.24,10,17.6
4A6,1/24/16 13:35,19.4,19.4,100,0,0,0,30.25,10,19.4
8A0,1/24/16 13:35,21.2,21.2,100,0,0,0,30.19,7,21.2
8A0,1/24/16 13:55,23,23,100,340,3,0,30.19,7,18.4
4A6,1/24/16 13:55,21.2,19.4,92.63,0,0,0,30.25,10,21.2
8A0,1/24/16 14:15,24.8,24.8,100,10,3,0,30.19,7,20.46
4A6,1/24/16 14:15,23,23,100,0,0,0,30.25,10,23
8A0,1/24/16 14:35,26.6,26.6,100,40,6,0,30.19,10,19.03
4A6,1/24/16 14:35,24.8,23,92.74,50,5,0,30.25,10,17.84
4A6,1/24/16 14:55,24.8,23,92.74,50,4,0,30.25,10,19.01
8A0,1/24/16 14:55,28.4,26.6,92.86,50,6,0,30.19,10,21.19
4A6,1/24/16 15:15,26.6,23,86.07,60,3,0,30.24,10,22.52
8A0,1/24/16 15:15,28.4,26.6,92.86,30,3,0,30.19,10,24.57
8A0,1/24/16 15:35,30.2,26.6,86.28,50,3,0,30.19,10,26.63
4A6,1/24/16 15:35,28.4,21.2,74.08,50,6,0,30.25,10,21.19
8A0,1/24/16 15:55,32,28.4,86.39,0,0,0,30.2,10,32
4A6,1/24/16 15:55,28.4,21.2,74.08,70,4,0,30.25,10,23.22
8A0,1/24/16 16:15,32,28.4,86.39,0,0,0,30.2,10,32
4A6,1/24/16 16:15,32,21.2,63.99,30,4,0,30.24,10,27.42
4A6,1/24/16 16:35,32,23,69.04,40,3,0,30.24,10,28.69
8A0,1/24/16 16:35,32,28.4,86.39,20,3,0,30.19,10,28.69
4A6,1/24/16 16:55,32,23,69.04,0,0,0,30.24,10,32
8A0,1/24/16 16:55,32,28.4,86.39,0,0,0,30.19,10,32
4A6,1/24/16 17:15,33.8,23,64.23,0,0,0,30.22,10,33.8
8A0,1/24/16 17:15,33.8,28.4,80.36,0,0,0,30.19,10,33.8
4A6,1/24/16 17:35,35.6,21.2,55.41,0,0,0,30.22,10,35.6
8A0,1/24/16 17:35,35.6,28.4,74.8,0,0,0,30.18,10,35.6
4A6,1/24/16 17:55,35.6,23,59.79,0,0,0,30.2,10,35.6
8A0,1/24/16 17:55,35.6,26.6,69.46,0,0,0,30.17,10,35.6
4A6,1/24/16 18:15,37.4,19.4,47.8,0,0,0,30.2,10,37.4
8A0,1/24/16 18:15,37.4,26.6,64.7,0,0,0,30.16,10,37.4
8A0,1/24/16 18:35,39.2,28.4,64.93,0,0,0,30.15,10,39.2
4A6,1/24/16 18:35,39.2,23,51.89,0,0,0,30.18,10,39.2
8A0,1/24/16 18:55,41,30.2,65.16,0,0,0,30.14,10,41
4A6,1/24/16 18:55,39.2,23,51.89,0,0,0,30.18,10,39.2
4A6,1/24/16 19:15,39.2,21.2,48.1,0,0,0,30.16,10,39.2
8A0,1/24/16 19:15,41,30.2,65.16,0,0,0,30.13,10,41
4A6,1/24/16 19:35,41,19.4,41.54,0,0,0,30.16,10,41
8A0,1/24/16 19:35,42.8,30.2,60.79,190,3,0,30.13,10,41.03
8A0,1/24/16 19:55,42.8,30.2,60.79,190,5,0,30.13,10,39.22
4A6,1/24/16 19:55,41,19.4,41.54,140,3,0,30.16,10,38.98
4A6,1/24/16 20:15,42.8,19.4,38.75,0,0,0,30.15,10,42.8
8A0,1/24/16 20:15,44.6,30.2,56.74,210,3,0,30.13,10,43.09
8A0,1/24/16 20:35,44.6,28.4,52.72,0,0,0,30.13,10,44.6
4A6,1/24/16 20:35,44.6,17.6,33.49,260,5,0,30.16,10,41.36
8A0,1/24/16 20:55,44.6,28.4,52.72,0,0,0,30.13,10,44.6
4A6,1/24/16 20:55,44.6,17.6,33.49,0,0,0,30.16,10,44.6
4A6,1/24/16 21:15,44.6,17.6,33.49,250,3,0,30.16,10,43.09
8A0,1/24/16 21:15,44.6,30.2,56.74,220,3,0,30.13,10,43.09
8A0,1/24/16 21:35,44.6,28.4,52.72,210,3,0,30.12,10,43.09
4A6,1/24/16 21:35,44.6,17.6,33.49,200,3,0,30.16,10,43.09
4A6,1/24/16 21:55,44.6,19.4,36.18,180,3,0,30.15,10,43.09
8A0,1/24/16 21:55,44.6,28.4,52.72,220,4,0,30.12,10,42.13
8A0,1/24/16 22:15,44.6,28.4,52.72,0,0,0,30.13,10,44.6
4A6,1/24/16 22:15,44.6,17.6,33.49,210,5,0,30.15,10,41.36
4A6,1/24/16 22:35,42.8,17.6,35.87,200,4,0,30.15,10,40.03
8A0,1/24/16 22:35,44.6,28.4,52.72,260,3,0,30.13,10,43.09
8A0,1/24/16 22:55,42.8,28.4,56.48,0,0,0,30.12,10,42.8
4A6,1/24/16 22:55,41,19.4,41.54,210,4,0,30.15,10,37.93
8A0,1/24/16 23:15,42.8,28.4,56.48,0,0,0,30.13,10,42.8
4A6,1/24/16 23:15,39.2,24.8,55.95,0,0,0,30.15,10,39.2
8A0,1/24/16 23:35,41,26.6,56.22,0,0,0,30.12,10,41
4A6,1/24/16 23:35,37.4,24.8,60.04,0,0,0,30.15,10,37.4
8A0,1/24/16 23:55,37.4,28.4,69.67,0,0,0,30.12,10,37.4
4A6,1/24/16 23:55,33.8,26.6,74.63,0,0,0,30.15,10,33.8
8A0,1/25/16 0:15,37.4,26.6,64.7,130,5,0,30.12,10,32.81
4A6,1/25/16 0:15,32,26.6,80.22,0,0,0,30.15,10,32
4A6,1/25/16 0:35,32,24.8,74.44,0,0,0,30.15,10,32
8A0,1/25/16 0:35,37.4,28.4,69.67,140,5,0,30.12,10,32.81
4A6,1/25/16 0:55,32,26.6,80.22,0,0,0,30.15,10,32
8A0,1/25/16 0:55,37.4,28.4,69.67,150,4,0,30.12,10,33.73
8A0,1/25/16 1:15,37.4,28.4,69.67,150,5,0,30.12,10,32.81
4A6,1/25/16 1:15,32,26.6,80.22,0,0,0,30.15,10,32
4A6,1/25/16 1:35,30.2,26.6,86.28,0,0,0,30.15,10,30.2
8A0,1/25/16 1:35,35.6,28.4,74.8,150,5,0,30.12,10,30.67
8A0,1/25/16 1:55,35.6,28.4,74.8,140,6,0,30.11,10,29.87
4A6,1/25/16 1:55,30.2,26.6,86.28,0,0,0,30.15,10,30.2
8A0,1/25/16 2:15,35.6,28.4,74.8,150,4,0,30.12,10,31.62
4A6,1/25/16 2:15,30.2,24.8,80.07,0,0,0,30.15,10,30.2
8A0,1/25/16 2:35,35.6,28.4,74.8,150,5,0,30.12,10,30.67
4A6,1/25/16 2:35,28.4,26.6,92.86,0,0,0,30.15,10,28.4
8A0,1/25/16 2:55,37.4,28.4,69.67,160,4,0,30.12,10,33.73
4A6,1/25/16 2:55,28.4,24.8,86.18,0,0,0,30.15,10,28.4
8A0,1/25/16 3:15,35.6,28.4,74.8,150,5,0,30.12,10,30.67
4A6,1/25/16 3:15,28.4,26.6,92.86,0,0,0,30.15,10,28.4
4A6,1/25/16 3:35,28.4,26.6,92.86,0,0,0,30.15,10,28.4
8A0,1/25/16 3:35,35.6,28.4,74.8,140,4,0,30.11,10,31.62
8A0,1/25/16 3:55,35.6,28.4,74.8,140,3,0,30.11,10,32.8
4A6,1/25/16 3:55,28.4,26.6,92.86,0,0,0,30.15,10,28.4
4A6,1/25/16 4:15,28.4,26.6,92.86,0,0,0,30.15,10,28.4
8A0,1/25/16 4:15,35.6,28.4,74.8,140,3,0,30.11,10,32.8
8A0,1/25/16 4:35,35.6,28.4,74.8,160,3,0,30.12,10,32.8
4A6,1/25/16 4:35,28.4,26.6,92.86,0,0,0,30.16,10,28.4
4A6,1/25/16 4:55,28.4,26.6,92.86,0,0,0,30.16,10,28.4
8A0,1/25/16 4:55,35.6,28.4,74.8,130,4,0,30.11,10,31.62
8A0,1/25/16 5:15,35.6,28.4,74.8,140,5,0,30.12,10,30.67
4A6,1/25/16 5:15,28.4,26.6,92.86,0,0,0,30.15,10,28.4
8A0,1/25/16 5:35,35.6,28.4,74.8,140,4,0,30.11,10,31.62
4A6,1/25/16 5:35,28.4,26.6,92.86,0,0,0,30.15,10,28.4
4A6,1/25/16 5:55,28.4,26.6,92.86,0,0,0,30.15,10,28.4
8A0,1/25/16 5:55,35.6,28.4,74.8,140,5,0,30.11,10,30.67
4A6,1/25/16 6:15,28.4,26.6,92.86,0,0,0,30.15,10,28.4
8A0,1/25/16 6:15,35.6,28.4,74.8,140,4,0,30.12,10,31.62
8A0,1/25/16 6:35,33.8,28.4,80.36,140,5,0,30.12,10,28.53
4A6,1/25/16 6:35,28.4,28.4,100,0,0,0,30.15,10,28.4
4A6,1/25/16 6:55,28.4,26.6,92.86,0,0,0,30.15,10,28.4
8A0,1/25/16 6:55,35.6,28.4,74.8,130,6,0,30.11,10,29.87
4A6,1/25/16 7:15,28.4,28.4,100,0,0,0,30.15,10,28.4
8A0,1/25/16 7:15,33.8,28.4,80.36,130,5,0,30.11,10,28.53
4A6,1/25/16 7:35,28.4,28.4,100,0,0,0,30.15,10,28.4
8A0,1/25/16 7:35,33.8,28.4,80.36,130,4,0,30.11,10,29.52
4A6,1/25/16 7:55,28.4,28.4,100,0,0,0,30.15,10,28.4
8A0,1/25/16 7:55,33.8,28.4,80.36,140,5,0,30.11,10,28.53
8A0,1/25/16 8:15,33.8,28.4,80.36,140,5,0,30.11,10,28.53
4A6,1/25/16 8:15,28.4,28.4,100,0,0,0,30.16,10,28.4
4A6,1/25/16 8:35,28.4,28.4,100,0,0,0,30.17,10,28.4
8A0,1/25/16 8:35,33.8,28.4,80.36,130,4,0,30.12,10,29.52
4A6,1/25/16 8:55,28.4,28.4,100,0,0,0,30.16,10,28.4
8A0,1/25/16 8:55,33.8,28.4,80.36,130,4,0,30.12,10,29.52
8A0,1/25/16 9:15,32,28.4,86.39,130,5,0,30.11,10,26.4
4A6,1/25/16 9:15,28.4,28.4,100,0,0,0,30.16,10,28.4
8A0,1/25/16 9:35,33.8,28.4,80.36,130,4,0,30.11,10,29.52
4A6,1/25/16 9:35,26.6,26.6,100,0,0,0,30.16,10,26.6
8A0,1/25/16 9:55,33.8,28.4,80.36,120,4,0,30.12,10,29.52
4A6,1/25/16 9:55,26.6,26.6,100,0,0,0,30.16,10,26.6
4A6,1/25/16 10:15,26.6,26.6,100,0,0,0,30.17,10,26.6
8A0,1/25/16 10:15,32,28.4,86.39,130,5,0,30.12,10,26.4
8A0,1/25/16 10:35,33.8,28.4,80.36,120,3,0,30.13,10,30.75
4A6,1/25/16 10:35,26.6,26.6,100,0,0,0,30.18,10,26.6
8A0,1/25/16 10:55,32,28.4,86.39,110,4,0,30.14,10,27.42
4A6,1/25/16 10:55,26.6,26.6,100,0,0,0,30.18,10,26.6
4A6,1/25/16 11:15,26.6,26.6,100,0,0,0,30.19,10,26.6
8A0,1/25/16 11:15,32,28.4,86.39,120,4,0,30.14,10,27.42
8A0,1/25/16 11:35,32,28.4,86.39,130,5,0,30.16,10,26.4
4A6,1/25/16 11:35,26.6,26.6,100,0,0,0,30.21,10,26.6
4A6,1/25/16 11:55,26.6,26.6,100,0,0,0,30.21,10,26.6
8A0,1/25/16 11:55,32,28.4,86.39,130,4,0,30.17,10,27.42
8A0,1/25/16 12:15,32,28.4,86.39,130,4,0,30.18,10,27.42
4A6,1/25/16 12:15,26.6,26.6,100,0,0,0,30.22,10,26.6
8A0,1/25/16 12:35,32,28.4,86.39,130,4,0,30.19,10,27.42
4A6,1/25/16 12:35,26.6,26.6,100,0,0,0,30.23,10,26.6
8A0,1/25/16 12:55,32,28.4,86.39,130,5,0,30.19,10,26.4
4A6,1/25/16 12:55,24.8,24.8,100,0,0,0,30.24,10,24.8
8A0,1/25/16 13:15,32,28.4,86.39,130,7,0,30.19,10,24.78
4A6,1/25/16 13:15,26.6,26.6,100,0,0,0,30.24,10,26.6
4A6,1/25/16 13:35,26.6,26.6,100,0,0,0,30.24,10,26.6
8A0,1/25/16 13:35,33.8,28.4,80.36,140,6,0,30.2,10,27.7
8A0,1/25/16 13:55,33.8,30.2,86.49,130,4,0,30.2,10,29.52
4A6,1/25/16 13:55,28.4,28.4,100,0,0,0,30.25,10,28.4
4A6,1/25/16 14:15,30.2,28.4,92.92,0,0,0,30.24,10,30.2
8A0,1/25/16 14:15,35.6,30.2,80.51,140,4,0,30.21,10,31.62
4A6,1/25/16 14:35,32,30.2,92.97,0,0,0,30.25,10,32
8A0,1/25/16 14:35,35.6,30.2,80.51,140,5,0,30.2,10,30.67
4A6,1/25/16 14:55,32,30.2,92.97,0,0,0,30.24,10,32
8A0,1/25/16 14:55,37.4,32,80.65,140,4,0,30.2,10,33.73
8A0,1/25/16 15:15,41,32,70.08,160,5,0,30.2,10,37.08
4A6,1/25/16 15:15,35.6,32,86.59,30,3,0,30.25,10,32.8
4A6,1/25/16 15:35,37.4,30.2,74.98,50,3,0,30.24,10,34.86
8A0,1/25/16 15:35,42.8,32,65.38,150,5,0,30.2,10,39.22
4A6,1/25/16 15:55,39.2,30.2,69.88,0,0,0,30.23,10,39.2
8A0,1/25/16 15:55,42.8,32,65.38,170,4,0,30.2,10,40.03
4A6,1/25/16 16:15,42.8,28.4,56.48,0,0,0,30.23,10,42.8
8A0,1/25/16 16:15,44.6,32,61.03,150,6,0,30.19,10,40.71
8A0,1/25/16 16:35,44.6,32,61.03,150,7,0,30.19,10,40.14
4A6,1/25/16 16:35,44.6,28.4,52.72,0,0,0,30.22,10,44.6
4A6,1/25/16 16:55,48.2,28.4,46.02,210,4,0,30.21,10,46.34
8A0,1/25/16 16:55,46.4,32,57,170,6,0,30.2,10,42.87
8A0,1/25/16 17:15,46.4,33.8,61.28,170,7,0,30.19,10,42.33
4A6,1/25/16 17:15,50,26.6,39.95,190,4,0,30.21,10,48.44
4A6,1/25/16 17:35,50,26.6,39.95,220,7,0,30.2,10,46.72
8A0,1/25/16 17:35,46.4,35.6,65.83,190,8,0,30.19,10,41.85
8A0,1/25/16 17:55,48.2,35.6,61.52,180,8,0,30.18,10,44.07
4A6,1/25/16 17:55,50,26.6,39.95,200,6,0,30.19,10,47.21
4A6,1/25/16 18:15,51.8,28.4,40.25,210,8,0,30.18,10,51.8
8A0,1/25/16 18:15,48.2,35.6,61.52,160,6,0,30.17,10,45.04
4A6,1/25/16 18:35,51.8,28.4,40.25,220,8,0,30.18,10,51.8
8A0,1/25/16 18:35,50,37.4,61.76,150,8,0,30.16,10,46.29
8A0,1/25/16 18:55,50,37.4,61.76,150,7,0,30.14,10,46.72
4A6,1/25/16 18:55,51.8,28.4,40.25,200,6,0,30.17,10,51.8
8A0,1/25/16 19:15,51.8,41,66.48,140,8,0,30.13,10,51.8
4A6,1/25/16 19:15,53.6,32,43.61,210,6,0,30.14,10,53.6
4A6,1/25/16 19:35,55.4,32,40.84,190,6,0,30.13,10,55.4
8A0,1/25/16 19:35,51.8,42.8,71.26,150,9,0,30.13,10,51.8
4A6,1/25/16 19:55,55.4,32,40.84,190,7,0,30.13,10,55.4
8A0,1/25/16 19:55,53.6,44.6,71.45,160,8,0,30.12,10,53.6
8A0,1/25/16 20:15,55.4,44.6,66.91,170,10,0,30.11,10,55.4
4A6,1/25/16 20:15,55.4,32,40.84,210,7,0,30.12,10,55.4
4A6,1/25/16 20:35,55.4,35.6,47.16,190,8,0,30.12,10,55.4
8A0,1/25/16 20:35,55.4,44.6,66.91,160,9,0,30.11,10,55.4
4A6,1/25/16 20:55,57.2,37.4,47.44,180,8,0,30.11,10,57.2
8A0,1/25/16 20:55,55.4,46.4,71.64,160,10,0,30.1,10,55.4
8A0,1/25/16 21:15,55.4,46.4,71.64,150,10,0,30.1,10,55.4
4A6,1/25/16 21:15,57.2,39.2,50.91,200,7,0,30.11,10,57.2
4A6,1/25/16 21:35,57.2,39.2,50.91,200,7,0,30.11,10,57.2
8A0,1/25/16 21:35,55.4,46.4,71.64,170,10,0,30.1,10,55.4
8A0,1/25/16 21:55,55.4,46.4,71.64,160,10,0,30.1,10,55.4
4A6,1/25/16 21:55,57.2,39.2,50.91,190,8,0,30.11,10,57.2
8A0,1/25/16 22:15,55.4,44.6,66.91,170,8,0,30.1,10,55.4
4A6,1/25/16 22:15,57.2,39.2,50.91,190,6,0,30.11,10,57.2
4A6,1/25/16 22:35,55.4,39.2,54.34,180,4,0,30.11,10,55.4
8A0,1/25/16 22:35,55.4,44.6,66.91,160,7,0,30.09,10,55.4
4A6,1/25/16 22:55,55.4,39.2,54.34,170,5,0,30.11,10,55.4
8A0,1/25/16 22:55,53.6,44.6,71.45,160,5,0,30.09,10,53.6
4A6,1/25/16 23:15,55.4,39.2,54.34,180,4,0,30.12,10,55.4
8A0,1/25/16 23:15,53.6,44.6,71.45,160,4,0,30.1,10,53.6
8A0,1/25/16 23:35,53.6,44.6,71.45,160,5,0,30.1,10,53.6
4A6,1/25/16 23:35,53.6,37.4,54.07,200,5,0,30.12,10,53.6
8A0,1/25/16 23:55,53.6,46.4,76.5,160,5,0,30.11,10,53.6
4A6,1/25/16 23:55,53.6,37.4,54.07,190,7,0,30.13,10,53.6
8A0,1/26/16 0:15,53.6,46.4,76.5,150,6,0,30.11,10,53.6
4A6,1/26/16 0:15,53.6,39.2,58.02,190,8,0,30.12,10,53.6
4A6,1/26/16 0:35,55.4,39.2,54.34,200,5,0,30.12,10,55.4
8A0,1/26/16 0:35,53.6,46.4,76.5,150,5,0,30.11,10,53.6
4A6,1/26/16 0:55,55.4,39.2,54.34,200,6,0,30.13,10,55.4
8A0,1/26/16 0:55,53.6,46.4,76.5,170,5,0,30.12,10,53.6
8A0,1/26/16 1:15,53.6,46.4,76.5,160,4,0,30.12,10,53.6
4A6,1/26/16 1:15,55.4,39.2,54.34,200,6,0,30.12,10,55.4
4A6,1/26/16 1:35,55.4,39.2,54.34,200,10,0,30.12,10,55.4
8A0,1/26/16 1:35,53.6,46.4,76.5,150,6,0,30.12,10,53.6
8A0,1/26/16 1:55,51.8,46.4,81.74,150,5,0,30.12,10,51.8
4A6,1/26/16 1:55,55.4,39.2,54.34,200,6,0,30.12,10,55.4
8A0,1/26/16 2:15,51.8,44.6,76.34,150,5,0,30.12,10,51.8
4A6,1/26/16 2:15,55.4,39.2,54.34,200,8,0,30.12,10,55.4
8A0,1/26/16 2:35,51.8,44.6,76.34,160,6,0,30.13,10,51.8
4A6,1/26/16 2:35,55.4,39.2,54.34,210,7,0,30.13,10,55.4
4A6,1/26/16 2:55,55.4,39.2,54.34,210,6,0,30.14,10,55.4
8A0,1/26/16 2:55,51.8,44.6,76.34,160,6,0,30.13,10,51.8
4A6,1/26/16 3:15,55.4,39.2,54.34,200,8,0,30.13,10,55.4
8A0,1/26/16 3:15,51.8,46.4,81.74,160,6,0,30.13,10,51.8
4A6,1/26/16 3:35,55.4,41,58.27,190,7,0,30.13,10,55.4
8A0,1/26/16 3:35,51.8,46.4,81.74,160,6,0,30.13,10,51.8
4A6,1/26/16 3:55,55.4,41,58.27,190,10,0,30.13,10,55.4
8A0,1/26/16 3:55,51.8,48.2,87.47,170,9,0,30.13,10,51.8
8A0,1/26/16 4:15,51.8,48.2,87.47,170,11,0,30.12,10,51.8
4A6,1/26/16 4:15,55.4,41,58.27,200,12,0,30.12,10,55.4
4A6,1/26/16 4:35,55.4,41,58.27,220,13,0,30.12,10,55.4
8A0,1/26/16 4:35,51.8,48.2,87.47,170,9,0,30.12,10,51.8
8A0,1/26/16 4:55,51.8,48.2,87.47,170,9,0,30.12,10,51.8
4A6,1/26/16 4:55,55.4,42.8,62.46,210,4,0,30.13,10,55.4
8A0,1/26/16 5:15,51.8,50,93.55,170,7,0,30.12,10,51.8
4A6,1/26/16 5:15,55.4,42.8,62.46,210,7,0,30.13,10,55.4
4A6,1/26/16 5:35,55.4,44.6,66.91,210,6,0,30.13,10,55.4
8A0,1/26/16 5:35,51.8,50,93.55,180,7,0,30.13,10,51.8
8A0,1/26/16 5:55,51.8,50,93.55,180,6,0,30.13,10,51.8
4A6,1/26/16 5:55,55.4,44.6,66.91,220,8,0,30.13,10,55.4
4A6,1/26/16 6:15,53.6,44.6,71.45,200,7,0,30.13,10,53.6
8A0,1/26/16 6:15,51.8,50,93.55,170,4,0,30.13,10,51.8
8A0,1/26/16 6:35,51.8,50,93.55,170,6,0,30.12,10,51.8
4A6,1/26/16 6:35,53.6,42.8,66.7,210,9,0,30.12,10,53.6
8A0,1/26/16 6:55,50,48.2,93.5,160,4,0,30.11,10,48.44
4A6,1/26/16 6:55,53.6,42.8,66.7,210,6,0,30.12,10,53.6
4A6,1/26/16 7:15,53.6,42.8,66.7,210,5,0,30.12,10,53.6
8A0,1/26/16 7:15,51.8,50,93.55,170,7,0,30.11,10,51.8
8A0,1/26/16 7:35,51.8,50,93.55,180,5,0,30.11,10,51.8
4A6,1/26/16 7:35,53.6,44.6,71.45,210,6,0,30.12,10,53.6
8A0,1/26/16 7:55,51.8,50,93.55,190,8,0,30.11,10,51.8
4A6,1/26/16 7:55,53.6,44.6,71.45,220,6,0,30.12,10,53.6
8A0,1/26/16 8:15,51.8,50,93.55,180,9,0,30.1,10,51.8
4A6,1/26/16 8:15,53.6,44.6,71.45,200,6,0,30.11,10,53.6
8A0,1/26/16 8:35,51.8,50,93.55,170,10,0,30.11,10,51.8
4A6,1/26/16 8:35,53.6,44.6,71.45,200,5,0,30.11,10,53.6
8A0,1/26/16 8:55,51.8,50,93.55,190,6,0,30.11,10,51.8
4A6,1/26/16 8:55,53.6,44.6,71.45,200,5,0,30.12,10,53.6
8A0,1/26/16 9:15,51.8,50,93.55,180,9,0,30.1,10,51.8
4A6,1/26/16 9:15,53.6,44.6,71.45,210,6,0,30.11,10,53.6
4A6,1/26/16 9:35,53.6,44.6,71.45,210,9,0,30.11,10,53.6
8A0,1/26/16 9:35,51.8,50,93.55,180,8,0,30.09,10,51.8
4A6,1/26/16 9:55,53.6,44.6,71.45,210,7,0,30.11,10,53.6
8A0,1/26/16 9:55,51.8,50,93.55,190,7,0,30.09,10,51.8
4A6,1/26/16 10:15,53.6,46.4,76.5,220,5,0,30.1,10,53.6
8A0,1/26/16 10:15,51.8,50,93.55,180,7,0,30.09,10,51.8
4A6,1/26/16 10:35,53.6,44.6,71.45,190,4,0,30.1,10,53.6
8A0,1/26/16 10:35,51.8,50,93.55,170,9,0,30.09,10,51.8
4A6,1/26/16 10:55,53.6,44.6,71.45,230,3,0,30.11,10,53.6
8A0,1/26/16 10:55,51.8,50,93.55,170,7,0,30.09,10,51.8
8A0,1/26/16 11:15,51.8,50,93.55,170,8,0,30.09,10,51.8
4A6,1/26/16 11:15,53.6,44.6,71.45,210,7,0,30.11,10,53.6
8A0,1/26/16 11:35,51.8,50,93.55,170,7,0,30.09,10,51.8
4A6,1/26/16 11:35,53.6,44.6,71.45,210,4,0,30.11,10,53.6
8A0,1/26/16 11:55,51.8,50,93.55,180,6,0,30.09,10,51.8
4A6,1/26/16 11:55,53.6,44.6,71.45,210,7,0,30.1,10,53.6
8A0,1/26/16 12:15,51.8,50,93.55,190,7,0,30.1,10,51.8
4A6,1/26/16 12:15,53.6,44.6,71.45,200,7,0,30.11,10,53.6
8A0,1/26/16 12:35,51.8,50,93.55,170,7,0,30.1,10,51.8
4A6,1/26/16 12:35,53.6,46.4,76.5,210,6,0,30.11,10,53.6
4A6,1/26/16 12:55,53.6,46.4,76.5,200,8,0,30.11,10,53.6
8A0,1/26/16 12:55,51.8,50,93.55,180,6,0,30.1,10,51.8
4A6,1/26/16 13:15,51.8,46.4,81.74,230,7,0,30.12,10,51.8
8A0,1/26/16 13:15,51.8,50,93.55,200,7,0,30.11,10,51.8
8A0,1/26/16 13:35,51.8,51.8,100,180,10,0,30.11,10,51.8
4A6,1/26/16 13:35,51.8,46.4,81.74,210,5,0,30.12,10,51.8
4A6,1/26/16 13:55,51.8,46.4,81.74,210,5,0,30.12,9,51.8
8A0,1/26/16 13:55,51.8,51.8,100,180,7,0,30.11,7,51.8
8A0,1/26/16 14:15,51.8,51.8,100,180,8,0,30.11,10,51.8
4A6,1/26/16 14:15,50,50,100,230,5,0.02,30.13,4,47.77
4A6,1/26/16 14:35,50,50,100,290,4,0.02,30.14,10,48.44
8A0,1/26/16 14:35,51.8,51.8,100,180,8,0,30.12,10,51.8
4A6,1/26/16 14:55,50,50,100,310,4,0.03,30.15,5,48.44
8A0,1/26/16 14:55,51.8,51.8,100,170,7,0,30.12,10,51.8
4A6,1/26/16 15:15,50,50,100,260,4,0,30.15,10,48.44
8A0,1/26/16 15:15,53.6,51.8,93.6,170,9,0,30.12,10,53.6
8A0,1/26/16 15:35,53.6,51.8,93.6,180,9,0,30.12,10,53.6
4A6,1/26/16 15:35,50,50,100,0,0,0,30.16,6,50
4A6,1/26/16 15:55,50,50,100,0,0,0.02,30.16,3,50
8A0,1/26/16 15:55,53.6,53.6,100,210,8,0,30.12,10,53.6
4A6,1/26/16 16:15,50,50,100,160,8,0.02,30.15,2.5,46.29
8A0,1/26/16 16:15,53.6,53.6,100,250,6,0,30.14,10,53.6
4A6,1/26/16 16:35,50,50,100,190,4,0.08,30.15,1.25,48.44
8A0,1/26/16 16:35,53.6,53.6,100,250,5,0,30.13,10,53.6
8A0,1/26/16 16:55,53.6,53.6,100,320,3,0,30.13,10,53.6
4A6,1/26/16 16:55,50,50,100,210,4,0.18,30.15,1.75,48.44
8A0,1/26/16 17:15,51.8,51.8,100,330,6,0.06,30.14,3,51.8
4A6,1/26/16 17:15,50,50,100,210,3,0.02,30.14,3,49.27
4A6,1/26/16 17:35,50,50,100,260,3,0.07,30.14,2,49.27
8A0,1/26/16 17:35,50,50,100,0,0,0.16,30.13,2,50
4A6,1/26/16 17:55,50,50,100,230,3,0.11,30.14,2.5,49.27
8A0,1/26/16 17:55,51.8,51.8,100,0,0,0.23,30.12,1.5,51.8
8A0,1/26/16 18:15,51.8,51.8,100,150,3,0.05,30.11,1,51.8
4A6,1/26/16 18:15,50,50,100,180,3,0.02,30.12,2.5,49.27
8A0,1/26/16 18:35,51.8,51.8,100,160,3,0.09,30.11,1.75,51.8
4A6,1/26/16 18:35,50,50,100,0,0,0.05,30.12,3,50
8A0,1/26/16 18:55,51.8,51.8,100,0,0,0.1,30.1,3,51.8
4A6,1/26/16 18:55,50,50,100,210,3,0.08,30.12,2.5,49.27
4A6,1/26/16 19:15,51.8,51.8,100,200,5,0.01,30.1,3,51.8
8A0,1/26/16 19:15,51.8,51.8,100,0,0,0.01,30.1,4,51.8
4A6,1/26/16 19:35,51.8,51.8,100,200,6,0.03,30.09,3,51.8
8A0,1/26/16 19:35,51.8,51.8,100,0,0,0.02,30.09,3,51.8
8A0,1/26/16 19:55,51.8,51.8,100,0,0,0.04,30.09,4,51.8
4A6,1/26/16 19:55,53.6,53.6,100,270,6,0.04,30.11,5,53.6
8A0,1/26/16 20:15,51.8,51.8,100,0,0,0,30.08,3,51.8
4A6,1/26/16 20:15,53.6,53.6,100,0,0,0,30.1,8,53.6
8A0,1/26/16 20:35,51.8,51.8,100,130,4,0,30.08,2,51.8
4A6,1/26/16 20:35,53.6,53.6,100,310,4,0,30.09,7,53.6
4A6,1/26/16 20:55,53.6,53.6,100,250,4,0,30.11,9,53.6
8A0,1/26/16 20:55,51.8,51.8,100,0,0,0.01,30.08,2.5,51.8
4A6,1/26/16 21:15,53.6,53.6,100,0,0,0.01,30.11,5,53.6
8A0,1/26/16 21:15,51.8,51.8,100,200,3,0.01,30.09,2.5,51.8
4A6,1/26/16 21:35,53.6,53.6,100,170,3,0.02,30.1,4,53.6
8A0,1/26/16 21:35,51.8,51.8,100,0,0,0.04,30.09,3,51.8
8A0,1/26/16 21:55,51.8,51.8,100,0,0,0.06,30.09,1,51.8
4A6,1/26/16 21:55,51.8,51.8,100,170,6,0.03,30.09,3,51.8
8A0,1/26/16 22:15,51.8,51.8,100,150,3,0.01,30.1,1.25,51.8
4A6,1/26/16 22:15,51.8,51.8,100,210,3,0.02,30.1,3,51.8
4A6,1/26/16 22:35,51.8,51.8,100,0,0,0.05,30.11,5,51.8
8A0,1/26/16 22:35,51.8,51.8,100,0,0,0.03,30.09,2.5,51.8
8A0,1/26/16 22:55,51.8,51.8,100,0,0,0.04,30.1,2.5,51.8
4A6,1/26/16 22:55,51.8,51.8,100,260,3,0.06,30.11,5,51.8
4A6,1/26/16 23:15,50,50,100,0,0,0.01,30.11,5,50
8A0,1/26/16 23:15,51.8,51.8,100,160,3,0.01,30.11,2.5,51.8
8A0,1/26/16 23:35,51.8,51.8,100,0,0,0.03,30.11,2.5,51.8
4A6,1/26/16 23:35,50,50,100,340,12,0.02,30.13,2.5,44.91
4A6,1/26/16 23:55,46.4,46.4,100,350,7,0.03,30.13,7,42.33
8A0,1/26/16 23:55,51.8,51.8,100,0,0,0.05,30.11,2.5,51.8
8A0,1/27/16 0:15,48.2,48.2,100,0,0,0.02,30.1,5,48.2
4A6,1/27/16 0:15,44.6,44.6,100,10,5,0,30.14,5,41.36
4A6,1/27/16 0:35,44.6,44.6,100,60,4,0.01,30.13,5,42.13
8A0,1/27/16 0:35,46.4,46.4,100,360,8,0.04,30.1,7,41.85
8A0,1/27/16 0:55,44.6,44.6,100,340,9,0.06,30.11,10,39.18
4A6,1/27/16 0:55,44.6,44.6,100,360,8,0.02,30.14,6,39.63
8A0,1/27/16 1:15,44.6,44.6,100,340,12,0.03,30.12,7,38.04
4A6,1/27/16 1:15,44.6,44.6,100,60,3,0.01,30.14,8,43.09
8A0,1/27/16 1:35,42.8,42.8,100,10,6,0.05,30.11,10,38.54
4A6,1/27/16 1:35,44.6,44.6,100,340,3,0.01,30.16,9,43.09
8A0,1/27/16 1:55,42.8,42.8,100,360,7,0.05,30.11,5,37.94
4A6,1/27/16 1:55,44.6,44.6,100,20,5,0.01,30.15,8,41.36
8A0,1/27/16 2:15,42.8,42.8,100,10,7,0,30.11,3,37.94
4A6,1/27/16 2:15,44.6,44.6,100,360,6,0,30.16,7,40.71
4A6,1/27/16 2:35,42.8,42.8,100,10,5,0,30.16,9,39.22
8A0,1/27/16 2:35,42.8,42.8,100,350,5,0,30.12,2,39.22
4A6,1/27/16 2:55,41,41,100,350,6,0,30.16,7,36.37
8A0,1/27/16 2:55,42.8,42.8,100,340,10,0,30.13,1.25,36.51
4A6,1/27/16 3:15,41,41,100,350,7,0,30.18,7,35.75
8A0,1/27/16 3:15,41,41,100,330,7,0,30.14,1,35.75
8A0,1/27/16 3:35,41,41,100,360,9,0,30.13,0.75,34.7
4A6,1/27/16 3:35,41,41,100,360,8,0,30.18,7,35.2
4A6,1/27/16 3:55,41,41,100,10,8,0,30.19,7,35.2
8A0,1/27/16 3:55,41,41,100,330,7,0,30.14,0.75,35.75
8A0,1/27/16 4:15,39.2,39.2,100,340,7,0,30.14,0.75,33.56
4A6,1/27/16 4:15,39.2,39.2,100,360,6,0,30.19,7,34.2
8A0,1/27/16 4:35,39.2,39.2,100,340,8,0,30.14,1,32.98
4A6,1/27/16 4:35,39.2,39.2,100,10,6,0,30.19,7,34.2
4A6,1/27/16 4:55,39.2,39.2,100,360,6,0,30.19,7,34.2
8A0,1/27/16 4:55,39.2,39.2,100,340,7,0,30.14,1,33.56
8A0,1/27/16 5:15,37.4,37.4,100,350,5,0,30.14,0.75,32.81
4A6,1/27/16 5:15,39.2,39.2,100,10,7,0,30.19,7,33.56
8A0,1/27/16 5:35,37.4,37.4,100,330,6,0,30.15,0.75,32.03
4A6,1/27/16 5:35,39.2,39.2,100,20,4,0,30.19,7,35.83
4A6,1/27/16 5:55,39.2,39.2,100,10,5,0,30.19,7,34.95
8A0,1/27/16 5:55,37.4,37.4,100,350,6,0,30.15,1.25,32.03
4A6,1/27/16 6:15,39.2,39.2,100,350,5,0,30.21,7,34.95
8A0,1/27/16 6:15,37.4,37.4,100,340,6,0,30.16,1.25,32.03
4A6,1/27/16 6:35,39.2,37.4,93.19,10,7,0,30.2,8,33.56
8A0,1/27/16 6:35,37.4,37.4,100,350,7,0,30.15,1.75,31.36
4A6,1/27/16 6:55,39.2,37.4,93.19,10,7,0,30.2,9,33.56
8A0,1/27/16 6:55,37.4,37.4,100,350,8,0,30.14,1.75,30.76
8A0,1/27/16 7:15,37.4,37.4,100,350,10,0,30.14,2,29.74
4A6,1/27/16 7:15,37.4,35.6,93.14,360,6,0,30.2,10,32.03
4A6,1/27/16 7:35,37.4,35.6,93.14,10,7,0,30.2,10,31.36
8A0,1/27/16 7:35,37.4,37.4,100,340,5,0,30.16,2.5,32.81
4A6,1/27/16 7:55,37.4,35.6,93.14,10,6,0,30.21,10,32.03
8A0,1/27/16 7:55,37.4,37.4,100,360,8,0,30.16,2.5,30.76
8A0,1/27/16 8:15,37.4,37.4,100,350,9,0,30.15,3,30.23
4A6,1/27/16 8:15,37.4,35.6,93.14,20,6,0,30.2,10,32.03
8A0,1/27/16 8:35,35.6,35.6,100,360,7,0,30.14,4,29.17
4A6,1/27/16 8:35,37.4,33.8,86.69,20,8,0,30.2,10,30.76
8A0,1/27/16 8:55,35.6,35.6,100,360,8,0,30.15,5,28.55
4A6,1/27/16 8:55,37.4,32,80.65,20,9,0,30.2,10,30.23
4A6,1/27/16 9:15,35.6,32,86.59,10,8,0,30.21,10,28.55
8A0,1/27/16 9:15,35.6,35.6,100,10,10,0,30.14,7,27.48
8A0,1/27/16 9:35,35.6,35.6,100,10,11,0,30.15,7,27.02
4A6,1/27/16 9:35,35.6,32,86.59,20,9,0,30.22,10,27.99
4A6,1/27/16 9:55,35.6,32,86.59,20,8,0,30.2,10,28.55
8A0,1/27/16 9:55,35.6,35.6,100,10,8,0,30.15,7,28.55
4A6,1/27/16 10:15,35.6,32,86.59,10,9,0,30.19,10,27.99
8A0,1/27/16 10:15,35.6,35.6,100,10,9,0,30.15,7,27.99
4A6,1/27/16 10:35,35.6,32,86.59,10,6,0,30.2,10,29.87
8A0,1/27/16 10:35,33.8,33.8,100,10,10,0,30.16,7,25.23
4A6,1/27/16 10:55,35.6,32,86.59,20,6,0,30.22,10,29.87
8A0,1/27/16 10:55,33.8,33.8,100,10,9,0,30.17,7,25.75
8A0,1/27/16 11:15,33.8,33.8,100,10,10,0,30.18,7,25.23
4A6,1/27/16 11:15,35.6,32,86.59,20,8,0,30.23,10,28.55
8A0,1/27/16 11:35,33.8,33.8,100,30,12,0,30.16,7,24.29
4A6,1/27/16 11:35,35.6,32,86.59,20,6,0,30.23,10,29.87
8A0,1/27/16 11:55,33.8,33.8,100,10,9,0,30.17,7,25.75
4A6,1/27/16 11:55,35.6,32,86.59,20,8,0,30.23,10,28.55
4A6,1/27/16 12:15,35.6,32,86.59,10,6,0,30.24,10,29.87
8A0,1/27/16 12:15,33.8,33.8,100,20,8,0,30.18,7,26.33
4A6,1/27/16 12:35,35.6,32,86.59,10,8,0,30.24,10,28.55
8A0,1/27/16 12:35,33.8,33.8,100,30,12,0,30.18,7,24.29
8A0,1/27/16 12:55,33.8,33.8,100,10,10,0,30.19,7,25.23
4A6,1/27/16 12:55,35.6,32,86.59,20,8,0,30.24,10,28.55
8A0,1/27/16 13:15,33.8,33.8,100,10,10,0,30.19,7,25.23
4A6,1/27/16 13:15,35.6,32,86.59,30,10,0,30.24,10,27.48
8A0,1/27/16 13:35,33.8,33.8,100,20,7,0,30.19,7,26.97
4A6,1/27/16 13:35,35.6,32,86.59,30,8,0,30.25,10,28.55
4A6,1/27/16 13:55,35.6,30.2,80.51,30,10,0,30.24,10,27.48
8A0,1/27/16 13:55,32,32,100,10,11,0,30.19,7,22.47
8A0,1/27/16 14:15,32,32,100,20,9,0,30.18,7,23.51
4A6,1/27/16 14:15,35.6,30.2,80.51,20,8,0,30.25,10,28.55
4A6,1/27/16 14:35,35.6,30.2,80.51,50,8,0,30.25,10,28.55
8A0,1/27/16 14:35,33.8,33.8,100,20,8,0,30.19,7,26.33
4A6,1/27/16 14:55,35.6,28.4,74.8,40,10,0,30.25,10,27.48
8A0,1/27/16 14:55,33.8,33.8,100,360,13,0,30.2,7,23.87
8A0,1/27/16 15:15,33.8,33.8,100,10,11,0,30.19,10,24.74
4A6,1/27/16 15:15,35.6,30.2,80.51,20,6,0,30.26,10,29.87
4A6,1/27/16 15:35,35.6,28.4,74.8,40,7,0,30.25,10,29.17
8A0,1/27/16 15:35,33.8,33.8,100,20,12,0,30.19,10,24.29
4A6,1/27/16 15:55,35.6,28.4,74.8,30,10,0,30.25,10,27.48
8A0,1/27/16 15:55,35.6,35.6,100,10,8,0,30.19,10,28.55
8A0,1/27/16 16:15,35.6,35.6,100,10,8,0,30.19,10,28.55
4A6,1/27/16 16:15,35.6,28.4,74.8,30,7,0,30.25,10,29.17
4A6,1/27/16 16:35,37.4,28.4,69.67,40,7,0,30.24,10,31.36
8A0,1/27/16 16:35,35.6,35.6,100,20,10,0,30.2,10,27.48
4A6,1/27/16 16:55,39.2,30.2,69.88,50,7,0,30.24,10,33.56
8A0,1/27/16 16:55,35.6,35.6,100,360,8,0,30.19,10,28.55
4A6,1/27/16 17:15,39.2,30.2,69.88,50,6,0,30.23,10,34.2
8A0,1/27/16 17:15,37.4,35.6,93.14,360,8,0,30.18,10,30.76
4A6,1/27/16 17:35,41,32,70.08,50,5,0,30.22,10,37.08
8A0,1/27/16 17:35,37.4,35.6,93.14,10,7,0,30.17,10,31.36
8A0,1/27/16 17:55,37.4,35.6,93.14,10,6,0,30.17,10,32.03
4A6,1/27/16 17:55,41,30.2,65.16,30,6,0,30.21,10,36.37
4A6,1/27/16 18:15,41,32,70.08,50,8,0,30.18,10,35.2
8A0,1/27/16 18:15,39.2,35.6,86.79,360,8,0,30.16,10,32.98
4A6,1/27/16 18:35,42.8,32,65.38,70,7,0,30.18,10,37.94
8A0,1/27/16 18:35,39.2,35.6,86.79,350,9,0,30.14,10,32.47
4A6,1/27/16 18:55,44.6,32,61.03,50,5,0,30.16,10,41.36
8A0,1/27/16 18:55,41,35.6,80.93,10,6,0,30.12,10,36.37
8A0,1/27/16 19:15,41,35.6,80.93,10,9,0,30.12,10,34.7
4A6,1/27/16 19:15,44.6,32,61.03,80,3,0,30.15,10,43.09
8A0,1/27/16 19:35,42.8,37.4,81.07,350,7,0,30.11,10,37.94
4A6,1/27/16 19:35,46.4,32,57,100,7,0,30.15,10,42.33
8A0,1/27/16 19:55,42.8,35.6,75.5,10,10,0,30.1,10,36.51
4A6,1/27/16 19:55,46.4,30.2,53,20,3,0,30.14,10,45.15
8A0,1/27/16 20:15,44.6,37.4,75.68,30,8,0,30.1,10,39.63
4A6,1/27/16 20:15,46.4,30.2,53,60,6,0,30.13,10,42.87
8A0,1/27/16 20:35,44.6,35.6,70.48,330,4,0,30.11,10,42.13
4A6,1/27/16 20:35,48.2,30.2,49.53,40,3,0,30.13,10,47.21
4A6,1/27/16 20:55,48.2,30.2,49.53,10,5,0,30.13,10,45.63
8A0,1/27/16 20:55,44.6,37.4,75.68,340,4,0,30.09,10,42.13
4A6,1/27/16 21:15,48.2,28.4,46.02,10,5,0,30.13,10,45.63
8A0,1/27/16 21:15,44.6,37.4,75.68,340,5,0,30.1,10,41.36
4A6,1/27/16 21:35,48.2,28.4,46.02,40,5,0,30.12,10,45.63
8A0,1/27/16 21:35,44.6,37.4,75.68,340,8,0,30.1,10,39.63
4A6,1/27/16 21:55,48.2,28.4,46.02,330,3,0,30.13,10,47.21
8A0,1/27/16 21:55,44.6,37.4,75.68,340,9,0,30.1,10,39.18
4A6,1/27/16 22:15,48.2,30.2,49.53,40,3,0,30.13,10,47.21
8A0,1/27/16 22:15,44.6,37.4,75.68,330,6,0,30.11,10,40.71
4A6,1/27/16 22:35,48.2,30.2,49.53,350,3,0,30.13,10,47.21
8A0,1/27/16 22:35,42.8,35.6,75.5,340,9,0,30.1,10,36.94
8A0,1/27/16 22:55,41,35.6,80.93,320,6,0,30.11,10,36.37
4A6,1/27/16 22:55,44.6,32,61.03,0,0,0,30.14,10,44.6
4A6,1/27/16 23:15,44.6,32,61.03,330,4,0,30.13,10,42.13
8A0,1/27/16 23:15,41,35.6,80.93,330,6,0,30.11,10,36.37
8A0,1/27/16 23:35,39.2,35.6,86.79,330,6,0,30.11,10,34.2
4A6,1/27/16 23:35,42.8,30.2,60.79,340,5,0,30.15,10,39.22
4A6,1/27/16 23:55,41,30.2,65.16,350,4,0,30.14,10,37.93
8A0,1/27/16 23:55,39.2,35.6,86.79,340,5,0,30.11,10,34.95
8A0,1/28/16 0:15,37.4,35.6,93.14,350,4,0,30.11,10,33.73
4A6,1/28/16 0:15,41,30.2,65.16,10,4,0,30.14,10,37.93
8A0,1/28/16 0:35,37.4,33.8,86.69,340,3,0,30.11,10,34.86
4A6,1/28/16 0:35,39.2,30.2,69.88,20,4,0,30.14,10,35.83
4A6,1/28/16 0:55,37.4,30.2,74.98,10,3,0,30.15,10,34.86
8A0,1/28/16 0:55,37.4,33.8,86.69,340,5,0,30.11,10,32.81
8A0,1/28/16 1:15,37.4,33.8,86.69,350,5,0,30.1,10,32.81
4A6,1/28/16 1:15,37.4,32,80.65,20,4,0,30.15,10,33.73
4A6,1/28/16 1:35,37.4,30.2,74.98,10,4,0,30.14,10,33.73
8A0,1/28/16 1:35,35.6,33.8,93.08,350,5,0,30.1,10,30.67
4A6,1/28/16 1:55,35.6,32,86.59,0,0,0,30.14,10,35.6
8A0,1/28/16 1:55,35.6,33.8,93.08,340,5,0,30.1,10,30.67
4A6,1/28/16 2:15,35.6,32,86.59,0,0,0,30.14,10,35.6
8A0,1/28/16 2:15,35.6,33.8,93.08,350,4,0,30.1,10,31.62
8A0,1/28/16 2:35,35.6,33.8,93.08,0,0,0,30.12,10,35.6
4A6,1/28/16 2:35,33.8,32,93.03,0,0,0,30.14,10,33.8
4A6,1/28/16 2:55,33.8,32,93.03,0,0,0,30.15,10,33.8
8A0,1/28/16 2:55,35.6,33.8,93.08,350,4,0,30.11,10,31.62
4A6,1/28/16 3:15,32,32,100,0,0,0,30.15,10,32
8A0,1/28/16 3:15,35.6,33.8,93.08,360,3,0,30.1,10,32.8
8A0,1/28/16 3:35,35.6,33.8,93.08,350,3,0,30.1,10,32.8
4A6,1/28/16 3:35,32,32,100,0,0,0,30.15,10,32
4A6,1/28/16 3:55,32,32,100,0,0,0,30.14,10,32
8A0,1/28/16 3:55,33.8,33.8,100,350,4,0,30.1,10,29.52
4A6,1/28/16 4:15,32,32,100,0,0,0,30.14,10,32
8A0,1/28/16 4:15,33.8,33.8,100,350,4,0,30.1,10,29.52
4A6,1/28/16 4:35,32,32,100,0,0,0,30.14,10,32
8A0,1/28/16 4:35,33.8,33.8,100,0,0,0,30.1,10,33.8
4A6,1/28/16 4:55,32,32,100,0,0,0,30.13,10,32
8A0,1/28/16 4:55,33.8,33.8,100,20,3,0,30.09,10,30.75
4A6,1/28/16 5:15,30.2,30.2,100,0,0,0,30.13,10,30.2
8A0,1/28/16 5:15,32,32,100,30,3,0,30.09,10,28.69
8A0,1/28/16 5:35,32,32,100,20,4,0,30.08,10,27.42
4A6,1/28/16 5:35,32,32,100,0,0,0,30.12,10,32
4A6,1/28/16 5:55,30.2,30.2,100,0,0,0,30.12,10,30.2
8A0,1/28/16 5:55,32,32,100,10,3,0,30.07,10,28.69
4A6,1/28/16 6:15,30.2,30.2,100,0,0,0,30.11,10,30.2
8A0,1/28/16 6:15,32,32,100,20,3,0,30.07,10,28.69
8A0,1/28/16 6:35,32,32,100,20,3,0,30.06,10,28.69
4A6,1/28/16 6:35,30.2,30.2,100,0,0,0,30.1,9,30.2
8A0,1/28/16 6:55,32,32,100,360,4,0,30.07,10,27.42
4A6,1/28/16 6:55,30.2,30.2,100,0,0,0,30.1,9,30.2
4A6,1/28/16 7:15,28.4,28.4,100,0,0,0,30.1,10,28.4
8A0,1/28/16 7:15,32,32,100,350,3,0,30.07,10,28.69
4A6,1/28/16 7:35,28.4,28.4,100,0,0,0,30.1,10,28.4
8A0,1/28/16 7:35,32,32,100,350,4,0,30.06,10,27.42
4A6,1/28/16 7:55,28.4,28.4,100,0,0,0,30.1,8,28.4
8A0,1/28/16 7:55,32,32,100,360,6,0,30.04,10,25.53
8A0,1/28/16 8:15,32,32,100,10,5,0,30.04,10,26.4
4A6,1/28/16 8:15,28.4,28.4,100,0,0,0,30.09,9,28.4
4A6,1/28/16 8:35,28.4,28.4,100,0,0,0,30.09,7,28.4
8A0,1/28/16 8:35,32,32,100,20,4,0,30.04,10,27.42
8A0,1/28/16 8:55,32,32,100,40,4,0,30.03,10,27.42
4A6,1/28/16 8:55,28.4,28.4,100,0,0,0,30.08,7,28.4
8A0,1/28/16 9:15,30.2,30.2,100,360,3,0,30.04,7,26.63
4A6,1/28/16 9:15,26.6,26.6,100,0,0,0,30.07,8,26.6
8A0,1/28/16 9:35,32,32,100,20,5,0,30.02,7,26.4
4A6,1/28/16 9:35,26.6,26.6,100,0,0,0,30.07,9,26.6
4A6,1/28/16 9:55,26.6,26.6,100,0,0,0,30.06,9,26.6
8A0,1/28/16 9:55,32,32,100,10,6,0,30.01,7,25.53
8A0,1/28/16 10:15,32,32,100,360,4,0,30.02,7,27.42
4A6,1/28/16 10:15,26.6,26.6,100,0,0,0,30.06,10,26.6
4A6,1/28/16 10:35,26.6,26.6,100,0,0,0,30.05,10,26.6
8A0,1/28/16 10:35,32,32,100,0,0,0,30.02,7,32
8A0,1/28/16 10:55,30.2,30.2,100,0,0,0,30.02,5,30.2
4A6,1/28/16 10:55,26.6,26.6,100,0,0,0,30.06,10,26.6
4A6,1/28/16 11:15,26.6,26.6,100,0,0,0,30.07,10,26.6
8A0,1/28/16 11:15,30.2,30.2,100,350,5,0,30.01,5,24.26
8A0,1/28/16 11:35,30.2,30.2,100,0,0,0,30,5,30.2
4A6,1/28/16 11:35,26.6,26.6,100,0,0,0,30.07,8,26.6
4A6,1/28/16 11:55,26.6,26.6,100,360,3,0,30.05,10,22.52
8A0,1/28/16 11:55,30.2,30.2,100,0,0,0,30.01,4,30.2
8A0,1/28/16 12:15,30.2,30.2,100,20,3,0,30,3,26.63
4A6,1/28/16 12:15,26.6,26.6,100,340,3,0,30.05,9,22.52
4A6,1/28/16 12:35,26.6,26.6,100,50,3,0,30.04,8,22.52
8A0,1/28/16 12:35,30.2,30.2,100,0,0,0,30.01,3,30.2
4A6,1/28/16 12:55,26.6,26.6,100,0,0,0,30.06,8,26.6
8A0,1/28/16 12:55,30.2,30.2,100,0,0,0,30.01,4,30.2
8A0,1/28/16 13:15,28.4,28.4,100,320,5,0,30.02,2.5,22.12
4A6,1/28/16 13:15,26.6,26.6,100,0,0,0,30.06,8,26.6
4A6,1/28/16 13:35,26.6,26.6,100,0,0,0,30.06,7,26.6
8A0,1/28/16 13:35,30.2,30.2,100,350,5,0,30.01,2.5,24.26
8A0,1/28/16 13:55,30.2,30.2,100,10,3,0,30.01,4,26.63
4A6,1/28/16 13:55,28.4,28.4,100,0,0,0,30.05,7,28.4
8A0,1/28/16 14:15,32,32,100,20,3,0,30,4,28.69
4A6,1/28/16 14:15,28.4,28.4,100,0,0,0,30.05,5,28.4
4A6,1/28/16 14:35,28.4,28.4,100,0,0,0,30.05,0.25,28.4
8A0,1/28/16 14:35,32,32,100,0,0,0,30.01,4,32
8A0,1/28/16 14:55,32,32,100,360,3,0,30.02,5,28.69
4A6,1/28/16 14:55,30.2,30.2,100,0,0,0,30.04,0.25,30.2
4A6,1/28/16 15:15,30.2,30.2,100,0,0,0,30.05,1,30.2
8A0,1/28/16 15:15,32,32,100,0,0,0,30.02,5,32
8A0,1/28/16 15:35,33.8,33.8,100,0,0,0,30.02,10,33.8
4A6,1/28/16 15:35,32,32,100,0,0,0,30.05,1.25,32
8A0,1/28/16 15:55,37.4,35.6,93.14,0,0,0,30.01,10,37.4
4A6,1/28/16 15:55,32,32,100,0,0,0,30.05,3,32
4A6,1/28/16 16:15,35.6,33.8,93.08,10,3,0,30.04,7,32.8
8A0,1/28/16 16:15,37.4,33.8,86.69,0,0,0,30.01,10,37.4
4A6,1/28/16 16:35,37.4,32,80.65,30,3,0,30.04,10,34.86
8A0,1/28/16 16:35,41,33.8,75.33,0,0,0,30.01,10,41
8A0,1/28/16 16:55,42.8,32,65.38,0,0,0,30,10,42.8
4A6,1/28/16 16:55,39.2,32,75.16,0,0,0,30.03,10,39.2
8A0,1/28/16 17:15,44.6,33.8,65.61,310,6,0,29.99,10,40.71
4A6,1/28/16 17:15,41,32,70.08,0,0,0,30.02,10,41
8A0,1/28/16 17:35,46.4,33.8,61.28,310,5,0,29.97,10,43.5
4A6,1/28/16 17:35,44.6,32,61.03,180,6,0,30,10,40.71
8A0,1/28/16 17:55,46.4,28.4,49.24,320,5,0,29.96,10,43.5
4A6,1/28/16 17:55,44.6,30.2,56.74,180,3,0,29.98,10,43.09
4A6,1/28/16 18:15,46.4,28.4,49.24,180,5,0,29.96,10,43.5
8A0,1/28/16 18:15,46.4,32,57,320,5,0,29.94,10,43.5
8A0,1/28/16 18:35,50,32,49.81,310,6,0,29.92,10,47.21
4A6,1/28/16 18:35,48.2,26.6,42.73,190,4,0,29.94,10,46.34
4A6,1/28/16 18:55,50,26.6,39.95,0,0,0,29.92,10,50
8A0,1/28/16 18:55,51.8,32,46.59,250,5,0,29.91,10,51.8
8A0,1/28/16 19:15,51.8,32,46.59,280,7,0,29.91,10,51.8
4A6,1/28/16 19:15,50,26.6,39.95,170,4,0,29.92,10,48.44
4A6,1/28/16 19:35,51.8,26.6,37.38,190,5,0,29.91,10,51.8
8A0,1/28/16 19:35,51.8,32,46.59,320,7,0,29.89,10,51.8
8A0,1/28/16 19:55,51.8,32,46.59,270,8,0,29.89,10,51.8
4A6,1/28/16 19:55,53.6,24.8,32.46,230,6,0,29.9,10,53.6
4A6,1/28/16 20:15,53.6,24.8,32.46,250,6,0,29.88,10,53.6
8A0,1/28/16 20:15,51.8,32,46.59,290,9,0,29.89,10,51.8
4A6,1/28/16 20:35,55.4,24.8,30.4,260,9,0,29.89,10,55.4
8A0,1/28/16 20:35,53.6,32,43.61,290,11,0,29.88,10,53.6
4A6,1/28/16 20:55,55.4,26.6,32.76,250,9,0,29.88,10,55.4
8A0,1/28/16 20:55,53.6,32,43.61,310,9,0,29.86,10,53.6
8A0,1/28/16 21:15,51.8,33.8,50.08,300,10,0,29.87,10,51.8
4A6,1/28/16 21:15,53.6,26.6,34.98,280,6,0,29.88,10,53.6
4A6,1/28/16 21:35,53.6,26.6,34.98,260,8,0,29.88,10,53.6
8A0,1/28/16 21:35,51.8,33.8,50.08,290,7,0,29.86,10,51.8
4A6,1/28/16 21:55,53.6,26.6,34.98,260,6,0,29.88,10,53.6
8A0,1/28/16 21:55,51.8,33.8,50.08,300,6,0,29.86,10,51.8
8A0,1/28/16 22:15,51.8,33.8,50.08,300,6,0,29.86,10,51.8
4A6,1/28/16 22:15,53.6,28.4,37.67,270,6,0,29.87,10,53.6
4A6,1/28/16 22:35,51.8,26.6,37.38,260,6,0,29.88,10,51.8
8A0,1/28/16 22:35,51.8,35.6,53.81,280,4,0,29.87,10,51.8
8A0,1/28/16 22:55,51.8,33.8,50.08,290,5,0,29.87,10,51.8
4A6,1/28/16 22:55,50,26.6,39.95,260,5,0,29.88,10,47.77
4A6,1/28/16 23:15,50,26.6,39.95,250,4,0,29.88,10,48.44
8A0,1/28/16 23:15,50,35.6,57.52,280,3,0,29.87,10,49.27
4A6,1/28/16 23:35,48.2,26.6,42.73,0,0,0,29.89,10,48.2
8A0,1/28/16 23:35,50,35.6,57.52,270,4,0,29.87,10,48.44
4A6,1/28/16 23:55,46.4,28.4,49.24,170,3,0,29.89,10,45.15
8A0,1/28/16 23:55,46.4,33.8,61.28,270,4,0,29.87,10,44.24
8A0,1/29/16 0:15,46.4,33.8,61.28,260,5,0,29.88,10,43.5
4A6,1/29/16 0:15,46.4,28.4,49.24,190,3,0,29.89,10,45.15
8A0,1/29/16 0:35,46.4,33.8,61.28,250,5,0,29.88,10,43.5
4A6,1/29/16 0:35,42.8,30.2,60.79,190,3,0,29.89,10,41.03
8A0,1/29/16 0:55,44.6,33.8,65.61,250,4,0,29.89,10,42.13
4A6,1/29/16 0:55,39.2,30.2,69.88,0,0,0,29.9,10,39.2
8A0,1/29/16 1:15,44.6,33.8,65.61,250,4,0,29.89,10,42.13
4A6,1/29/16 1:15,39.2,32,75.16,0,0,0,29.89,10,39.2
8A0,1/29/16 1:35,44.6,33.8,65.61,240,5,0,29.89,10,41.36
4A6,1/29/16 1:35,37.4,32,80.65,0,0,0,29.9,10,37.4
8A0,1/29/16 1:55,44.6,33.8,65.61,250,5,0,29.89,10,41.36
4A6,1/29/16 1:55,37.4,32,80.65,0,0,0,29.9,10,37.4
4A6,1/29/16 2:15,37.4,32,80.65,0,0,0,29.9,10,37.4
8A0,1/29/16 2:15,44.6,33.8,65.61,250,5,0,29.89,10,41.36
4A6,1/29/16 2:35,37.4,32,80.65,0,0,0,29.9,10,37.4
8A0,1/29/16 2:35,42.8,33.8,70.28,240,5,0,29.89,10,39.22
4A6,1/29/16 2:55,35.6,32,86.59,0,0,0,29.9,10,35.6
8A0,1/29/16 2:55,42.8,33.8,70.28,250,5,0,29.89,10,39.22
8A0,1/29/16 3:15,41,33.8,75.33,240,5,0,29.89,10,37.08
4A6,1/29/16 3:15,35.6,32,86.59,0,0,0,29.9,10,35.6
8A0,1/29/16 3:35,42.8,33.8,70.28,250,5,0,29.9,10,39.22
4A6,1/29/16 3:35,35.6,32,86.59,0,0,0,29.9,10,35.6
4A6,1/29/16 3:55,35.6,32,86.59,0,0,0,29.9,10,35.6
8A0,1/29/16 3:55,41,33.8,75.33,230,3,0,29.9,10,38.98
8A0,1/29/16 4:15,37.4,33.8,86.69,230,4,0,29.9,10,33.73
4A6,1/29/16 4:15,35.6,32,86.59,0,0,0,29.9,10,35.6
8A0,1/29/16 4:35,39.2,33.8,80.79,240,4,0,29.89,10,35.83
4A6,1/29/16 4:35,37.4,30.2,74.98,0,0,0,29.89,10,37.4
8A0,1/29/16 4:55,39.2,33.8,80.79,260,6,0,29.89,10,34.2
4A6,1/29/16 4:55,37.4,30.2,74.98,0,0,0,29.89,10,37.4
8A0,1/29/16 5:15,39.2,33.8,80.79,260,7,0,29.89,10,33.56
4A6,1/29/16 5:15,39.2,30.2,69.88,0,0,0,29.89,10,39.2
4A6,1/29/16 5:35,37.4,30.2,74.98,0,0,0,29.89,10,37.4
8A0,1/29/16 5:35,37.4,33.8,86.69,260,6,0,29.88,10,32.03
4A6,1/29/16 5:55,37.4,30.2,74.98,0,0,0,29.88,10,37.4
8A0,1/29/16 5:55,39.2,33.8,80.79,260,5,0,29.88,10,34.95
8A0,1/29/16 6:15,39.2,33.8,80.79,240,5,0,29.87,10,34.95
4A6,1/29/16 6:15,35.6,30.2,80.51,130,3,0,29.88,10,32.8
4A6,1/29/16 6:35,35.6,30.2,80.51,140,3,0,29.87,10,32.8
8A0,1/29/16 6:35,35.6,33.8,93.08,220,4,0,29.87,10,31.62
8A0,1/29/16 6:55,37.4,33.8,86.69,250,3,0,29.87,10,34.86
4A6,1/29/16 6:55,35.6,30.2,80.51,130,3,0,29.87,10,32.8
8A0,1/29/16 7:15,37.4,33.8,86.69,240,6,0,29.87,10,32.03
4A6,1/29/16 7:15,35.6,32,86.59,130,3,0,29.88,10,32.8
8A0,1/29/16 7:35,37.4,33.8,86.69,240,4,0,29.86,10,33.73
4A6,1/29/16 7:35,35.6,32,86.59,120,3,0,29.88,10,32.8
4A6,1/29/16 7:55,37.4,32,80.65,0,0,0,29.88,10,37.4
8A0,1/29/16 7:55,37.4,33.8,86.69,250,6,0,29.86,10,32.03
4A6,1/29/16 8:15,33.8,32,93.03,0,0,0,29.89,10,33.8
8A0,1/29/16 8:15,37.4,35.6,93.14,250,5,0,29.87,10,32.81
4A6,1/29/16 8:35,32,32,100,0,0,0,29.88,10,32
8A0,1/29/16 8:35,37.4,33.8,86.69,250,4,0,29.87,10,33.73
4A6,1/29/16 8:55,33.8,32,93.03,150,3,0,29.89,10,30.75
8A0,1/29/16 8:55,37.4,35.6,93.14,240,5,0,29.88,10,32.81
4A6,1/29/16 9:15,33.8,32,93.03,180,3,0,29.89,10,30.75
8A0,1/29/16 9:15,37.4,35.6,93.14,250,5,0,29.88,10,32.81
4A6,1/29/16 9:35,39.2,32,75.16,200,4,0,29.9,10,35.83
8A0,1/29/16 9:35,35.6,35.6,100,260,5,0,29.88,10,30.67
4A6,1/29/16 9:55,35.6,32,86.59,200,3,0,29.91,10,32.8
8A0,1/29/16 9:55,35.6,33.8,93.08,260,5,0,29.89,10,30.67
8A0,1/29/16 10:15,35.6,33.8,93.08,250,5,0,29.89,10,30.67
4A6,1/29/16 10:15,32,32,100,0,0,0,29.91,10,32
4A6,1/29/16 10:35,32,32,100,220,4,0,29.92,10,27.42
8A0,1/29/16 10:35,35.6,33.8,93.08,260,4,0,29.9,10,31.62
8A0,1/29/16 10:55,35.6,33.8,93.08,270,5,0,29.91,10,30.67
4A6,1/29/16 10:55,32,32,100,240,3,0,29.93,10,28.69
8A0,1/29/16 11:15,33.8,33.8,100,270,6,0,29.92,10,27.7
4A6,1/29/16 11:15,32,32,100,0,0,0,29.93,10,32
8A0,1/29/16 11:35,33.8,33.8,100,270,5,0,29.92,10,28.53
4A6,1/29/16 11:35,30.2,30.2,100,0,0,0,29.94,10,30.2
8A0,1/29/16 11:55,33.8,33.8,100,280,5,0,29.93,10,28.53
4A6,1/29/16 11:55,32,32,100,0,0,0,29.96,10,32
4A6,1/29/16 12:15,30.2,30.2,100,0,0,0,29.97,10,30.2
8A0,1/29/16 12:15,33.8,33.8,100,270,5,0,29.95,10,28.53
4A6,1/29/16 12:35,35.6,32,86.59,350,4,0,29.98,10,31.62
8A0,1/29/16 12:35,33.8,33.8,100,270,5,0,29.96,10,28.53
4A6,1/29/16 12:55,33.8,32,93.03,0,0,0,29.99,10,33.8
8A0,1/29/16 12:55,33.8,33.8,100,280,4,0,29.96,10,29.52
8A0,1/29/16 13:15,33.8,33.8,100,270,5,0,29.97,10,28.53
4A6,1/29/16 13:15,33.8,30.2,86.49,0,0,0,30,10,33.8
8A0,1/29/16 13:35,33.8,33.8,100,290,5,0,29.98,10,28.53
4A6,1/29/16 13:35,35.6,32,86.59,0,0,0,30.01,10,35.6
4A6,1/29/16 13:55,37.4,32,80.65,360,4,0,30.03,10,33.73
8A0,1/29/16 13:55,37.4,35.6,93.14,300,4,0,30,10,33.73
8A0,1/29/16 14:15,37.4,35.6,93.14,320,7,0,30.01,10,31.36
4A6,1/29/16 14:15,41,30.2,65.16,10,5,0,30.03,10,37.08
4A6,1/29/16 14:35,41,30.2,65.16,350,4,0,30.04,10,37.93
8A0,1/29/16 14:35,41,35.6,80.93,320,10,0,30.02,10,34.25
4A6,1/29/16 14:55,42.8,28.4,56.48,330,7,0,30.05,10,37.94
8A0,1/29/16 14:55,41,35.6,80.93,360,10,0,30.02,10,34.25
4A6,1/29/16 15:15,42.8,28.4,56.48,330,8,0,30.06,10,37.42
8A0,1/29/16 15:15,41,35.6,80.93,340,10,0,30.03,10,34.25
4A6,1/29/16 15:35,44.6,28.4,52.72,330,8,0,30.06,10,39.63
8A0,1/29/16 15:35,42.8,35.6,75.5,330,10,0,30.03,10,36.51
4A6,1/29/16 15:55,44.6,26.6,48.96,330,7,0,30.06,10,40.14
8A0,1/29/16 15:55,42.8,35.6,75.5,340,12,0,30.03,10,35.75
4A6,1/29/16 16:15,44.6,26.6,48.96,330,5,0,30.06,10,41.36
8A0,1/29/16 16:15,44.6,35.6,70.48,330,7,0,30.03,10,40.14
4A6,1/29/16 16:35,46.4,26.6,45.73,60,3,0,30.06,10,45.15
8A0,1/29/16 16:35,44.6,35.6,70.48,310,7,0,30.03,10,40.14
4A6,1/29/16 16:55,46.4,26.6,45.73,10,5,0,30.05,10,43.5
8A0,1/29/16 16:55,44.6,35.6,70.48,310,8,0,30.03,10,39.63
4A6,1/29/16 17:15,48.2,26.6,42.73,340,6,0,30.04,10,45.04
8A0,1/29/16 17:15,44.6,35.6,70.48,300,7,0,30.03,10,40.14
8A0,1/29/16 17:35,46.4,35.6,65.83,310,7,0,30.02,10,42.33
4A6,1/29/16 17:35,48.2,26.6,42.73,340,4,0,30.04,10,46.34
8A0,1/29/16 17:55,46.4,35.6,65.83,340,6,0,30.01,10,42.87
4A6,1/29/16 17:55,48.2,26.6,42.73,360,6,0,30.03,10,45.04
8A0,1/29/16 18:15,48.2,35.6,61.52,320,6,0,30,10,45.04
4A6,1/29/16 18:15,50,26.6,39.95,60,4,0,30.02,10,48.44
4A6,1/29/16 18:35,50,24.8,37.08,320,6,0,30.02,10,47.21
8A0,1/29/16 18:35,48.2,35.6,61.52,340,4,0,30,10,46.34
8A0,1/29/16 18:55,50,33.8,53.54,290,9,0,30,10,45.9
4A6,1/29/16 18:55,51.8,24.8,34.69,340,5,0,30.01,10,51.8
8A0,1/29/16 19:15,50,35.6,57.52,300,8,0,30,10,46.29
4A6,1/29/16 19:15,51.8,23,32.17,340,7,0,30.01,10,51.8
8A0,1/29/16 19:35,50,35.6,57.52,360,8,0,29.99,10,46.29
4A6,1/29/16 19:35,53.6,23,30.11,350,6,0,30,10,53.6
4A6,1/29/16 19:55,53.6,24.8,32.46,340,5,0,30,10,53.6
8A0,1/29/16 19:55,50,35.6,57.52,330,3,0,29.98,10,49.27
8A0,1/29/16 20:15,51.8,35.6,53.81,330,6,0,29.99,10,51.8
4A6,1/29/16 20:15,53.6,26.6,34.98,240,8,0,30,10,53.6
8A0,1/29/16 20:35,51.8,35.6,53.81,310,6,0,29.99,10,51.8
4A6,1/29/16 20:35,53.6,26.6,34.98,310,4,0,30,10,53.6
4A6,1/29/16 20:55,53.6,26.6,34.98,260,4,0,30.01,10,53.6
8A0,1/29/16 20:55,51.8,35.6,53.81,260,7,0,29.99,10,51.8
4A6,1/29/16 21:15,53.6,26.6,34.98,220,4,0,30.01,10,53.6
8A0,1/29/16 21:15,51.8,35.6,53.81,250,4,0,29.99,10,51.8
8A0,1/29/16 21:35,51.8,35.6,53.81,350,3,0,29.99,10,51.8
4A6,1/29/16 21:35,53.6,26.6,34.98,220,4,0,30.01,10,53.6
8A0,1/29/16 21:55,51.8,35.6,53.81,270,6,0,30,10,51.8
4A6,1/29/16 21:55,53.6,26.6,34.98,260,6,0,30.01,10,53.6
8A0,1/29/16 22:15,51.8,33.8,50.08,260,5,0,30,10,51.8
4A6,1/29/16 22:15,53.6,24.8,32.46,250,6,0,30.01,10,53.6
8A0,1/29/16 22:35,51.8,35.6,53.81,270,6,0,30,10,51.8
4A6,1/29/16 22:35,51.8,24.8,34.69,250,5,0,30.02,10,51.8
4A6,1/29/16 22:55,50,26.6,39.95,240,6,0,30.03,10,47.21
8A0,1/29/16 22:55,50,33.8,53.54,280,5,0,30.01,10,47.77
4A6,1/29/16 23:15,50,26.6,39.95,260,5,0,30.03,10,47.77
8A0,1/29/16 23:15,50,33.8,53.54,290,4,0,30.02,10,48.44
4A6,1/29/16 23:35,48.2,26.6,42.73,0,0,0,30.04,10,48.2
8A0,1/29/16 23:35,46.4,33.8,61.28,0,0,0,30.02,10,46.4
8A0,1/29/16 23:55,46.4,33.8,61.28,350,4,0,30.02,10,44.24
4A6,1/29/16 23:55,46.4,26.6,45.73,0,0,0,30.05,10,46.4
8A0,1/30/16 0:15,44.6,33.8,65.61,350,3,0,30.02,10,43.09
4A6,1/30/16 0:15,46.4,26.6,45.73,0,0,0,30.05,10,46.4
8A0,1/30/16 0:35,42.8,33.8,70.28,30,3,0,30.03,10,41.03
4A6,1/30/16 0:35,41,28.4,60.54,0,0,0,30.06,10,41
4A6,1/30/16 0:55,41,28.4,60.54,0,0,0,30.05,10,41
8A0,1/30/16 0:55,42.8,33.8,70.28,30,3,0,30.03,10,41.03
4A6,1/30/16 1:15,39.2,30.2,69.88,0,0,0,30.06,10,39.2
8A0,1/30/16 1:15,42.8,33.8,70.28,10,4,0,30.03,10,40.03
8A0,1/30/16 1:35,42.8,33.8,70.28,10,4,0,30.03,10,40.03
4A6,1/30/16 1:35,37.4,30.2,74.98,0,0,0,30.06,10,37.4
8A0,1/30/16 1:55,42.8,33.8,70.28,30,3,0,30.03,10,41.03
4A6,1/30/16 1:55,37.4,30.2,74.98,0,0,0,30.06,10,37.4
8A0,1/30/16 2:15,39.2,33.8,80.79,0,0,0,30.04,10,39.2
4A6,1/30/16 2:15,35.6,30.2,80.51,0,0,0,30.05,10,35.6
4A6,1/30/16 2:35,35.6,30.2,80.51,0,0,0,30.06,10,35.6
8A0,1/30/16 2:35,39.2,33.8,80.79,130,4,0,30.03,10,35.83
8A0,1/30/16 2:55,39.2,33.8,80.79,110,4,0,30.03,10,35.83
4A6,1/30/16 2:55,35.6,32,86.59,0,0,0,30.06,10,35.6
8A0,1/30/16 3:15,39.2,33.8,80.79,110,4,0,30.03,10,35.83
4A6,1/30/16 3:15,35.6,30.2,80.51,0,0,0,30.06,10,35.6
4A6,1/30/16 3:35,33.8,32,93.03,0,0,0,30.06,10,33.8
8A0,1/30/16 3:35,39.2,33.8,80.79,120,3,0,30.03,10,36.92
4A6,1/30/16 3:55,33.8,32,93.03,0,0,0,30.06,10,33.8
8A0,1/30/16 3:55,37.4,33.8,86.69,120,3,0,30.03,10,34.86
4A6,1/30/16 4:15,32,32,100,0,0,0,30.05,10,32
8A0,1/30/16 4:15,37.4,33.8,86.69,110,5,0,30.03,10,32.81
8A0,1/30/16 4:35,41,33.8,75.33,110,5,0,30.02,10,37.08
4A6,1/30/16 4:35,32,32,100,0,0,0,30.06,10,32
4A6,1/30/16 4:55,32,30.2,92.97,0,0,0,30.05,10,32
8A0,1/30/16 4:55,39.2,33.8,80.79,100,3,0,30.02,10,36.92
8A0,1/30/16 5:15,39.2,33.8,80.79,120,5,0,30.03,10,34.95
4A6,1/30/16 5:15,32,32,100,0,0,0,30.05,10,32
8A0,1/30/16 5:35,41,33.8,75.33,120,5,0,30.03,10,37.08
4A6,1/30/16 5:35,32,32,100,0,0,0,30.07,10,32
4A6,1/30/16 5:55,32,32,100,0,0,0,30.07,10,32
8A0,1/30/16 5:55,39.2,33.8,80.79,130,5,0,30.03,10,34.95
4A6,1/30/16 6:15,32,30.2,92.97,0,0,0,30.06,10,32
8A0,1/30/16 6:15,39.2,33.8,80.79,120,5,0,30.03,10,34.95
8A0,1/30/16 6:35,39.2,33.8,80.79,130,5,0,30.03,10,34.95
4A6,1/30/16 6:35,32,30.2,92.97,0,0,0,30.06,10,32
4A6,1/30/16 6:55,32,30.2,92.97,0,0,0,30.06,10,32
8A0,1/30/16 6:55,41,33.8,75.33,120,5,0,30.02,10,37.08
4A6,1/30/16 7:15,30.2,30.2,100,0,0,0,30.06,10,30.2
8A0,1/30/16 7:15,41,33.8,75.33,130,5,0,30.02,10,37.08
8A0,1/30/16 7:35,39.2,33.8,80.79,130,5,0,30.01,10,34.95
4A6,1/30/16 7:35,30.2,30.2,100,0,0,0,30.05,10,30.2
4A6,1/30/16 7:55,30.2,30.2,100,0,0,0,30.05,10,30.2
8A0,1/30/16 7:55,39.2,33.8,80.79,140,5,0,30.01,10,34.95
4A6,1/30/16 8:15,28.4,28.4,100,0,0,0,30.05,10,28.4
8A0,1/30/16 8:15,41,33.8,75.33,140,7,0,30.01,10,35.75
4A6,1/30/16 8:35,30.2,30.2,100,0,0,0,30.05,10,30.2
8A0,1/30/16 8:35,41,33.8,75.33,140,7,0,30.01,10,35.75
4A6,1/30/16 8:55,28.4,28.4,100,0,0,0,30.05,10,28.4
8A0,1/30/16 8:55,41,33.8,75.33,140,7,0,30.01,10,35.75
4A6,1/30/16 9:15,28.4,28.4,100,0,0,0,30.04,10,28.4
8A0,1/30/16 9:15,41,33.8,75.33,140,5,0,30.01,10,37.08
8A0,1/30/16 9:35,41,33.8,75.33,150,8,0,30,10,35.2
4A6,1/30/16 9:35,28.4,28.4,100,0,0,0,30.05,10,28.4
4A6,1/30/16 9:55,28.4,28.4,100,0,0,0,30.05,10,28.4
8A0,1/30/16 9:55,41,33.8,75.33,140,7,0,30.01,10,35.75
8A0,1/30/16 10:15,41,33.8,75.33,140,7,0,30,10,35.75
4A6,1/30/16 10:15,28.4,28.4,100,0,0,0,30.04,10,28.4
8A0,1/30/16 10:35,41,33.8,75.33,130,6,0,30,10,36.37
4A6,1/30/16 10:35,28.4,28.4,100,0,0,0,30.05,10,28.4
4A6,1/30/16 10:55,28.4,28.4,100,0,0,0,30.06,10,28.4
8A0,1/30/16 10:55,41,33.8,75.33,130,5,0,30,10,37.08
8A0,1/30/16 11:15,39.2,33.8,80.79,100,3,0,30.02,10,36.92
4A6,1/30/16 11:15,28.4,28.4,100,60,3,0,30.08,10,24.57
8A0,1/30/16 11:35,39.2,33.8,80.79,100,3,0,30.03,10,36.92
4A6,1/30/16 11:35,28.4,28.4,100,0,0,0,30.07,10,28.4
8A0,1/30/16 11:55,37.4,33.8,86.69,80,3,0,30.04,10,34.86
4A6,1/30/16 11:55,28.4,28.4,100,0,0,0,30.09,10,28.4
4A6,1/30/16 12:15,28.4,28.4,100,0,0,0,30.1,10,28.4
8A0,1/30/16 12:15,37.4,33.8,86.69,120,5,0,30.06,10,32.81
4A6,1/30/16 12:35,28.4,28.4,100,0,0,0,30.1,10,28.4
8A0,1/30/16 12:35,37.4,33.8,86.69,130,6,0,30.06,10,32.03
4A6,1/30/16 12:55,28.4,28.4,100,0,0,0,30.1,10,28.4
8A0,1/30/16 12:55,37.4,33.8,86.69,130,5,0,30.07,10,32.81
8A0,1/30/16 13:15,37.4,33.8,86.69,140,6,0,30.07,10,32.03
4A6,1/30/16 13:15,28.4,28.4,100,0,0,0,30.1,10,28.4
8A0,1/30/16 13:35,41,35.6,80.93,150,6,0,30.07,10,36.37
4A6,1/30/16 13:35,30.2,30.2,100,0,0,0,30.1,10,30.2
4A6,1/30/16 13:55,32,32,100,0,0,0,30.11,10,32
8A0,1/30/16 13:55,42.8,35.6,75.5,140,6,0,30.07,10,38.54
8A0,1/30/16 14:15,44.6,37.4,75.68,140,6,0,30.07,10,40.71
4A6,1/30/16 14:15,32,32,100,0,0,0,30.1,10,32
4A6,1/30/16 14:35,35.6,32,86.59,0,0,0,30.09,10,35.6
8A0,1/30/16 14:35,46.4,37.4,70.68,150,7,0,30.07,10,42.33
4A6,1/30/16 14:55,39.2,32,75.16,0,0,0,30.1,10,39.2
8A0,1/30/16 14:55,48.2,37.4,66.05,150,8,0,30.07,10,44.07
8A0,1/30/16 15:15,50,39.2,66.27,150,8,0,30.08,10,46.29
4A6,1/30/16 15:15,41,33.8,75.33,0,0,0,30.1,10,41
4A6,1/30/16 15:35,44.6,32,61.03,0,0,0,30.1,10,44.6
8A0,1/30/16 15:35,51.8,41,66.48,160,6,0,30.09,10,51.8
4A6,1/30/16 15:55,46.4,33.8,61.28,0,0,0,30.09,10,46.4
8A0,1/30/16 15:55,53.6,42.8,66.7,160,6,0,30.08,10,53.6
4A6,1/30/16 16:15,50,33.8,53.54,260,3,0,30.08,10,49.27
8A0,1/30/16 16:15,53.6,42.8,66.7,180,7,0,30.07,10,53.6
8A0,1/30/16 16:35,55.4,44.6,66.91,170,7,0,30.06,10,55.4
4A6,1/30/16 16:35,53.6,35.6,50.36,220,5,0,30.07,10,53.6
4A6,1/30/16 16:55,55.4,35.6,47.16,260,4,0,30.06,10,55.4
8A0,1/30/16 16:55,57.2,42.8,58.52,190,7,0,30.05,10,57.2
4A6,1/30/16 17:15,57.2,35.6,44.19,230,6,0,30.05,10,57.2
8A0,1/30/16 17:15,59,44.6,58.77,190,6,0,30.05,10,59
8A0,1/30/16 17:35,60.8,44.6,55.12,220,14,0,30.04,10,60.8
4A6,1/30/16 17:35,59,35.6,41.42,240,10,0,30.04,10,59
8A0,1/30/16 17:55,62.6,42.8,48.28,220,12,0,30.03,10,62.6
4A6,1/30/16 17:55,60.8,35.6,38.85,240,12,0,30.04,10,60.8
8A0,1/30/16 18:15,62.6,42.8,48.28,210,12,0,30.02,10,62.6
4A6,1/30/16 18:15,62.6,35.6,36.45,240,12,0,30.02,10,62.6
4A6,1/30/16 18:35,62.6,35.6,36.45,210,11,0,30.01,10,62.6
8A0,1/30/16 18:35,62.6,42.8,48.28,210,10,0,30,10,62.6
4A6,1/30/16 18:55,62.6,35.6,36.45,220,9,0,29.99,10,62.6
8A0,1/30/16 18:55,64.4,42.8,45.32,190,13,0,29.99,10,64.4
8A0,1/30/16 19:15,64.4,41,42.28,220,15,0,29.98,10,64.4
4A6,1/30/16 19:15,64.4,35.6,34.22,230,13,0,29.98,10,64.4
4A6,1/30/16 19:35,64.4,35.6,34.22,220,11,0,29.97,10,64.4
8A0,1/30/16 19:35,64.4,41,42.28,200,14,0,29.97,10,64.4
4A6,1/30/16 19:55,66.2,35.6,32.14,220,8,0,29.95,10,66.2
8A0,1/30/16 19:55,64.4,39.2,39.43,210,17,0,29.96,10,64.4
8A0,1/30/16 20:15,64.4,41,42.28,190,12,0,29.95,10,64.4
4A6,1/30/16 20:15,66.2,32,27.83,200,10,0,29.95,10,66.2
8A0,1/30/16 20:35,64.4,41,42.28,200,13,0,29.95,10,64.4
4A6,1/30/16 20:35,66.2,33.8,29.92,220,12,0,29.96,10,66.2
8A0,1/30/16 20:55,64.4,41,42.28,200,10,0,29.95,10,64.4
4A6,1/30/16 20:55,66.2,33.8,29.92,190,10,0,29.95,10,66.2
4A6,1/30/16 21:15,68,32,26.15,210,7,0,29.94,10,68
8A0,1/30/16 21:15,66.2,41,39.72,190,11,0,29.95,10,66.2
4A6,1/30/16 21:35,66.2,32,27.83,220,9,0,29.94,10,66.2
8A0,1/30/16 21:35,64.4,41,42.28,200,11,0,29.95,10,64.4
8A0,1/30/16 21:55,64.4,41,42.28,180,11,0,29.95,10,64.4
4A6,1/30/16 21:55,66.2,32,27.83,200,7,0,29.95,10,66.2
4A6,1/30/16 22:15,66.2,33.8,29.92,200,8,0,29.96,10,66.2
8A0,1/30/16 22:15,64.4,41,42.28,200,9,0,29.97,10,64.4
4A6,1/30/16 22:35,64.4,35.6,34.22,200,7,0,29.96,10,64.4
8A0,1/30/16 22:35,62.6,41,45.04,190,8,0,29.97,10,62.6
8A0,1/30/16 22:55,62.6,41,45.04,190,10,0,29.97,10,62.6
4A6,1/30/16 22:55,64.4,35.6,34.22,200,8,0,29.96,10,64.4
8A0,1/30/16 23:15,60.8,41,48,180,8,0,29.97,10,60.8
4A6,1/30/16 23:15,62.6,35.6,36.45,200,6,0,29.97,10,62.6
8A0,1/30/16 23:35,59,41,51.18,170,7,0,29.98,10,59
4A6,1/30/16 23:35,60.8,35.6,38.85,210,5,0,29.98,10,60.8
4A6,1/30/16 23:55,60.8,35.6,38.85,220,4,0,29.98,10,60.8
8A0,1/30/16 23:55,59,41,51.18,170,8,0,29.99,10,59
4A6,1/31/16 0:15,59,33.8,38.56,230,5,0,29.99,10,59
8A0,1/31/16 0:15,59,42.8,54.86,180,9,0,29.99,10,59
8A0,1/31/16 0:35,57.2,42.8,58.52,180,9,0,30,10,57.2
4A6,1/31/16 0:35,59,32,35.87,220,6,0,30,10,59
4A6,1/31/16 0:55,59,33.8,38.56,230,6,0,30,10,59
8A0,1/31/16 0:55,57.2,42.8,58.52,180,9,0,30,10,57.2
8A0,1/31/16 1:15,57.2,44.6,62.69,180,8,0,30,10,57.2
4A6,1/31/16 1:15,59,35.6,41.42,230,7,0,30,10,59
4A6,1/31/16 1:35,59,35.6,41.42,250,6,0,30.01,10,59
8A0,1/31/16 1:35,55.4,44.6,66.91,170,6,0,30,10,55.4
8A0,1/31/16 1:55,55.4,44.6,66.91,160,7,0,30.01,10,55.4
4A6,1/31/16 1:55,57.2,35.6,44.19,230,7,0,30.01,10,57.2
4A6,1/31/16 2:15,57.2,37.4,47.44,230,5,0,30.02,10,57.2
8A0,1/31/16 2:15,55.4,44.6,66.91,160,6,0,30,10,55.4
4A6,1/31/16 2:35,57.2,35.6,44.19,200,5,0,30.02,10,57.2
8A0,1/31/16 2:35,53.6,44.6,71.45,160,6,0,30.01,10,53.6
8A0,1/31/16 2:55,55.4,44.6,66.91,170,8,0,30,10,55.4
4A6,1/31/16 2:55,55.4,35.6,47.16,210,4,0,30.02,10,55.4
8A0,1/31/16 3:15,53.6,44.6,71.45,180,8,0,30,10,53.6
4A6,1/31/16 3:15,57.2,35.6,44.19,220,6,0,30.01,10,57.2
8A0,1/31/16 3:35,55.4,46.4,71.64,180,8,0,30,10,55.4
4A6,1/31/16 3:35,57.2,37.4,47.44,220,8,0,30.01,10,57.2
4A6,1/31/16 3:55,55.4,37.4,50.64,230,6,0,30.01,10,55.4
8A0,1/31/16 3:55,55.4,46.4,71.64,180,8,0,30,10,55.4
8A0,1/31/16 4:15,53.6,46.4,76.5,170,9,0,30,10,53.6
4A6,1/31/16 4:15,55.4,37.4,50.64,230,6,0,30.01,10,55.4
8A0,1/31/16 4:35,53.6,46.4,76.5,180,9,0,30,10,53.6
4A6,1/31/16 4:35,55.4,37.4,50.64,220,5,0,30.01,10,55.4
4A6,1/31/16 4:55,55.4,37.4,50.64,220,6,0,30.01,10,55.4
8A0,1/31/16 4:55,53.6,46.4,76.5,180,8,0,30,10,53.6
4A6,1/31/16 5:15,53.6,37.4,54.07,220,6,0,30.01,10,53.6
8A0,1/31/16 5:15,53.6,46.4,76.5,180,8,0,30,10,53.6
8A0,1/31/16 5:35,53.6,48.2,81.87,180,9,0,30,10,53.6
4A6,1/31/16 5:35,55.4,39.2,54.34,220,6,0,30.01,10,55.4
4A6,1/31/16 5:55,53.6,39.2,58.02,210,5,0,30.01,10,53.6
8A0,1/31/16 5:55,53.6,48.2,81.87,170,8,0,30,10,53.6
4A6,1/31/16 6:15,51.8,39.2,61.99,220,6,0,30.01,10,51.8
8A0,1/31/16 6:15,51.8,48.2,87.47,170,7,0,30,10,51.8
4A6,1/31/16 6:35,53.6,41,62.23,200,6,0,30.01,10,53.6
8A0,1/31/16 6:35,51.8,48.2,87.47,170,6,0,30,10,51.8
4A6,1/31/16 6:55,53.6,41,62.23,210,7,0,30.01,10,53.6
8A0,1/31/16 6:55,50,46.4,87.37,170,5,0,30,10,47.77
4A6,1/31/16 7:15,50,41,71.07,220,3,0,30.01,10,49.27
8A0,1/31/16 7:15,50,48.2,93.5,160,4,0,30,10,48.44
8A0,1/31/16 7:35,50,48.2,93.5,150,6,0,30,10,47.21
4A6,1/31/16 7:35,50,42.8,76.18,220,5,0,30.01,10,47.77
8A0,1/31/16 7:55,50,48.2,93.5,150,6,0,29.99,10,47.21
4A6,1/31/16 7:55,53.6,44.6,71.45,220,7,0,30,10,53.6
8A0,1/31/16 8:15,50,50,100,150,6,0,29.99,10,47.21
4A6,1/31/16 8:15,51.8,44.6,76.34,220,6,0,30,10,51.8
8A0,1/31/16 8:35,48.2,48.2,100,150,5,0,29.99,10,45.63
4A6,1/31/16 8:35,50,44.6,81.61,220,5,0,30,10,47.77
4A6,1/31/16 8:55,50,44.6,81.61,230,5,0,30.01,10,47.77
8A0,1/31/16 8:55,48.2,48.2,100,170,7,0,29.99,10,44.53
4A6,1/31/16 9:15,48.2,44.6,87.28,240,5,0,30.01,10,45.63
8A0,1/31/16 9:15,50,50,100,180,8,0,29.99,10,46.29
4A6,1/31/16 9:35,48.2,44.6,87.28,250,4,0,30.01,10,46.34
8A0,1/31/16 9:35,50,50,100,190,8,0,29.99,10,46.29
8A0,1/31/16 9:55,51.8,51.8,100,190,8,0,29.99,10,51.8
4A6,1/31/16 9:55,50,44.6,81.61,230,4,0,30.01,10,48.44
8A0,1/31/16 10:15,51.8,51.8,100,190,8,0,29.99,10,51.8
4A6,1/31/16 10:15,50,44.6,81.61,230,5,0,30.01,10,47.77
8A0,1/31/16 10:35,51.8,51.8,100,190,7,0,30,10,51.8
4A6,1/31/16 10:35,50,46.4,87.37,240,4,0,30.01,10,48.44
4A6,1/31/16 10:55,50,46.4,87.37,230,5,0,30.01,10,47.77
8A0,1/31/16 10:55,53.6,51.8,93.6,190,7,0,30,10,53.6
4A6,1/31/16 11:15,51.8,46.4,81.74,240,5,0,30.02,10,51.8
8A0,1/31/16 11:15,53.6,51.8,93.6,180,9,0,30.01,10,53.6
8A0,1/31/16 11:35,53.6,51.8,93.6,190,8,0,30.01,10,53.6
4A6,1/31/16 11:35,50,46.4,87.37,220,3,0,30.03,10,49.27
4A6,1/31/16 11:55,50,46.4,87.37,0,0,0,30.03,10,50
8A0,1/31/16 11:55,53.6,53.6,100,180,8,0,30.01,10,53.6
8A0,1/31/16 12:15,53.6,53.6,100,180,8,0,30.02,10,53.6
4A6,1/31/16 12:15,48.2,46.4,93.45,0,0,0,30.03,10,48.2
8A0,1/31/16 12:35,53.6,53.6,100,180,8,0,30.02,10,53.6
4A6,1/31/16 12:35,48.2,46.4,93.45,0,0,0,30.03,10,48.2
4A6,1/31/16 12:55,48.2,46.4,93.45,0,0,0,30.03,10,48.2
8A0,1/31/16 12:55,53.6,53.6,100,180,8,0,30.02,10,53.6
8A0,1/31/16 13:15,53.6,53.6,100,180,9,0,30.02,10,53.6
4A6,1/31/16 13:15,48.2,46.4,93.45,0,0,0,30.03,10,48.2
8A0,1/31/16 13:35,53.6,53.6,100,180,9,0,30.02,10,53.6
4A6,1/31/16 13:35,48.2,48.2,100,270,3,0,30.03,10,47.21
4A6,1/31/16 13:55,50,48.2,93.5,0,0,0,30.03,10,50
8A0,1/31/16 13:55,55.4,53.6,93.65,180,9,0,30.02,10,55.4
8A0,1/31/16 14:15,55.4,53.6,93.65,190,8,0,30.02,10,55.4
4A6,1/31/16 14:15,50,48.2,93.5,230,4,0,30.03,10,48.44
8A0,1/31/16 14:35,55.4,53.6,93.65,190,9,0,30.01,10,55.4
4A6,1/31/16 14:35,53.6,50,87.56,240,4,0,30.03,10,53.6
4A6,1/31/16 14:55,55.4,50,81.99,0,0,0,30.03,10,55.4
8A0,1/31/16 14:55,57.2,55.4,93.69,210,9,0,30.02,10,57.2
4A6,1/31/16 15:15,55.4,50,81.99,260,3,0,30.04,10,55.4
8A0,1/31/16 15:15,57.2,55.4,93.69,200,11,0,30.03,10,57.2
8A0,1/31/16 15:35,59,55.4,87.83,190,11,0,30.03,10,59
4A6,1/31/16 15:35,55.4,50,81.99,0,0,0,30.04,10,55.4
4A6,1/31/16 15:55,57.2,50,76.82,200,5,0,30.04,10,57.2
8A0,1/31/16 15:55,59,55.4,87.83,190,13,0,30.02,10,59
4A6,1/31/16 16:15,59,51.8,76.98,200,5,0,30.03,10,59
8A0,1/31/16 16:15,60.8,57.2,87.92,200,9,0,30.02,10,60.8
8A0,1/31/16 16:35,60.8,57.2,87.92,210,15,0,30.02,10,60.8
4A6,1/31/16 16:35,59,51.8,76.98,210,4,0,30.03,10,59
4A6,1/31/16 16:55,59,51.8,76.98,210,5,0,30.01,10,59
8A0,1/31/16 16:55,60.8,59,93.79,200,11,0,30.01,10,60.8
8A0,1/31/16 17:15,60.8,59,93.79,210,9,0,30,10,60.8
4A6,1/31/16 17:15,60.8,51.8,72.2,210,5,0,30,10,60.8
8A0,1/31/16 17:35,62.6,57.2,82.5,210,17,0,29.99,10,62.6
4A6,1/31/16 17:35,62.6,51.8,67.75,200,6,0,29.99,10,62.6
4A6,1/31/16 17:55,64.4,53.6,67.95,210,9,0,29.97,10,64.4
8A0,1/31/16 17:55,62.6,57.2,82.5,240,11,0,29.97,10,62.6
4A6,1/31/16 18:15,64.4,53.6,67.95,210,12,0,29.96,10,64.4
8A0,1/31/16 18:15,62.6,57.2,82.5,220,11,0,29.96,10,62.6
8A0,1/31/16 18:35,64.4,55.4,72.56,220,14,0,29.94,10,64.4
4A6,1/31/16 18:35,64.4,53.6,67.95,230,8,0,29.94,10,64.4
8A0,1/31/16 18:55,68,55.4,64.04,220,20,0,29.94,10,68
4A6,1/31/16 18:55,66.2,50,55.88,220,12,0,29.93,10,66.2
8A0,1/31/16 19:15,68,55.4,64.04,210,21,0,29.93,10,68
4A6,1/31/16 19:15,68,50,52.51,210,8,0,29.92,10,68
8A0,1/31/16 19:35,68,55.4,64.04,220,13,0,29.93,10,68
4A6,1/31/16 19:35,68,50,52.51,230,13,0,29.92,10,68
4A6,1/31/16 19:55,66.2,50,55.88,220,11,0,29.92,10,66.2
8A0,1/31/16 19:55,64.4,55.4,72.56,200,16,0,29.93,10,64.4
4A6,1/31/16 20:15,68,50,52.51,220,8,0,29.91,10,68
8A0,1/31/16 20:15,64.4,55.4,72.56,200,13,0,29.92,10,64.4
4A6,1/31/16 20:35,68,50,52.51,220,12,0,29.9,10,68
8A0,1/31/16 20:35,68,55.4,64.04,220,17,0,29.91,10,68
8A0,1/31/16 20:55,68,55.4,64.04,200,15,0,29.91,10,68
4A6,1/31/16 20:55,68,50,52.51,220,10,0,29.9,10,68
8A0,1/31/16 21:15,66.2,55.4,68.15,190,16,0,29.9,10,66.2
4A6,1/31/16 21:15,68,48.2,49.1,230,10,0,29.91,10,68
8A0,1/31/16 21:35,68,55.4,64.04,210,11,0,29.9,10,68
4A6,1/31/16 21:35,66.2,50,55.88,240,8,0,29.91,10,66.2
8A0,1/31/16 21:55,68,55.4,64.04,220,11,0,29.91,10,68
4A6,1/31/16 21:55,68,50,52.51,210,4,0,29.91,10,68
8A0,1/31/16 22:15,66.2,55.4,68.15,200,10,0,29.92,10,66.2
4A6,1/31/16 22:15,66.2,50,55.88,220,4,0,29.91,10,66.2
4A6,1/31/16 22:35,66.2,48.2,52.25,210,6,0,29.91,10,66.2
8A0,1/31/16 22:35,64.4,55.4,72.56,200,9,0,29.92,10,64.4
8A0,1/31/16 22:55,64.4,59,82.62,170,7,0,29.92,10,64.4
4A6,1/31/16 22:55,66.2,48.2,52.25,230,5,0,29.92,10,66.2
8A0,1/31/16 23:15,64.4,59,82.62,170,5,0,29.92,10,64.4
4A6,1/31/16 23:15,66.2,48.2,52.25,210,5,0,29.92,10,66.2
4A6,1/31/16 23:35,64.4,50,59.5,190,8,0,29.92,10,64.4
8A0,1/31/16 23:35,62.6,59,88,170,4,0,29.92,10,62.6
4A6,1/31/16 23:55,64.4,50,59.5,200,4,0,29.91,10,64.4
8A0,1/31/16 23:55,62.6,59,88,160,4,0,29.92,10,62.6
4A6,2/1/16 0:15,62.6,51.8,67.75,210,5,0,29.91,10,62.6
8A0,2/1/16 0:15,62.6,59,88,160,7,0,29.92,10,62.6
8A0,2/1/16 0:35,62.6,59,88,160,6,0,29.92,10,62.6
4A6,2/1/16 0:35,62.6,53.6,72.38,200,5,0,29.91,10,62.6
4A6,2/1/16 0:55,62.6,53.6,72.38,210,4,0,29.91,10,62.6
8A0,2/1/16 0:55,62.6,59,88,170,7,0,29.92,10,62.6
4A6,2/1/16 1:15,62.6,53.6,72.38,210,7,0,29.92,10,62.6
8A0,2/1/16 1:15,60.8,59,93.79,170,9,0,29.92,10,60.8
4A6,2/1/16 1:35,64.4,55.4,72.56,190,9,0,29.92,10,64.4
8A0,2/1/16 1:35,60.8,59,93.79,180,11,0,29.91,10,60.8
4A6,2/1/16 1:55,62.6,55.4,77.29,210,10,0,29.92,10,62.6
8A0,2/1/16 1:55,62.6,60.8,93.83,180,11,0,29.91,10,62.6
8A0,2/1/16 2:15,62.6,60.8,93.83,180,10,0,29.92,10,62.6
4A6,2/1/16 2:15,62.6,55.4,77.29,210,6,0,29.93,10,62.6
4A6,2/1/16 2:35,62.6,55.4,77.29,220,6,0,29.94,10,62.6
8A0,2/1/16 2:35,62.6,60.8,93.83,200,10,0,29.93,10,62.6
4A6,2/1/16 2:55,62.6,55.4,77.29,210,5,0,29.94,10,62.6
8A0,2/1/16 2:55,60.8,60.8,100,190,8,0,29.94,10,60.8
4A6,2/1/16 3:15,62.6,55.4,77.29,220,3,0,29.94,10,62.6
8A0,2/1/16 3:15,60.8,60.8,100,180,7,0,29.94,10,60.8
4A6,2/1/16 3:35,62.6,55.4,77.29,210,4,0,29.95,10,62.6
8A0,2/1/16 3:35,60.8,59,93.79,170,4,0,29.94,10,60.8
8A0,2/1/16 3:55,60.8,60.8,100,180,7,0,29.94,10,60.8
4A6,2/1/16 3:55,62.6,55.4,77.29,220,3,0,29.95,10,62.6
8A0,2/1/16 4:15,60.8,60.8,100,180,9,0,29.94,10,60.8
4A6,2/1/16 4:15,60.8,55.4,82.37,210,4,0,29.95,10,60.8
8A0,2/1/16 4:35,60.8,60.8,100,240,7,0,29.95,10,60.8
4A6,2/1/16 4:35,60.8,55.4,82.37,0,0,0,29.95,10,60.8
4A6,2/1/16 4:55,60.8,55.4,82.37,200,5,0,29.95,10,60.8
8A0,2/1/16 4:55,60.8,60.8,100,180,7,0,29.95,10,60.8
4A6,2/1/16 5:15,62.6,55.4,77.29,200,5,0,29.94,10,62.6
8A0,2/1/16 5:15,60.8,60.8,100,180,6,0,29.95,10,60.8
8A0,2/1/16 5:35,60.8,60.8,100,170,5,0,29.94,10,60.8
4A6,2/1/16 5:35,62.6,57.2,82.5,200,6,0,29.94,10,62.6
4A6,2/1/16 5:55,62.6,57.2,82.5,210,5,0,29.94,10,62.6
8A0,2/1/16 5:55,60.8,60.8,100,180,6,0,29.94,10,60.8
4A6,2/1/16 6:15,62.6,57.2,82.5,200,6,0,29.93,10,62.6
8A0,2/1/16 6:15,60.8,60.8,100,170,6,0,29.94,10,60.8
8A0,2/1/16 6:35,60.8,60.8,100,180,6,0,29.93,10,60.8
4A6,2/1/16 6:35,62.6,57.2,82.5,210,5,0,29.93,10,62.6
8A0,2/1/16 6:55,60.8,60.8,100,170,5,0,29.93,10,60.8
4A6,2/1/16 6:55,62.6,57.2,82.5,210,5,0,29.93,10,62.6
4A6,2/1/16 7:15,62.6,57.2,82.5,220,5,0,29.93,10,62.6
8A0,2/1/16 7:15,60.8,60.8,100,180,4,0,29.93,10,60.8
4A6,2/1/16 7:35,59,57.2,93.74,0,0,0,29.93,10,59
8A0,2/1/16 7:35,60.8,60.8,100,180,3,0,29.93,10,60.8
8A0,2/1/16 7:55,60.8,60.8,100,200,4,0,29.93,10,60.8
4A6,2/1/16 7:55,59,57.2,93.74,0,0,0,29.92,10,59
4A6,2/1/16 8:15,59,57.2,93.74,0,0,0,29.92,10,59
8A0,2/1/16 8:15,60.8,60.8,100,180,6,0,29.93,10,60.8
4A6,2/1/16 8:35,59,57.2,93.74,0,0,0,29.92,10,59
8A0,2/1/16 8:35,60.8,60.8,100,200,5,0,29.92,10,60.8
4A6,2/1/16 8:55,59,57.2,93.74,280,3,0,29.92,10,59
8A0,2/1/16 8:55,60.8,60.8,100,200,6,0,29.92,10,60.8
8A0,2/1/16 9:15,60.8,60.8,100,210,7,0,29.92,10,60.8
4A6,2/1/16 9:15,57.2,57.2,100,0,0,0,29.91,10,57.2
4A6,2/1/16 9:35,57.2,57.2,100,0,0,0,29.92,10,57.2
8A0,2/1/16 9:35,60.8,60.8,100,220,6,0,29.92,10,60.8
8A0,2/1/16 9:55,60.8,60.8,100,220,6,0,29.92,10,60.8
4A6,2/1/16 9:55,57.2,57.2,100,0,0,0,29.92,10,57.2
4A6,2/1/16 10:15,59,59,100,0,0,0,29.92,10,59
8A0,2/1/16 10:15,60.8,60.8,100,210,5,0,29.92,10,60.8
8A0,2/1/16 10:35,60.8,60.8,100,210,4,0,29.92,10,60.8
4A6,2/1/16 10:35,57.2,57.2,100,0,0,0,29.93,10,57.2
8A0,2/1/16 10:55,59,59,100,170,6,0,29.92,10,59
4A6,2/1/16 10:55,57.2,57.2,100,0,0,0,29.93,10,57.2
8A0,2/1/16 11:15,59,59,100,180,5,0,29.92,10,59
4A6,2/1/16 11:15,59,59,100,200,3,0,29.93,10,59
4A6,2/1/16 11:35,59,59,100,200,3,0,29.93,10,59
8A0,2/1/16 11:35,59,59,100,200,5,0,29.93,10,59
8A0,2/1/16 11:55,59,59,100,200,6,0,29.93,10,59
4A6,2/1/16 11:55,59,59,100,220,3,0,29.94,10,59
8A0,2/1/16 12:15,59,59,100,210,4,0,29.94,10,59
4A6,2/1/16 12:15,59,59,100,220,3,0,29.93,10,59
8A0,2/1/16 12:35,59,59,100,210,5,0,29.94,10,59
4A6,2/1/16 12:35,57.2,57.2,100,260,5,0,29.94,10,57.2
4A6,2/1/16 12:55,57.2,57.2,100,210,4,0,29.94,10,57.2
8A0,2/1/16 12:55,59,59,100,190,6,0,29.94,7,59
4A6,2/1/16 13:15,59,59,100,250,5,0,29.95,10,59
8A0,2/1/16 13:15,59,59,100,190,6,0,29.94,7,59
8A0,2/1/16 13:35,59,59,100,190,5,0,29.95,7,59
4A6,2/1/16 13:35,59,59,100,230,3,0,29.95,10,59
8A0,2/1/16 13:55,60.8,60.8,100,200,6,0,29.95,10,60.8
4A6,2/1/16 13:55,59,59,100,210,5,0,29.95,10,59
8A0,2/1/16 14:15,60.8,60.8,100,190,7,0,29.95,10,60.8
4A6,2/1/16 14:15,60.8,60.8,100,210,5,0,29.95,10,60.8
4A6,2/1/16 14:35,60.8,60.8,100,220,6,0,29.95,10,60.8
8A0,2/1/16 14:35,60.8,60.8,100,200,8,0,29.95,10,60.8
8A0,2/1/16 14:55,60.8,60.8,100,210,8,0,29.96,10,60.8
4A6,2/1/16 14:55,62.6,60.8,93.83,210,6,0,29.96,10,62.6
4A6,2/1/16 15:15,62.6,60.8,93.83,210,6,0,29.96,10,62.6
8A0,2/1/16 15:15,60.8,60.8,100,210,8,0,29.97,10,60.8
8A0,2/1/16 15:35,60.8,60.8,100,210,8,0,29.97,7,60.8
4A6,2/1/16 15:35,62.6,60.8,93.83,220,9,0,29.97,10,62.6
8A0,2/1/16 15:55,62.6,62.6,100,220,7,0,29.97,7,62.6
4A6,2/1/16 15:55,64.4,60.8,88.09,220,9,0,29.97,10,64.4
4A6,2/1/16 16:15,64.4,59,82.62,220,8,0,29.97,10,64.4
8A0,2/1/16 16:15,62.6,62.6,100,210,8,0,29.97,10,62.6
4A6,2/1/16 16:35,64.4,59,82.62,230,10,0,29.96,10,64.4
8A0,2/1/16 16:35,64.4,62.6,93.88,230,14,0,29.97,10,64.4
4A6,2/1/16 16:55,66.2,59,77.6,210,8,0,29.95,10,66.2
8A0,2/1/16 16:55,64.4,62.6,93.88,210,10,0,29.96,10,64.4
4A6,2/1/16 17:15,66.2,59,77.6,210,6,0,29.95,10,66.2
8A0,2/1/16 17:15,66.2,62.6,88.18,220,11,0,29.95,10,66.2
4A6,2/1/16 17:35,66.2,59,77.6,230,8,0,29.94,10,66.2
8A0,2/1/16 17:35,66.2,62.6,88.18,230,9,0,29.94,10,66.2
4A6,2/1/16 17:55,68,59,72.92,200,8,0,29.93,10,68
8A0,2/1/16 17:55,68,62.6,82.86,220,12,0,29.94,10,68
8A0,2/1/16 18:15,66.2,62.6,88.18,230,8,0,29.93,10,66.2
4A6,2/1/16 18:15,68,57.2,68.35,220,8,0,29.92,10,68
8A0,2/1/16 18:35,66.2,62.6,88.18,240,14,0,29.93,10,66.2
4A6,2/1/16 18:35,69.8,55.4,60.21,260,14,0,29.92,10,69.8
8A0,2/1/16 18:55,64.4,62.6,93.88,240,9,0,29.92,10,64.4
4A6,2/1/16 18:55,69.8,55.4,60.21,240,11,0,29.92,10,69.8
4A6,2/1/16 19:15,68,57.2,68.35,220,9,0,29.91,10,68
8A0,2/1/16 19:15,68,62.6,82.86,270,9,0,29.92,10,68
8A0,2/1/16 19:35,68,62.6,82.86,230,9,0,29.92,10,68
4A6,2/1/16 19:35,69.8,57.2,64.26,230,9,0,29.91,10,69.8
8A0,2/1/16 19:55,68,62.6,82.86,240,10,0,29.91,10,68
4A6,2/1/16 19:55,68,57.2,68.35,210,8,0,29.91,10,68
4A6,2/1/16 20:15,68,57.2,68.35,220,7,0,29.9,10,68
8A0,2/1/16 20:15,68,62.6,82.86,230,5,0,29.9,10,68
8A0,2/1/16 20:35,69.8,62.6,77.9,240,6,0,29.9,10,69.8
4A6,2/1/16 20:35,68,57.2,68.35,240,8,0,29.9,10,68
4A6,2/1/16 20:55,68,57.2,68.35,220,6,0,29.9,10,68
8A0,2/1/16 20:55,68,62.6,82.86,280,7,0,29.91,10,68
4A6,2/1/16 21:15,69.8,57.2,64.26,240,4,0,29.9,10,69.8
8A0,2/1/16 21:15,68,62.6,82.86,270,7,0,29.91,10,68
4A6,2/1/16 21:35,68,59,72.92,320,7,0,29.91,9,68
8A0,2/1/16 21:35,68,62.6,82.86,230,5,0,29.91,10,68
8A0,2/1/16 21:55,68,62.6,82.86,250,5,0,29.91,10,68
4A6,2/1/16 21:55,66.2,62.6,88.18,310,4,0,29.92,10,66.2
4A6,2/1/16 22:15,64.4,62.6,93.88,350,3,0,29.93,10,64.4
8A0,2/1/16 22:15,68,62.6,82.86,250,3,0,29.92,10,68
8A0,2/1/16 22:35,68,62.6,82.86,260,3,0,29.92,10,68
4A6,2/1/16 22:35,64.4,62.6,93.88,360,3,0,29.94,10,64.4
4A6,2/1/16 22:55,64.4,60.8,88.09,0,0,0,29.94,10,64.4
8A0,2/1/16 22:55,68,62.6,82.86,260,3,0,29.92,10,68
4A6,2/1/16 23:15,64.4,62.6,93.88,0,0,0,29.94,10,64.4
8A0,2/1/16 23:15,64.4,60.8,88.09,260,3,0,29.92,10,64.4
8A0,2/1/16 23:35,64.4,60.8,88.09,290,3,0,29.93,10,64.4
4A6,2/1/16 23:35,62.6,62.6,100,40,3,0,29.95,10,62.6
4A6,2/1/16 23:55,60.8,60.8,100,50,4,0,29.96,10,60.8
8A0,2/1/16 23:55,62.6,60.8,93.83,0,0,0,29.94,10,62.6
8A0,2/2/16 0:15,60.8,60.8,100,0,0,0,29.94,10,60.8
4A6,2/2/16 0:15,60.8,60.8,100,0,0,0,29.96,10,60.8
4A6,2/2/16 0:35,60.8,60.8,100,30,3,0,29.97,10,60.8
8A0,2/2/16 0:35,60.8,60.8,100,0,0,0,29.94,10,60.8
8A0,2/2/16 0:55,59,59,100,20,6,0,29.94,7,59
4A6,2/2/16 0:55,59,59,100,10,3,0,29.97,10,59
4A6,2/2/16 1:15,59,59,100,20,3,0,29.98,10,59
8A0,2/2/16 1:15,59,59,100,40,5,0,29.95,7,59
4A6,2/2/16 1:35,57.2,57.2,100,40,3,0,29.98,6,57.2
8A0,2/2/16 1:35,59,59,100,40,5,0,29.95,7,59
4A6,2/2/16 1:55,57.2,57.2,100,30,4,0,29.98,5,57.2
8A0,2/2/16 1:55,60.8,60.8,100,40,6,0,29.95,7,60.8
4A6,2/2/16 2:15,57.2,57.2,100,40,3,0,29.97,9,57.2
8A0,2/2/16 2:15,59,59,100,40,4,0,29.95,7,59
8A0,2/2/16 2:35,59,59,100,50,5,0,29.95,7,59
4A6,2/2/16 2:35,57.2,57.2,100,90,3,0,29.97,8,57.2
8A0,2/2/16 2:55,57.2,57.2,100,60,3,0,29.95,7,57.2
4A6,2/2/16 2:55,59,59,100,70,3,0,29.98,10,59
8A0,2/2/16 3:15,57.2,57.2,100,60,4,0,29.95,5,57.2
4A6,2/2/16 3:15,57.2,57.2,100,60,3,0,29.98,10,57.2
8A0,2/2/16 3:35,57.2,57.2,100,70,3,0,29.96,5,57.2
4A6,2/2/16 3:35,57.2,57.2,100,10,3,0,29.98,9,57.2
8A0,2/2/16 3:55,57.2,57.2,100,70,4,0,29.96,5,57.2
4A6,2/2/16 3:55,55.4,55.4,100,360,3,0,29.98,1.25,55.4
4A6,2/2/16 4:15,55.4,55.4,100,0,0,0,29.98,1.75,55.4
8A0,2/2/16 4:15,57.2,57.2,100,0,0,0,29.96,5,57.2
8A0,2/2/16 4:35,55.4,55.4,100,80,3,0,29.95,5,55.4
4A6,2/2/16 4:35,53.6,53.6,100,0,0,0,29.98,0.75,53.6
4A6,2/2/16 4:55,53.6,53.6,100,0,0,0,29.98,2.5,53.6
8A0,2/2/16 4:55,55.4,55.4,100,90,4,0,29.95,5,55.4
8A0,2/2/16 5:15,55.4,55.4,100,90,4,0,29.95,7,55.4
4A6,2/2/16 5:15,53.6,53.6,100,0,0,0,29.98,5,53.6
8A0,2/2/16 5:35,55.4,55.4,100,90,4,0,29.96,5,55.4
4A6,2/2/16 5:35,53.6,53.6,100,30,3,0,29.99,5,53.6
8A0,2/2/16 5:55,55.4,55.4,100,0,0,0,29.96,4,55.4
4A6,2/2/16 5:55,55.4,55.4,100,50,4,0,29.99,7,55.4
8A0,2/2/16 6:15,55.4,55.4,100,0,0,0,29.96,5,55.4
4A6,2/2/16 6:15,55.4,55.4,100,20,3,0,29.99,6,55.4
8A0,2/2/16 6:35,57.2,57.2,100,120,3,0,29.96,5,57.2
4A6,2/2/16 6:35,55.4,55.4,100,0,0,0,29.99,10,55.4
8A0,2/2/16 6:55,59,59,100,0,0,0,29.97,5,59
4A6,2/2/16 6:55,55.4,55.4,100,0,0,0,29.98,9,55.4
8A0,2/2/16 7:15,59,59,100,0,0,0,29.97,5,59
4A6,2/2/16 7:15,53.6,53.6,100,0,0,0,29.99,4,53.6
8A0,2/2/16 7:35,59,59,100,0,0,0,29.97,5,59
4A6,2/2/16 7:35,53.6,53.6,100,0,0,0,29.99,8,53.6
8A0,2/2/16 7:55,59,59,100,100,3,0,29.96,5,59
4A6,2/2/16 7:55,53.6,53.6,100,0,0,0,29.99,7,53.6
8A0,2/2/16 8:15,59,59,100,0,0,0,29.97,5,59
4A6,2/2/16 8:15,55.4,55.4,100,0,0,0,29.99,8,55.4
4A6,2/2/16 8:35,55.4,55.4,100,40,3,0,29.99,9,55.4
8A0,2/2/16 8:35,59,59,100,130,3,0,29.97,5,59
8A0,2/2/16 8:55,59,59,100,130,3,0,29.96,5,59
4A6,2/2/16 8:55,55.4,55.4,100,40,3,0,29.99,10,55.4
8A0,2/2/16 9:15,59,59,100,120,5,0,29.97,4,59
4A6,2/2/16 9:15,55.4,55.4,100,20,3,0,29.99,10,55.4
8A0,2/2/16 9:35,59,59,100,0,0,0,29.97,2.5,59
4A6,2/2/16 9:35,55.4,55.4,100,0,0,0,29.99,10,55.4
8A0,2/2/16 9:55,59,59,100,0,0,0,29.97,2,59
4A6,2/2/16 9:55,55.4,55.4,100,0,0,0,29.99,10,55.4
4A6,2/2/16 10:15,55.4,55.4,100,0,0,0,29.99,9,55.4
8A0,2/2/16 10:15,59,59,100,0,0,0,29.97,2,59
4A6,2/2/16 10:35,55.4,55.4,100,0,0,0,29.99,10,55.4
8A0,2/2/16 10:35,59,59,100,120,3,0,29.97,3,59
4A6,2/2/16 10:55,55.4,55.4,100,0,0,0,29.99,10,55.4
8A0,2/2/16 10:55,59,59,100,100,6,0,29.95,3,59
4A6,2/2/16 11:15,55.4,55.4,100,0,0,0,29.98,10,55.4
8A0,2/2/16 11:15,59,59,100,130,7,0,29.95,3,59
4A6,2/2/16 11:35,55.4,55.4,100,90,3,0,29.98,10,55.4
8A0,2/2/16 11:35,59,59,100,120,4,0,29.96,2,59
8A0,2/2/16 11:55,59,59,100,120,3,0,29.97,4,59
4A6,2/2/16 11:55,55.4,55.4,100,310,4,0,29.98,10,55.4
8A0,2/2/16 12:15,60.8,60.8,100,150,4,0,29.99,5,60.8
4A6,2/2/16 12:15,55.4,55.4,100,360,3,0,29.98,10,55.4
8A0,2/2/16 12:35,60.8,60.8,100,140,6,0,29.98,7,60.8
4A6,2/2/16 12:35,57.2,57.2,100,160,3,0,30,10,57.2
4A6,2/2/16 12:55,59,59,100,0,0,0,30,10,59
8A0,2/2/16 12:55,60.8,60.8,100,160,6,0,29.99,7,60.8
4A6,2/2/16 13:15,59,59,100,0,0,0,30,10,59
8A0,2/2/16 13:15,60.8,60.8,100,140,4,0,29.99,5,60.8
8A0,2/2/16 13:35,60.8,60.8,100,140,7,0,29.98,5,60.8
4A6,2/2/16 13:35,62.6,62.6,100,0,0,0,30,10,62.6
8A0,2/2/16 13:55,60.8,60.8,100,140,6,0,29.99,7,60.8
4A6,2/2/16 13:55,60.8,60.8,100,0,0,0,30.01,10,60.8
8A0,2/2/16 14:15,60.8,60.8,100,130,5,0,30,10,60.8
4A6,2/2/16 14:15,59,59,100,0,0,0,30.03,10,59
4A6,2/2/16 14:35,60.8,60.8,100,0,0,0,30.03,10,60.8
8A0,2/2/16 14:35,62.6,62.6,100,130,4,0,29.99,10,62.6
4A6,2/2/16 14:55,62.6,62.6,100,0,0,0,30.02,10,62.6
8A0,2/2/16 14:55,62.6,62.6,100,130,7,0,29.99,10,62.6
4A6,2/2/16 15:15,64.4,60.8,88.09,180,3,0,30,10,64.4
8A0,2/2/16 15:15,62.6,62.6,100,150,6,0,30,10,62.6
4A6,2/2/16 15:35,66.2,59,77.6,190,7,0,30.01,10,66.2
8A0,2/2/16 15:35,62.6,62.6,100,140,9,0,29.99,10,62.6
4A6,2/2/16 15:55,68,59,72.92,180,9,0,29.99,10,68
8A0,2/2/16 15:55,64.4,62.6,93.88,160,10,0,29.98,10,64.4
8A0,2/2/16 16:15,68,62.6,82.86,150,9,0,29.97,10,68
4A6,2/2/16 16:15,68,57.2,68.35,190,7,0,29.99,10,68
8A0,2/2/16 16:35,68,62.6,82.86,160,15,0,29.97,10,68
4A6,2/2/16 16:35,68,57.2,68.35,210,9,0,29.98,10,68
4A6,2/2/16 16:55,71.6,57.2,60.44,190,6,0,29.97,10,71.6
8A0,2/2/16 16:55,68,62.6,82.86,150,14,0,29.95,10,68
4A6,2/2/16 17:15,71.6,57.2,60.44,180,12,0,29.95,10,71.6
8A0,2/2/16 17:15,69.8,62.6,77.9,170,13,0,29.94,10,69.8
8A0,2/2/16 17:35,69.8,60.8,73.09,150,11,0,29.93,10,69.8
4A6,2/2/16 17:35,73.4,57.2,56.88,190,13,0,29.94,10,73.4
8A0,2/2/16 17:55,69.8,60.8,73.09,160,11,0,29.92,10,69.8
4A6,2/2/16 17:55,71.6,55.4,56.63,200,11,0,29.93,10,71.6
4A6,2/2/16 18:15,71.6,57.2,60.44,180,10,0,29.91,10,71.6
8A0,2/2/16 18:15,71.6,62.6,73.27,150,11,0,29.9,10,71.6
4A6,2/2/16 18:35,71.6,55.4,56.63,200,7,0,29.9,10,71.6
8A0,2/2/16 18:35,73.4,60.8,64.69,160,16,0,29.88,10,73.4
8A0,2/2/16 18:55,73.4,60.8,64.69,160,17,0,29.88,10,73.4
4A6,2/2/16 18:55,73.4,55.4,53.29,200,9,0,29.88,10,73.4
8A0,2/2/16 19:15,73.4,60.8,64.69,160,13,0,29.87,10,73.4
4A6,2/2/16 19:15,75.2,55.4,50.17,190,12,0,29.88,10,75.2
8A0,2/2/16 19:35,73.4,60.8,64.69,170,16,0,29.86,10,73.4
4A6,2/2/16 19:35,75.2,53.6,46.98,190,12,0,29.87,10,75.2
8A0,2/2/16 19:55,71.6,62.6,73.27,170,15,0,29.85,10,71.6
4A6,2/2/16 19:55,75.2,51.8,43.97,180,13,0,29.86,10,75.2
8A0,2/2/16 20:15,73.4,60.8,64.69,160,14,0,29.84,10,73.4
4A6,2/2/16 20:15,75.2,53.6,46.98,180,8,0,29.85,10,75.2
4A6,2/2/16 20:35,73.4,53.6,49.9,170,9,0,29.84,10,73.4
8A0,2/2/16 20:35,71.6,60.8,68.75,150,12,0,29.83,10,71.6
8A0,2/2/16 20:55,71.6,60.8,68.75,160,16,0,29.84,10,71.6
4A6,2/2/16 20:55,73.4,53.6,49.9,180,10,0,29.84,10,73.4
8A0,2/2/16 21:15,71.6,60.8,68.75,160,13,0,29.83,10,71.6
4A6,2/2/16 21:15,73.4,53.6,49.9,170,14,0,29.83,10,73.4
4A6,2/2/16 21:35,73.4,53.6,49.9,180,11,0,29.83,10,73.4
8A0,2/2/16 21:35,71.6,60.8,68.75,170,16,0,29.83,10,71.6
8A0,2/2/16 21:55,68,62.6,82.86,160,8,0,29.85,7,68
4A6,2/2/16 21:55,73.4,53.6,49.9,200,8,0,29.84,10,73.4
4A6,2/2/16 22:15,73.4,53.6,49.9,190,14,0,29.85,10,73.4
8A0,2/2/16 22:15,64.4,64.4,100,150,8,0,29.85,7,64.4
8A0,2/2/16 22:35,64.4,64.4,100,170,7,0,29.86,10,64.4
4A6,2/2/16 22:35,68,57.2,68.35,210,8,0,29.87,4,68
8A0,2/2/16 22:55,64.4,64.4,100,150,8,0.02,29.86,7,64.4
4A6,2/2/16 22:55,66.2,59,77.6,220,5,0,29.87,10,66.2
8A0,2/2/16 23:15,64.4,64.4,100,140,7,0.01,29.85,10,64.4
4A6,2/2/16 23:15,64.4,59,82.62,220,5,0.01,29.87,9,64.4
4A6,2/2/16 23:35,66.2,59,77.6,180,8,0.02,29.84,9,66.2
8A0,2/2/16 23:35,62.6,62.6,100,140,8,0.06,29.85,4,62.6
8A0,2/2/16 23:55,62.6,62.6,100,140,11,0.08,29.85,7,62.6
4A6,2/2/16 23:55,66.2,59,77.6,200,9,0.02,29.85,9,66.2
4A6,2/3/16 0:15,64.4,60.8,88.09,180,9,0,29.84,7,64.4
8A0,2/3/16 0:15,62.6,62.6,100,140,11,0,29.85,10,62.6
4A6,2/3/16 0:35,66.2,59,77.6,180,10,0,29.84,10,66.2
8A0,2/3/16 0:35,62.6,62.6,100,150,13,0,29.84,10,62.6
4A6,2/3/16 0:55,66.2,60.8,82.74,200,9,0,29.85,10,66.2
8A0,2/3/16 0:55,62.6,62.6,100,150,9,0,29.85,10,62.6
4A6,2/3/16 1:15,68,60.8,77.75,180,10,0,29.84,10,68
8A0,2/3/16 1:15,64.4,64.4,100,150,13,0,29.84,10,64.4
8A0,2/3/16 1:35,64.4,64.4,100,150,12,0,29.84,7,64.4
4A6,2/3/16 1:35,68,60.8,77.75,170,13,0,29.83,10,68
8A0,2/3/16 1:55,62.6,62.6,100,150,12,0,29.83,10,62.6
4A6,2/3/16 1:55,68,60.8,77.75,180,11,0,29.83,10,68
8A0,2/3/16 2:15,62.6,62.6,100,150,14,0,29.83,10,62.6
4A6,2/3/16 2:15,66.2,62.6,88.18,190,11,0,29.84,9,66.2
4A6,2/3/16 2:35,66.2,62.6,88.18,200,9,0,29.83,10,66.2
8A0,2/3/16 2:35,62.6,62.6,100,150,14,0,29.83,10,62.6
8A0,2/3/16 2:55,62.6,62.6,100,140,10,0.04,29.81,4,62.6
4A6,2/3/16 2:55,66.2,62.6,88.18,190,12,0.01,29.82,10,66.2
4A6,2/3/16 3:15,64.4,62.6,93.88,200,8,0.02,29.82,4,64.4
8A0,2/3/16 3:15,62.6,62.6,100,150,12,0.03,29.81,4,62.6
8A0,2/3/16 3:35,62.6,62.6,100,150,13,0.05,29.8,7,62.6
4A6,2/3/16 3:35,64.4,64.4,100,180,9,0.1,29.8,5,64.4
8A0,2/3/16 3:55,62.6,62.6,100,160,13,0.08,29.81,4,62.6
4A6,2/3/16 3:55,64.4,64.4,100,220,6,0.13,29.8,7,64.4
4A6,2/3/16 4:15,64.4,64.4,100,200,8,0.01,29.8,6,64.4
8A0,2/3/16 4:15,62.6,62.6,100,160,11,0,29.8,10,62.6
4A6,2/3/16 4:35,66.2,64.4,93.92,200,11,0.01,29.8,10,66.2
8A0,2/3/16 4:35,62.6,62.6,100,160,16,0.01,29.8,7,62.6
8A0,2/3/16 4:55,62.6,62.6,100,160,12,0.04,29.79,10,62.6
8A0,2/3/16 5:15,62.6,62.6,100,170,16,0.01,29.79,5,62.6
8A0,2/3/16 5:35,64.4,64.4,100,180,14,0.07,29.8,3,64.4
8A0,2/3/16 5:55,64.4,64.4,100,160,10,0.14,29.77,3,64.4
4A6,2/3/16 5:55,64.4,64.4,100,200,10,0.12,29.78,2,64.4
8A0,2/3/16 6:15,64.4,64.4,100,170,15,0.07,29.76,2.5,64.4
4A6,2/3/16 6:15,66.2,66.2,100,210,9,0.04,29.78,3,66.2
8A0,2/3/16 6:35,64.4,64.4,100,180,14,0.12,29.77,3,64.4
4A6,2/3/16 6:35,64.4,64.4,100,240,5,0.17,29.75,2.5,64.4
4A6,2/3/16 6:55,64.4,64.4,100,230,9,0.32,29.78,2,64.4
8A0,2/3/16 6:55,64.4,64.4,100,170,15,0.18,29.76,3,64.4
4A6,2/3/16 7:15,66.2,66.2,100,230,7,0.03,29.77,5,66.2
8A0,2/3/16 7:15,64.4,64.4,100,190,14,0.02,29.77,7,64.4
4A6,2/3/16 7:35,64.4,64.4,100,290,6,0.07,29.75,4,64.4
8A0,2/3/16 7:35,64.4,64.4,100,190,11,0.02,29.76,10,64.4
8A0,2/3/16 7:55,64.4,64.4,100,260,17,0.3,29.77,1.75,64.4
4A6,2/3/16 7:55,66.2,66.2,100,270,14,0.29,29.78,3,66.2
4A6,2/3/16 8:15,60.8,60.8,100,290,10,0.15,29.81,4,60.8
8A0,2/3/16 8:15,60.8,60.8,100,270,19,0.06,29.81,4,60.8
8A0,2/3/16 8:35,55.4,55.4,100,270,15,0.12,29.84,5,55.4
4A6,2/3/16 8:35,57.2,57.2,100,300,8,0.29,29.83,4,57.2
8A0,2/3/16 8:55,55.4,55.4,100,280,10,0.22,29.86,5,55.4
4A6,2/3/16 8:55,57.2,55.4,93.69,200,9,0.34,29.87,5,57.2
8A0,2/3/16 9:15,55.4,55.4,100,280,5,0.01,29.86,10,55.4
4A6,2/3/16 9:15,55.4,55.4,100,250,6,0.06,29.89,2.5,55.4
8A0,2/3/16 9:35,53.6,53.6,100,230,7,0.02,29.87,10,53.6
4A6,2/3/16 9:35,55.4,53.6,93.65,0,0,0.11,29.87,6,55.4
8A0,2/3/16 9:55,53.6,53.6,100,250,8,0.03,29.87,10,53.6
4A6,2/3/16 9:55,53.6,53.6,100,170,4,0.12,29.88,7,53.6
4A6,2/3/16 10:15,53.6,53.6,100,200,5,0.03,29.89,3,53.6
8A0,2/3/16 10:15,53.6,53.6,100,260,6,0,29.87,10,53.6
8A0,2/3/16 10:35,51.8,51.8,100,250,7,0.02,29.9,10,51.8
4A6,2/3/16 10:35,53.6,53.6,100,180,6,0.05,29.89,6,53.6
8A0,2/3/16 10:55,51.8,51.8,100,270,7,0.05,29.89,7,51.8
4A6,2/3/16 10:55,53.6,53.6,100,0,0,0.08,29.9,3,53.6
4A6,2/3/16 11:15,53.6,53.6,100,0,0,0.02,29.9,5,53.6
8A0,2/3/16 11:15,51.8,51.8,100,280,6,0.02,29.88,7,51.8
8A0,2/3/16 11:35,51.8,51.8,100,270,3,0.04,29.87,10,51.8
4A6,2/3/16 11:35,53.6,53.6,100,0,0,0.03,29.88,6,53.6
8A0,2/3/16 11:55,51.8,51.8,100,230,3,0.06,29.9,7,51.8
4A6,2/3/16 11:55,53.6,53.6,100,200,4,0.04,29.89,5,53.6
8A0,2/3/16 12:15,51.8,51.8,100,0,0,0.01,29.86,7,51.8
4A6,2/3/16 12:15,53.6,53.6,100,170,5,0.01,29.87,5,53.6
4A6,2/3/16 12:35,53.6,53.6,100,190,6,0.01,29.89,10,53.6
8A0,2/3/16 12:35,51.8,51.8,100,0,0,0.01,29.91,10,51.8
4A6,2/3/16 12:55,53.6,53.6,100,190,7,0.01,29.92,10,53.6
8A0,2/3/16 12:55,51.8,51.8,100,0,0,0.01,29.9,10,51.8
8A0,2/3/16 13:15,51.8,51.8,100,0,0,0,29.9,10,51.8
4A6,2/3/16 13:15,53.6,53.6,100,230,3,0,29.92,10,53.6
4A6,2/3/16 13:35,53.6,53.6,100,0,0,0,29.91,10,53.6
8A0,2/3/16 13:35,51.8,51.8,100,190,4,0,29.92,7,51.8
8A0,2/3/16 13:55,51.8,51.8,100,200,3,0,29.92,10,51.8
4A6,2/3/16 13:55,53.6,53.6,100,0,0,0,29.92,10,53.6
4A6,2/3/16 14:15,53.6,53.6,100,220,6,0,29.93,10,53.6
8A0,2/3/16 14:15,51.8,51.8,100,220,4,0,29.92,10,51.8
8A0,2/3/16 14:35,51.8,51.8,100,250,4,0,29.92,10,51.8
4A6,2/3/16 14:35,53.6,53.6,100,210,3,0,29.93,10,53.6
8A0,2/3/16 14:55,51.8,51.8,100,240,6,0,29.92,10,51.8
4A6,2/3/16 14:55,53.6,53.6,100,240,6,0,29.94,10,53.6
4A6,2/3/16 15:15,55.4,51.8,87.65,220,5,0,29.94,10,55.4
8A0,2/3/16 15:15,51.8,51.8,100,260,7,0,29.93,10,51.8
8A0,2/3/16 15:35,51.8,51.8,100,250,6,0,29.94,10,51.8
4A6,2/3/16 15:35,55.4,50,81.99,0,0,0,29.94,10,55.4
8A0,2/3/16 15:55,53.6,53.6,100,250,6,0,29.95,10,53.6
4A6,2/3/16 15:55,57.2,50,76.82,220,5,0,29.96,10,57.2
4A6,2/3/16 16:15,57.2,50,76.82,230,5,0,29.96,10,57.2
8A0,2/3/16 16:15,55.4,51.8,87.65,260,7,0,29.96,10,55.4
4A6,2/3/16 16:35,57.2,46.4,67.12,240,8,0,29.96,10,57.2
8A0,2/3/16 16:35,55.4,51.8,87.65,260,5,0,29.95,10,55.4
8A0,2/3/16 16:55,57.2,51.8,82.12,260,9,0,29.94,10,57.2
4A6,2/3/16 16:55,59,44.6,58.77,270,7,0,29.94,10,59
4A6,2/3/16 17:15,59,44.6,58.77,250,8,0,29.95,10,59
8A0,2/3/16 17:15,59,51.8,76.98,250,8,0,29.93,10,59
4A6,2/3/16 17:35,60.8,44.6,55.12,260,8,0,29.93,10,60.8
8A0,2/3/16 17:35,59,50,72.01,290,8,0,29.94,10,59
4A6,2/3/16 17:55,60.8,42.8,51.45,230,6,0.01,29.94,10,60.8
8A0,2/3/16 17:55,59,50,72.01,250,6,0,29.94,10,59
8A0,2/3/16 18:15,60.8,46.4,59.01,270,9,0,29.92,10,60.8
4A6,2/3/16 18:15,62.6,41,45.04,240,9,0,29.94,10,62.6
8A0,2/3/16 18:35,60.8,46.4,59.01,270,11,0,29.92,10,60.8
4A6,2/3/16 18:35,62.6,37.4,39.14,260,11,0,29.92,10,62.6
4A6,2/3/16 18:55,62.6,37.4,39.14,240,7,0,29.92,10,62.6
8A0,2/3/16 18:55,59,46.4,62.92,260,10,0,29.93,10,59
8A0,2/3/16 19:15,60.8,46.4,59.01,260,10,0,29.93,10,60.8
4A6,2/3/16 19:15,60.8,37.4,41.71,240,7,0,29.93,10,60.8
8A0,2/3/16 19:35,60.8,46.4,59.01,260,8,0,29.93,10,60.8
4A6,2/3/16 19:35,60.8,37.4,41.71,240,8,0,29.93,10,60.8
4A6,2/3/16 19:55,60.8,37.4,41.71,230,6,0,29.93,10,60.8
8A0,2/3/16 19:55,59,46.4,62.92,260,10,0,29.92,10,59
4A6,2/3/16 20:15,60.8,33.8,36.16,260,9,0,29.93,10,60.8
8A0,2/3/16 20:15,59,44.6,58.77,250,7,0,29.92,10,59
8A0,2/3/16 20:35,59,44.6,58.77,250,9,0,29.93,10,59
4A6,2/3/16 20:35,60.8,35.6,38.85,250,9,0,29.93,10,60.8
4A6,2/3/16 20:55,59,35.6,41.42,240,8,0,29.94,10,59
8A0,2/3/16 20:55,59,42.8,54.86,260,9,0,29.94,10,59
8A0,2/3/16 21:15,59,42.8,54.86,280,8,0,29.94,10,59
4A6,2/3/16 21:15,60.8,37.4,41.71,260,8,0,29.94,10,60.8
4A6,2/3/16 21:35,60.8,33.8,36.16,260,7,0,29.95,10,60.8
8A0,2/3/16 21:35,59,42.8,54.86,270,8,0,29.95,10,59
4A6,2/3/16 21:55,60.8,32,33.64,290,7,0,29.96,10,60.8
8A0,2/3/16 21:55,59,44.6,58.77,240,7,0,29.95,10,59
8A0,2/3/16 22:15,59,44.6,58.77,260,4,0,29.95,10,59
4A6,2/3/16 22:15,59,32,35.87,290,4,0,29.96,10,59
8A0,2/3/16 22:35,59,42.8,54.86,270,7,0,29.96,10,59
4A6,2/3/16 22:35,59,35.6,41.42,290,5,0,29.97,10,59
4A6,2/3/16 22:55,57.2,33.8,41.13,300,8,0,29.98,10,57.2
8A0,2/3/16 22:55,57.2,42.8,58.52,280,6,0,29.97,10,57.2
8A0,2/3/16 23:15,55.4,41,58.27,310,9,0,29.97,10,55.4
4A6,2/3/16 23:15,57.2,32,38.26,290,5,0,29.99,10,57.2
4A6,2/3/16 23:35,57.2,26.6,30.69,290,6,0,29.99,10,57.2
8A0,2/3/16 23:35,53.6,39.2,58.02,310,5,0,29.98,10,53.6
4A6,2/3/16 23:55,55.4,28.4,35.28,320,5,0,30.01,10,55.4
8A0,2/3/16 23:55,53.6,37.4,54.07,290,6,0,30,10,53.6
8A0,2/4/16 0:15,53.6,37.4,54.07,280,6,0,30.02,10,53.6
4A6,2/4/16 0:15,55.4,26.6,32.76,290,5,0,30.02,10,55.4
8A0,2/4/16 0:35,51.8,37.4,57.77,290,3,0,30.02,10,51.8
4A6,2/4/16 0:35,55.4,28.4,35.28,280,4,0,30.03,10,55.4
4A6,2/4/16 0:55,53.6,26.6,34.98,300,4,0,30.05,10,53.6
8A0,2/4/16 0:55,51.8,37.4,57.77,290,4,0,30.03,10,51.8
4A6,2/4/16 1:15,53.6,28.4,37.67,330,3,0,30.05,10,53.6
8A0,2/4/16 1:15,51.8,37.4,57.77,310,4,0,30.03,10,51.8
4A6,2/4/16 1:35,53.6,26.6,34.98,330,4,0,30.05,10,53.6
8A0,2/4/16 1:35,50,37.4,61.76,300,4,0,30.04,10,48.44
4A6,2/4/16 1:55,53.6,26.6,34.98,0,0,0,30.05,10,53.6
8A0,2/4/16 1:55,50,37.4,61.76,290,5,0,30.04,10,47.77
4A6,2/4/16 2:15,51.8,26.6,37.38,310,7,0,30.06,10,51.8
8A0,2/4/16 2:15,50,37.4,61.76,300,6,0,30.05,10,47.21
8A0,2/4/16 2:35,50,37.4,61.76,300,6,0,30.06,10,47.21
4A6,2/4/16 2:35,51.8,26.6,37.38,300,6,0,30.07,10,51.8
8A0,2/4/16 2:55,48.2,37.4,66.05,310,7,0,30.05,10,44.53
4A6,2/4/16 2:55,50,28.4,43.03,330,9,0,30.07,10,45.9
8A0,2/4/16 3:15,48.2,35.6,61.52,320,9,0,30.06,10,43.66
4A6,2/4/16 3:15,50,30.2,46.31,340,6,0,30.09,10,47.21
4A6,2/4/16 3:35,48.2,30.2,49.53,360,7,0,30.09,10,44.53
8A0,2/4/16 3:35,46.4,37.4,70.68,320,8,0,30.07,10,41.85
8A0,2/4/16 3:55,44.6,37.4,75.68,330,8,0,30.08,10,39.63
4A6,2/4/16 3:55,46.4,32,57,350,8,0,30.11,10,41.85
8A0,2/4/16 4:15,44.6,37.4,75.68,330,8,0,30.1,10,39.63
4A6,2/4/16 4:15,44.6,32,61.03,360,7,0,30.13,10,40.14
8A0,2/4/16 4:35,42.8,35.6,75.5,330,10,0,30.11,10,36.51
4A6,2/4/16 4:35,44.6,32,61.03,360,7,0,30.14,10,40.14
4A6,2/4/16 4:55,44.6,32,61.03,360,10,0,30.15,10,38.77
8A0,2/4/16 4:55,42.8,35.6,75.5,330,10,0,30.12,10,36.51
4A6,2/4/16 5:15,42.8,32,65.38,340,8,0,30.16,10,37.42
8A0,2/4/16 5:15,41,35.6,80.93,330,9,0,30.12,10,34.7
4A6,2/4/16 5:35,41,30.2,65.16,10,9,0,30.17,10,34.7
8A0,2/4/16 5:35,41,35.6,80.93,330,12,0,30.12,10,33.46
4A6,2/4/16 5:55,41,28.4,60.54,340,5,0,30.17,10,37.08
8A0,2/4/16 5:55,41,35.6,80.93,340,9,0,30.12,10,34.7
8A0,2/4/16 6:15,39.2,35.6,86.79,340,9,0,30.12,10,32.47
4A6,2/4/16 6:15,41,28.4,60.54,350,6,0,30.18,10,36.37
4A6,2/4/16 6:35,41,28.4,60.54,360,5,0,30.17,10,37.08
8A0,2/4/16 6:35,39.2,35.6,86.79,340,8,0,30.13,10,32.98
4A6,2/4/16 6:55,39.2,28.4,64.93,360,4,0,30.18,10,35.83
8A0,2/4/16 6:55,37.4,33.8,86.69,340,11,0,30.13,10,29.29
4A6,2/4/16 7:15,39.2,28.4,64.93,360,5,0,30.18,10,34.95
8A0,2/4/16 7:15,37.4,33.8,86.69,340,11,0,30.14,10,29.29
8A0,2/4/16 7:35,37.4,33.8,86.69,350,7,0,30.14,10,31.36
4A6,2/4/16 7:35,39.2,28.4,64.93,360,6,0,30.17,10,34.2
4A6,2/4/16 7:55,39.2,28.4,64.93,350,5,0,30.17,10,34.95
8A0,2/4/16 7:55,37.4,32,80.65,350,8,0,30.14,10,30.76
4A6,2/4/16 8:15,39.2,28.4,64.93,350,6,0,30.17,10,34.2
8A0,2/4/16 8:15,37.4,32,80.65,340,9,0,30.13,10,30.23
4A6,2/4/16 8:35,37.4,28.4,69.67,350,6,0,30.17,10,32.03
8A0,2/4/16 8:35,35.6,32,86.59,350,8,0,30.13,10,28.55
4A6,2/4/16 8:55,37.4,28.4,69.67,350,4,0,30.17,10,33.73
8A0,2/4/16 8:55,35.6,32,86.59,350,8,0,30.14,10,28.55
8A0,2/4/16 9:15,35.6,32,86.59,350,9,0,30.13,10,27.99
4A6,2/4/16 9:15,37.4,28.4,69.67,350,3,0,30.17,10,34.86
8A0,2/4/16 9:35,35.6,32,86.59,350,7,0,30.13,10,29.17
4A6,2/4/16 9:35,37.4,26.6,64.7,350,4,0,30.17,10,33.73
4A6,2/4/16 9:55,37.4,26.6,64.7,360,4,0,30.17,10,33.73
8A0,2/4/16 9:55,35.6,32,86.59,350,8,0,30.13,10,28.55
4A6,2/4/16 10:15,35.6,26.6,69.46,360,4,0,30.17,10,31.62
8A0,2/4/16 10:15,35.6,32,86.59,350,7,0,30.13,10,29.17
4A6,2/4/16 10:35,35.6,26.6,69.46,350,3,0,30.17,10,32.8
8A0,2/4/16 10:35,35.6,32,86.59,350,7,0,30.14,10,29.17
4A6,2/4/16 10:55,35.6,28.4,74.8,350,4,0,30.18,10,31.62
8A0,2/4/16 10:55,35.6,32,86.59,340,6,0,30.14,10,29.87
8A0,2/4/16 11:15,33.8,32,93.03,350,7,0,30.15,10,26.97
4A6,2/4/16 11:15,32,28.4,86.39,0,0,0,30.18,10,32
8A0,2/4/16 11:35,33.8,32,93.03,350,5,0,30.16,10,28.53
4A6,2/4/16 11:35,32,28.4,86.39,0,0,0,30.19,10,32
8A0,2/4/16 11:55,33.8,32,93.03,340,6,0,30.16,10,27.7
4A6,2/4/16 11:55,32,28.4,86.39,0,0,0,30.19,10,32
4A6,2/4/16 12:15,32,28.4,86.39,0,0,0,30.19,10,32
8A0,2/4/16 12:15,33.8,32,93.03,340,6,0,30.16,10,27.7
4A6,2/4/16 12:35,32,30.2,92.97,0,0,0,30.2,10,32
8A0,2/4/16 12:35,33.8,32,93.03,340,5,0,30.16,10,28.53
8A0,2/4/16 12:55,33.8,32,93.03,340,4,0,30.17,10,29.52
4A6,2/4/16 12:55,32,30.2,92.97,0,0,0,30.2,10,32
8A0,2/4/16 13:15,33.8,32,93.03,350,6,0,30.17,10,27.7
4A6,2/4/16 13:15,32,28.4,86.39,0,0,0,30.21,10,32
4A6,2/4/16 13:35,33.8,30.2,86.49,0,0,0,30.21,10,33.8
8A0,2/4/16 13:35,33.8,32,93.03,350,6,0,30.17,10,27.7
8A0,2/4/16 13:55,35.6,32,86.59,350,7,0,30.18,10,29.17
4A6,2/4/16 13:55,37.4,30.2,74.98,30,4,0,30.22,10,33.73
4A6,2/4/16 14:15,39.2,28.4,64.93,30,7,0,30.22,10,33.56
8A0,2/4/16 14:15,35.6,32,86.59,350,9,0,30.18,10,27.99
8A0,2/4/16 14:35,37.4,32,80.65,10,10,0,30.19,10,29.74
4A6,2/4/16 14:35,39.2,28.4,64.93,20,8,0,30.22,10,32.98
4A6,2/4/16 14:55,39.2,28.4,64.93,30,10,0,30.23,10,32
8A0,2/4/16 14:55,37.4,32,80.65,360,14,0,30.2,10,28.12
4A6,2/4/16 15:15,39.2,28.4,64.93,20,8,0,30.24,10,32.98
8A0,2/4/16 15:15,37.4,32,80.65,360,11,0,30.21,10,29.29
8A0,2/4/16 15:35,37.4,32,80.65,360,11,0,30.21,10,29.29
4A6,2/4/16 15:35,41,26.6,56.22,20,7,0,30.25,10,35.75
8A0,2/4/16 15:55,39.2,32,75.16,320,8,0,30.22,10,32.98
4A6,2/4/16 15:55,42.8,26.6,52.45,10,8,0,30.25,10,37.42
8A0,2/4/16 16:15,39.2,32,75.16,330,10,0,30.22,10,32
4A6,2/4/16 16:15,42.8,26.6,52.45,340,4,0,30.25,10,40.03
4A6,2/4/16 16:35,44.6,26.6,48.96,320,9,0,30.24,10,39.18
8A0,2/4/16 16:35,41,32,70.08,350,13,0,30.22,10,33.1
4A6,2/4/16 16:55,44.6,24.8,45.44,340,6,0,30.23,10,40.71
8A0,2/4/16 16:55,41,32,70.08,330,9,0,30.21,10,34.7
8A0,2/4/16 17:15,41,32,70.08,330,11,0,30.21,10,33.84
4A6,2/4/16 17:15,44.6,24.8,45.44,350,6,0,30.23,10,40.71
4A6,2/4/16 17:35,46.4,26.6,45.73,320,9,0,30.22,10,41.42
8A0,2/4/16 17:35,42.8,32,65.38,350,10,0,30.2,10,36.51
4A6,2/4/16 17:55,46.4,24.8,42.44,330,9,0,30.22,10,41.42
8A0,2/4/16 17:55,42.8,33.8,70.28,330,8,0,30.19,10,37.42
8A0,2/4/16 18:15,42.8,32,65.38,330,8,0,30.18,10,37.42
4A6,2/4/16 18:15,46.4,24.8,42.44,330,8,0,30.2,10,41.85
8A0,2/4/16 18:35,42.8,32,65.38,350,12,0,30.18,10,35.75
4A6,2/4/16 18:35,46.4,23,39.36,320,9,0,30.2,10,41.42
8A0,2/4/16 18:55,44.6,32,61.03,350,14,0,30.17,10,37.4
4A6,2/4/16 18:55,46.4,23,39.36,340,11,0,30.19,10,40.66
