station,valid,tmpf,dwpf,relh,drct,sknt,p01i,alti,mslp,vsby,gust,skyc1,skyc2,skyc3,skyc4,skyl1,skyl2,skyl3,skyl4,wxcodes,ice_accretion_1hr,ice_accretion_3hr,ice_accretion_6hr,peak_wind_gust,peak_wind_drct,peak_wind_time,feel,metar
8A0,1/1/16 0:15,41.0,39.2,93.24,350,6,0.0,30.25,M,10.0,M,CLR,M,M,M,M,M,M,M,M,M,M,M,M,M,M,36.37,K8A0 010015Z AUTO 35006KT 10SM CLR 05/04 A3025 RMK AO2
8A0,1/1/16 0:35,39.2,37.4,93.19,360,6,0.0,30.25,M,10.0,M,CLR,M,M,M,M,M,M,M,M,M,M,M,M,M,M,34.2,K8A0 010035Z AUTO 36006KT 10SM CLR 04/03 A3025 RMK AO2
8A0,1/1/16 0:55,37.4,37.4,100.0,360,8,0.0,30.25,M,10.0,M,CLR,M,M,M,M,M,M,M,M,M,M,M,M,M,M,30.76,K8A0 010055Z AUTO 36008KT 10SM CLR 03/03 A3025 RMK AO2
8A0,1/1/16 1:15,37.4,37.4,100.0,350,7,0.0,30.26,M,10.0,M,CLR,M,M,M,M,M,M,M,M,M,M,M,M,M,M,31.36,K8A0 010115Z AUTO 35007KT 10SM CLR 03/03 A3026 RMK AO2
8A0,1/1/16 1:35,37.4,37.4,100.0,360,9,0.0,30.25,M,10.0,M,CLR,M,M,M,M,M,M,M,M,M,M,M,M,M,M,30.23,K8A0 010135Z AUTO 36009KT 10SM CLR 03/03 A3025 RMK AO2
8A0,1/1/16 1:55,37.4,37.4,100.0,360,8,0.0,30.25,M,10.0,M,CLR,M,M,M,M,M,M,M,M,M,M,M,M,M,M,30.76,K8A0 010155Z AUTO 36008KT 10SM CLR 03/03 A3025 RMK AO2
8A0,1/1/16 2:15,37.4,37.4,100.0,350,9,0.0,30.26,M,10.0,M,CLR,M,M,M,M,M,M,M,M,M,M,M,M,M,M,30.23,K8A0 010215Z AUTO 35009KT 10SM CLR 03/03 A3026 RMK AO2
8A0,1/1/16 2:35,37.4,37.4,100.0,350,9,0.0,30.25,M,10.0,M,CLR,M,M,M,M,M,M,M,M,M,M,M,M,M,M,30.23,K8A0 010235Z AUTO 35009KT 10SM CLR 03/03 A3025 RMK AO2
8A0,1/1/16 2:55,37.4,37.4,100.0,360,8,0.0,30.24,M,10.0,M,CLR,M,M,M,M,M,M,M,M,M,M,M,M,M,M,30.76,K8A0 010255Z AUTO 36008KT 10SM CLR 03/03 A3024 RMK AO2
8A0,1/1/16 3:15,37.4,37.4,100.0,10,4,0.0,30.25,M,10.0,M,CLR,M,M,M,M,M,M,M,M,M,M,M,M,M,M,33.73,K8A0 010315Z AUTO 01004KT 10SM CLR 03/03 A3025 RMK AO2
8A0,1/1/16 3:35,37.4,37.4,100.0,360,6,0.0,30.25,M,10.0,M,CLR,M,M,M,M,M,M,M,M,M,M,M,M,M,M,32.03,K8A0 010335Z AUTO 36006KT 10SM CLR 03/03 A3025 RMK AO2
8A0,1/1/16 3:55,37.4,35.6,93.14,350,4,0.0,30.25,M,10.0,M,CLR,M,M,M,M,M,M,M,M,M,M,M,M,M,M,33.73,K8A0 010355Z AUTO 35004KT 10SM CLR 03/02 A3025 RMK AO2
8A0,1/1/16 4:15,37.4,37.4,100.0,350,5,0.0,30.26,M,10.0,M,CLR,M,M,M,M,M,M,M,M,M,M,M,M,M,M,32.81,K8A0 010415Z AUTO 35005KT 10SM CLR 03/03 A3026 RMK AO2
8A0,1/1/16 4:35,37.4,35.6,93.14,360,6,0.0,30.25,M,10.0,M,CLR,M,M,M,M,M,M,M,M,M,M,M,M,M,M,32.03,K8A0 010435Z AUTO 36006KT 10SM CLR 03/02 A3025 RMK AO2
8A0,1/1/16 4:55,35.6,35.6,100.0,350,4,0.0,30.26,M,10.0,M,CLR,M,M,M,M,M,M,M,M,M,M,M,M,M,M,31.62,K8A0 010455Z AUTO 35004KT 10SM CLR 02/02 A3026 RMK AO2
8A0,1/1/16 5:15,35.6,35.6,100.0,340,5,0.0,30.26,M,10.0,M,CLR,M,M,M,M,M,M,M,M,M,M,M,M,M,M,30.67,K8A0 010515Z AUTO 34005KT 10SM CLR 02/02 A3026 RMK AO2
8A0,1/1/16 5:35,35.6,35.6,100.0,350,6,0.0,30.26,M,10.0,M,CLR,M,M,M,M,M,M,M,M,M,M,M,M,M,M,29.87,K8A0 010535Z AUTO 35006KT 10SM CLR 02/02 A3026 RMK AO2
8A0,1/1/16 5:55,35.6,35.6,100.0,360,7,0.0,30.25,M,10.0,M,CLR,M,M,M,M,M,M,M,M,M,M,M,M,M,M,29.17,K8A0 010555Z AUTO 36007KT 10SM CLR 02/02 A3025 RMK AO2
8A0,1/1/16 6:15,35.6,35.6,100.0,340,9,0.0,30.24,M,10.0,M,CLR,M,M,M,M,M,M,M,M,M,M,M,M,M,M,27.99,K8A0 010615Z AUTO 34009KT 10SM CLR 02/02 A3024 RMK AO2
8A0,1/1/16 6:35,35.6,35.6,100.0,360,8,0.0,30.24,M,10.0,M,CLR,M,M,M,M,M,M,M,M,M,M,M,M,M,M,28.55,K8A0 010635Z AUTO 36008KT 10SM CLR 02/02 A3024 RMK AO2
8A0,1/1/16 6:55,35.6,35.6,100.0,350,9,0.0,30.25,M,10.0,14,CLR,M,M,M,M,M,M,M,M,M,M,M,M,M,M,27.99,K8A0 010655Z AUTO 35009G14KT 10SM CLR 02/02 A3025 RMK AO2
8A0,1/1/16 7:15,35.6,35.6,100.0,340,4,0.0,30.26,M,10.0,M,CLR,M,M,M,M,M,M,M,M,M,M,M,M,M,M,31.62,K8A0 010715Z AUTO 34004KT 10SM CLR 02/02 A3026 RMK AO2
8A0,1/1/16 7:35,35.6,35.6,100.0,340,5,0.0,30.26,M,10.0,M,SCT,M,M,M,1300,M,M,M,M,M,M,M,M,M,M,30.67,K8A0 010735Z AUTO 34005KT 10SM SCT013 02/02 A3026 RMK AO2
8A0,1/1/16 7:55,35.6,35.6,100.0,330,6,0.0,30.26,M,10.0,M,OVC,M,M,M,1100,M,M,M,M,M,M,M,M,M,M,29.87,K8A0 010755Z AUTO 33006KT 10SM OVC011 02/02 A3026 RMK AO2
8A0,1/1/16 8:15,35.6,35.6,100.0,340,7,0.0,30.26,M,10.0,M,BKN,M,M,M,1100,M,M,M,M,M,M,M,M,M,M,29.17,K8A0 010815Z AUTO 34007KT 10SM BKN011 02/02 A3026 RMK AO2
8A0,1/1/16 8:35,35.6,35.6,100.0,360,9,0.0,30.25,M,10.0,M,SCT,M,M,M,1300,M,M,M,M,M,M,M,M,M,M,27.99,K8A0 010835Z AUTO 36009KT 10SM SCT013 02/02 A3025 RMK AO2
8A0,1/1/16 8:55,33.8,33.8,100.0,350,8,0.0,30.24,M,10.0,M,SCT,M,M,M,1100,M,M,M,M,M,M,M,M,M,M,26.33,K8A0 010855Z AUTO 35008KT 10SM SCT011 01/01 A3024 RMK AO2
8A0,1/1/16 9:15,33.8,33.8,100.0,350,9,0.0,30.25,M,10.0,M,BKN,M,M,M,1100,M,M,M,M,M,M,M,M,M,M,25.75,K8A0 010915Z AUTO 35009KT 10SM BKN011 01/01 A3025 RMK AO2
8A0,1/1/16 9:35,33.8,33.8,100.0,350,11,0.0,30.25,M,10.0,17,BKN,M,M,M,1300,M,M,M,M,M,M,M,M,M,M,24.74,K8A0 010935Z AUTO 35011G17KT 10SM BKN013 01/01 A3025 RMK AO2
8A0,1/1/16 9:55,33.8,33.8,100.0,350,10,0.0,30.25,M,10.0,M,OVC,M,M,M,1300,M,M,M,M,M,M,M,M,M,M,25.23,K8A0 010955Z AUTO 35010KT 10SM OVC013 01/01 A3025 RMK AO2
8A0,1/1/16 10:15,33.8,33.8,100.0,350,9,0.0,30.26,M,10.0,M,OVC,M,M,M,1300,M,M,M,M,M,M,M,M,M,M,25.75,K8A0 011015Z AUTO 35009KT 10SM OVC013 01/01 A3026 RMK AO2
8A0,1/1/16 10:35,33.8,33.8,100.0,350,9,0.0,30.26,M,10.0,M,OVC,M,M,M,1300,M,M,M,M,M,M,M,M,M,M,25.75,K8A0 011035Z AUTO 35009KT 10SM OVC013 01/01 A3026 RMK AO2
8A0,1/1/16 10:55,33.8,33.8,100.0,350,9,0.0,30.27,M,10.0,M,OVC,M,M,M,1300,M,M,M,M,M,M,M,M,M,M,25.75,K8A0 011055Z AUTO 35009KT 10SM OVC013 01/01 A3027 RMK AO2
8A0,1/1/16 11:15,33.8,33.8,100.0,350,10,0.0,30.28,M,10.0,M,OVC,M,M,M,1300,M,M,M,M,M,M,M,M,M,M,25.23,K8A0 011115Z AUTO 35010KT 10SM OVC013 01/01 A3028 RMK AO2
8A0,1/1/16 11:35,33.8,33.8,100.0,350,9,0.0,30.28,M,10.0,14,OVC,M,M,M,1300,M,M,M,M,M,M,M,M,M,M,25.75,K8A0 011135Z AUTO 35009G14KT 10SM OVC013 01/01 A3028 RMK AO2
8A0,1/1/16 11:55,33.8,33.8,100.0,350,9,0.0,30.28,M,10.0,M,SCT,M,M,M,1300,M,M,M,M,M,M,M,M,M,M,25.75,K8A0 011155Z AUTO 35009KT 10SM SCT013 01/01 A3028 RMK AO2
8A0,1/1/16 12:15,33.8,33.8,100.0,360,7,0.0,30.27,M,10.0,M,CLR,M,M,M,M,M,M,M,M,M,M,M,M,M,M,26.97,K8A0 011215Z AUTO 36007KT 10SM CLR 01/01 A3027 RMK AO2
8A0,1/1/16 12:35,33.8,33.8,100.0,350,8,0.0,30.27,M,10.0,M,CLR,M,M,M,M,M,M,M,M,M,M,M,M,M,M,26.33,K8A0 011235Z AUTO 35008KT 10SM CLR 01/01 A3027 RMK AO2
8A0,1/1/16 12:55,33.8,33.8,100.0,350,7,0.0,30.29,M,10.0,M,CLR,M,M,M,M,M,M,M,M,M,M,M,M,M,M,26.97,K8A0 011255Z AUTO 35007KT 10SM CLR 01/01 A3029 RMK AO2
8A0,1/1/16 13:15,33.8,33.8,100.0,360,9,0.0,30.29,M,7.0,M,CLR,M,M,M,M,M,M,M,M,M,M,M,M,M,M,25.75,K8A0 011315Z AUTO 36009KT 7SM CLR 01/01 A3029 RMK AO2
8A0,1/1/16 13:35,33.8,33.8,100.0,360,9,0.0,30.29,M,10.0,M,BKN,M,M,M,11000,M,M,M,M,M,M,M,M,M,M,25.75,K8A0 011335Z AUTO 36009KT 10SM BKN110 01/01 A3029 RMK AO2
8A0,1/1/16 13:55,33.8,33.8,100.0,360,9,0.0,30.28,M,10.0,M,BKN,M,M,M,11000,M,M,M,M,M,M,M,M,M,M,25.75,K8A0 011355Z AUTO 36009KT 10SM BKN110 01/01 A3028 RMK AO2
8A0,1/1/16 14:15,35.6,33.8,93.08,350,7,0.0,30.28,M,10.0,M,BKN,M,M,M,11000,M,M,M,M,M,M,M,M,M,M,29.17,K8A0 011415Z AUTO 35007KT 10SM BKN110 02/01 A3028 RMK AO2
8A0,1/1/16 14:35,35.6,33.8,93.08,20,7,0.0,30.28,M,10.0,M,BKN,M,M,M,11000,M,M,M,M,M,M,M,M,M,M,29.17,K8A0 011435Z AUTO 02007KT 10SM BKN110 02/01 A3028 RMK AO2
8A0,1/1/16 14:55,35.6,33.8,93.08,360,8,0.0,30.3,M,10.0,M,BKN,M,M,M,11000,M,M,M,M,M,M,M,M,M,M,28.55,K8A0 011455Z AUTO 36008KT 10SM BKN110 02/01 A3030 RMK AO2
8A0,1/1/16 15:15,35.6,35.6,100.0,340,7,0.0,30.3,M,10.0,M,BKN,M,M,M,11000,M,M,M,M,M,M,M,M,M,M,29.17,K8A0 011515Z AUTO 34007KT 10SM BKN110 02/02 A3030 RMK AO2
8A0,1/1/16 15:35,35.6,33.8,93.08,340,8,0.0,30.31,M,10.0,M,SCT,M,M,M,12000,M,M,M,M,M,M,M,M,M,M,28.55,K8A0 011535Z AUTO 34008KT 10SM SCT120 02/01 A3031 RMK AO2
8A0,1/1/16 15:55,35.6,33.8,93.08,360,8,0.0,30.31,M,10.0,M,CLR,M,M,M,M,M,M,M,M,M,M,M,M,M,M,28.55,K8A0 011555Z AUTO 36008KT 10SM CLR 02/01 A3031 RMK AO2
8A0,1/1/16 16:15,35.6,35.6,100.0,320,9,0.0,30.31,M,10.0,M,CLR,M,M,M,M,M,M,M,M,M,M,M,M,M,M,27.99,K8A0 011615Z AUTO 32009KT 10SM CLR 02/02 A3031 RMK AO2
8A0,1/1/16 16:35,37.4,35.6,93.14,330,12,0.0,30.31,M,10.0,M,CLR,M,M,M,M,M,M,M,M,M,M,M,M,M,M,28.87,K8A0 011635Z AUTO 33012KT 10SM CLR 03/02 A3031 RMK AO2
8A0,1/1/16 16:55,37.4,33.8,86.69,340,10,0.0,30.31,M,10.0,M,CLR,M,M,M,M,M,M,M,M,M,M,M,M,M,M,29.74,K8A0 011655Z AUTO 34010KT 10SM CLR 03/01 A3031 RMK AO2
8A0,1/1/16 17:15,37.4,33.8,86.69,340,10,0.0,30.31,M,10.0,M,CLR,M,M,M,M,M,M,M,M,M,M,M,M,M,M,29.74,K8A0 011715Z AUTO 34010KT 10SM CLR 03/01 A3031 RMK AO2
8A0,1/1/16 17:35,37.4,33.8,86.69,350,9,0.0,30.29,M,10.0,M,SCT,M,M,M,12000,M,M,M,M,M,M,M,M,M,M,30.23,K8A0 011735Z AUTO 35009KT 10SM SCT120 03/01 A3029 RMK AO2
8A0,1/1/16 17:55,35.6,33.8,93.08,340,10,0.0,30.29,M,10.0,14,SCT,M,M,M,12000,M,M,M,M,M,M,M,M,M,M,27.48,K8A0 011755Z AUTO 34010G14KT 10SM SCT120 02/01 A3029 RMK AO2
8A0,1/1/16 18:15,37.4,33.8,86.69,340,10,0.0,30.29,M,10.0,14,CLR,M,M,M,M,M,M,M,M,M,M,M,M,M,M,29.74,K8A0 011815Z AUTO 34010G14KT 10SM CLR 03/01 A3029 RMK AO2
8A0,1/1/16 18:35,37.4,33.8,86.69,350,11,0.0,30.27,M,10.0,M,CLR,M,M,M,M,M,M,M,M,M,M,M,M,M,M,29.29,K8A0 011835Z AUTO 35011KT 10SM CLR 03/01 A3027 RMK AO2
8A0,1/1/16 18:55,37.4,33.8,86.69,330,7,0.0,30.27,M,10.0,M,SCT,M,M,M,12000,M,M,M,M,M,M,M,M,M,M,31.36,K8A0 011855Z AUTO 33007KT 10SM SCT120 03/01 A3027 RMK AO2
8A0,1/1/16 19:15,37.4,33.8,86.69,320,8,0.0,30.27,M,10.0,M,SCT,M,M,M,12000,M,M,M,M,M,M,M,M,M,M,30.76,K8A0 011915Z AUTO 32008KT 10SM SCT120 03/01 A3027 RMK AO2
8A0,1/1/16 19:35,37.4,33.8,86.69,340,6,0.0,30.27,M,10.0,M,CLR,M,M,M,M,M,M,M,M,M,M,M,M,M,M,32.03,K8A0 011935Z AUTO 34006KT 10SM CLR 03/01 A3027 RMK AO2
8A0,1/1/16 19:55,37.4,33.8,86.69,320,7,0.0,30.28,M,10.0,M,CLR,M,M,M,M,M,M,M,M,M,M,M,M,M,M,31.36,K8A0 011955Z AUTO 32007KT 10SM CLR 03/01 A3028 RMK AO2
8A0,1/1/16 20:15,37.4,32.0,80.65,340,7,0.0,30.27,M,10.0,M,CLR,M,M,M,M,M,M,M,M,M,M,M,M,M,M,31.36,K8A0 012015Z AUTO 34007KT 10SM CLR 03/00 A3027 RMK AO2
8A0,1/1/16 20:35,37.4,32.0,80.65,330,7,0.0,30.28,M,10.0,M,CLR,M,M,M,M,M,M,M,M,M,M,M,M,M,M,31.36,K8A0 012035Z AUTO 33007KT 10SM CLR 03/00 A3028 RMK AO2
8A0,1/1/16 20:55,37.4,33.8,86.69,330,6,0.0,30.28,M,10.0,M,CLR,M,M,M,M,M,M,M,M,M,M,M,M,M,M,32.03,K8A0 012055Z AUTO 33006KT 10SM CLR 03/01 A3028 RMK AO2
8A0,1/1/16 21:15,37.4,32.0,80.65,330,10,0.0,30.27,M,10.0,M,CLR,M,M,M,M,M,M,M,M,M,M,M,M,M,M,29.74,K8A0 012115Z AUTO 33010KT 10SM CLR 03/00 A3027 RMK AO2
8A0,1/1/16 21:35,37.4,32.0,80.65,350,10,0.0,30.27,M,10.0,M,CLR,M,M,M,M,M,M,M,M,M,M,M,M,M,M,29.74,K8A0 012135Z AUTO 35010KT 10SM CLR 03/00 A3027 RMK AO2
8A0,1/1/16 21:55,37.4,32.0,80.65,340,7,0.0,30.27,M,10.0,M,CLR,M,M,M,M,M,M,M,M,M,M,M,M,M,M,31.36,K8A0 012155Z AUTO 34007KT 10SM CLR 03/00 A3027 RMK AO2
8A0,1/1/16 22:15,37.4,32.0,80.65,320,6,0.0,30.28,M,10.0,M,CLR,M,M,M,M,M,M,M,M,M,M,M,M,M,M,32.03,K8A0 012215Z AUTO 32006KT 10SM CLR 03/00 A3028 RMK AO2
8A0,1/1/16 22:35,37.4,32.0,80.65,340,6,0.0,30.28,M,10.0,M,CLR,M,M,M,M,M,M,M,M,M,M,M,M,M,M,32.03,K8A0 012235Z AUTO 34006KT 10SM CLR 03/00 A3028 RMK AO2
8A0,1/1/16 22:55,37.4,32.0,80.65,320,5,0.0,30.29,M,10.0,M,CLR,M,M,M,M,M,M,M,M,M,M,M,M,M,M,32.81,K8A0 012255Z AUTO 32005KT 10SM CLR 03/00 A3029 RMK AO2
8A0,1/1/16 23:15,37.4,32.0,80.65,320,6,0.0,30.29,M,10.0,M,CLR,M,M,M,M,M,M,M,M,M,M,M,M,M,M,32.03,K8A0 012315Z AUTO 32006KT 10SM CLR 03/00 A3029 RMK AO2
8A0,1/1/16 23:35,35.6,32.0,86.59,320,7,0.0,30.29,M,10.0,M,CLR,M,M,M,M,M,M,M,M,M,M,M,M,M,M,29.17,K8A0 012335Z AUTO 32007KT 10SM CLR 02/00 A3029 RMK AO2
8A0,1/1/16 23:55,35.6,32.0,86.59,330,6,0.0,30.29,M,10.0,M,CLR,M,M,M,M,M,M,M,M,M,M,M,M,M,M,29.87,K8A0 012355Z AUTO 33006KT 10SM CLR 02/00 A3029 RMK AO2
8A0,1/2/16 0:15,35.6,32.0,86.59,320,5,0.0,30.31,M,10.0,M,CLR,M,M,M,M,M,M,M,M,M,M,M,M,M,M,30.67,K8A0 020015Z AUTO 32005KT 10SM CLR 02/00 A3031 RMK AO2
8A0,1/2/16 0:35,35.6,32.0,86.59,340,7,0.0,30.31,M,10.0,M,CLR,M,M,M,M,M,M,M,M,M,M,M,M,M,M,29.17,K8A0 020035Z AUTO 34007KT 10SM CLR 02/00 A3031 RMK AO2
8A0,1/2/16 0:55,35.6,32.0,86.59,340,5,0.0,30.31,M,10.0,M,CLR,M,M,M,M,M,M,M,M,M,M,M,M,M,M,30.67,K8A0 020055Z AUTO 34005KT 10SM CLR 02/00 A3031 RMK AO2
8A0,1/2/16 1:15,35.6,32.0,86.59,340,5,0.0,30.31,M,10.0,M,CLR,M,M,M,M,M,M,M,M,M,M,M,M,M,M,30.67,K8A0 020115Z AUTO 34005KT 10SM CLR 02/00 A3031 RMK AO2
8A0,1/2/16 1:35,35.6,32.0,86.59,330,4,0.0,30.31,M,10.0,M,CLR,M,M,M,M,M,M,M,M,M,M,M,M,M,M,31.62,K8A0 020135Z AUTO 33004KT 10SM CLR 02/00 A3031 RMK AO2
8A0,1/2/16 1:55,35.6,32.0,86.59,320,4,0.0,30.32,M,10.0,M,CLR,M,M,M,M,M,M,M,M,M,M,M,M,M,M,31.62,K8A0 020155Z AUTO 32004KT 10SM CLR 02/00 A3032 RMK AO2
8A0,1/2/16 2:15,35.6,33.8,93.08,310,4,0.0,30.34,M,10.0,M,CLR,M,M,M,M,M,M,M,M,M,M,M,M,M,M,31.62,K8A0 020215Z AUTO 31004KT 10SM CLR 02/01 A3034 RMK AO2
8A0,1/2/16 2:35,35.6,32.0,86.59,330,5,0.0,30.32,M,10.0,M,CLR,M,M,M,M,M,M,M,M,M,M,M,M,M,M,30.67,K8A0 020235Z AUTO 33005KT 10SM CLR 02/00 A3032 RMK AO2
8A0,1/2/16 2:55,35.6,33.8,93.08,320,4,0.0,30.32,M,10.0,M,CLR,M,M,M,M,M,M,M,M,M,M,M,M,M,M,31.62,K8A0 020255Z AUTO 32004KT 10SM CLR 02/01 A3032 RMK AO2
8A0,1/2/16 3:15,35.6,32.0,86.59,330,3,0.0,30.32,M,10.0,M,CLR,M,M,M,M,M,M,M,M,M,M,M,M,M,M,32.8,K8A0 020315Z AUTO 33003KT 10SM CLR 02/00 A3032 RMK AO2
8A0,1/2/16 3:35,35.6,32.0,86.59,330,3,0.0,30.32,M,10.0,M,CLR,M,M,M,M,M,M,M,M,M,M,M,M,M,M,32.8,K8A0 020335Z AUTO 33003KT 10SM CLR 02/00 A3032 RMK AO2
8A0,1/2/16 3:55,35.6,33.8,93.08,0,0,0.0,30.32,M,10.0,M,CLR,M,M,M,M,M,M,M,M,M,M,M,M,M,M,35.6,K8A0 020355Z AUTO 00000KT 10SM CLR 02/01 A3032 RMK AO2
8A0,1/2/16 4:15,35.6,32.0,86.59,360,4,0.0,30.32,M,10.0,M,CLR,M,M,M,M,M,M,M,M,M,M,M,M,M,M,31.62,K8A0 020415Z AUTO 36004KT 10SM CLR 02/00 A3032 RMK AO2
8A0,1/2/16 4:35,35.6,32.0,86.59,0,0,0.0,30.32,M,10.0,M,CLR,M,M,M,M,M,M,M,M,M,M,M,M,M,M,35.6,K8A0 020435Z AUTO 00000KT 10SM CLR 02/00 A3032 RMK AO2
8A0,1/2/16 4:55,35.6,32.0,86.59,350,3,0.0,30.32,M,10.0,M,CLR,M,M,M,M,M,M,M,M,M,M,M,M,M,M,32.8,K8A0 020455Z AUTO 35003KT 10SM CLR 02/00 A3032 RMK AO2
8A0,1/2/16 5:15,35.6,32.0,86.59,320,3,0.0,30.32,M,10.0,M,CLR,M,M,M,M,M,M,M,M,M,M,M,M,M,M,32.8,K8A0 020515Z AUTO 32003KT 10SM CLR 02/00 A3032 RMK AO2
8A0,1/2/16 5:35,35.6,32.0,86.59,310,4,0.0,30.32,M,10.0,M,CLR,M,M,M,M,M,M,M,M,M,M,M,M,M,M,31.62,K8A0 020535Z AUTO 31004KT 10SM CLR 02/00 A3032 RMK AO2
8A0,1/2/16 5:55,35.6,32.0,86.59,310,4,0.0,30.31,M,10.0,M,CLR,M,M,M,M,M,M,M,M,M,M,M,M,M,M,31.62,K8A0 020555Z AUTO 31004KT 10SM CLR 02/00 A3031 RMK AO2
8A0,1/2/16 6:15,35.6,32.0,86.59,300,5,0.0,30.31,M,10.0,M,CLR,M,M,M,M,M,M,M,M,M,M,M,M,M,M,30.67,K8A0 020615Z AUTO 30005KT 10SM CLR 02/00 A3031 RMK AO2
8A0,1/2/16 6:35,33.8,32.0,93.03,310,5,0.0,30.29,M,10.0,M,CLR,M,M,M,M,M,M,M,M,M,M,M,M,M,M,28.53,K8A0 020635Z AUTO 31005KT 10SM CLR 01/00 A3029 RMK AO2
8A0,1/2/16 6:55,33.8,32.0,93.03,320,3,0.0,30.29,M,10.0,M,CLR,M,M,M,M,M,M,M,M,M,M,M,M,M,M,30.75,K8A0 020655Z AUTO 32003KT 10SM CLR 01/00 A3029 RMK AO2
8A0,1/2/16 7:15,33.8,32.0,93.03,320,4,0.0,30.29,M,10.0,M,CLR,M,M,M,M,M,M,M,M,M,M,M,M,M,M,29.52,K8A0 020715Z AUTO 32004KT 10SM CLR 01/00 A3029 RMK AO2
8A0,1/2/16 7:35,33.8,32.0,93.03,320,5,0.0,30.29,M,10.0,M,CLR,M,M,M,M,M,M,M,M,M,M,M,M,M,M,28.53,K8A0 020735Z AUTO 32005KT 10SM CLR 01/00 A3029 RMK AO2
8A0,1/2/16 7:55,33.8,32.0,93.03,330,6,0.0,30.3,M,10.0,M,CLR,M,M,M,M,M,M,M,M,M,M,M,M,M,M,27.7,K8A0 020755Z AUTO 33006KT 10SM CLR 01/00 A3030 RMK AO2
8A0,1/2/16 8:15,33.8,32.0,93.03,340,7,0.0,30.29,M,10.0,M,CLR,M,M,M,M,M,M,M,M,M,M,M,M,M,M,26.97,K8A0 020815Z AUTO 34007KT 10SM CLR 01/00 A3029 RMK AO2
8A0,1/2/16 8:35,33.8,32.0,93.03,340,5,0.0,30.29,M,10.0,M,CLR,M,M,M,M,M,M,M,M,M,M,M,M,M,M,28.53,K8A0 020835Z AUTO 34005KT 10SM CLR 01/00 A3029 RMK AO2
8A0,1/2/16 8:55,33.8,32.0,93.03,360,4,0.0,30.29,M,10.0,M,CLR,M,M,M,M,M,M,M,M,M,M,M,M,M,M,29.52,K8A0 020855Z AUTO 36004KT 10SM CLR 01/00 A3029 RMK AO2
8A0,1/2/16 9:15,33.8,32.0,93.03,340,4,0.0,30.3,M,10.0,M,CLR,M,M,M,M,M,M,M,M,M,M,M,M,M,M,29.52,K8A0 020915Z AUTO 34004KT 10SM CLR 01/00 A3030 RMK AO2
8A0,1/2/16 9:35,33.8,32.0,93.03,330,3,0.0,30.3,M,10.0,M,CLR,M,M,M,M,M,M,M,M,M,M,M,M,M,M,30.75,K8A0 020935Z AUTO 33003KT 10SM CLR 01/00 A3030 RMK AO2
8A0,1/2/16 9:55,32.0,32.0,100.0,360,5,0.0,30.29,M,10.0,M,CLR,M,M,M,M,M,M,M,M,M,M,M,M,M,M,26.4,K8A0 020955Z AUTO 36005KT 10SM CLR 00/00 A3029 RMK AO2
8A0,1/2/16 10:15,32.0,32.0,100.0,360,4,0.0,30.29,M,10.0,M,CLR,M,M,M,M,M,M,M,M,M,M,M,M,M,M,27.42,K8A0 021015Z AUTO 36004KT 10SM CLR 00/00 A3029 RMK AO2
8A0,1/2/16 10:35,32.0,32.0,100.0,360,4,0.0,30.29,M,10.0,M,CLR,M,M,M,M,M,M,M,M,M,M,M,M,M,M,27.42,K8A0 021035Z AUTO 36004KT 10SM CLR 00/00 A3029 RMK AO2
8A0,1/2/16 10:55,32.0,32.0,100.0,360,4,0.0,30.29,M,10.0,M,CLR,M,M,M,M,M,M,M,M,M,M,M,M,M,M,27.42,K8A0 021055Z AUTO 36004KT 10SM CLR 00/00 A3029 RMK AO2
8A0,1/2/16 11:15,32.0,32.0,100.0,0,0,0.0,30.29,M,10.0,M,CLR,M,M,M,M,M,M,M,M,M,M,M,M,M,M,32.0,K8A0 021115Z AUTO 00000KT 10SM CLR 00/00 A3029 RMK AO2
8A0,1/2/16 11:35,30.2,30.2,100.0,0,0,0.0,30.3,M,10.0,M,CLR,M,M,M,M,M,M,M,M,M,M,M,M,M,M,30.2,K8A0 021135Z AUTO 00000KT 10SM CLR M01/M01 A3030 RMK AO2
8A0,1/2/16 11:55,32.0,32.0,100.0,0,0,0.0,30.3,M,10.0,M,CLR,M,M,M,M,M,M,M,M,M,M,M,M,M,M,32.0,K8A0 021155Z AUTO 00000KT 10SM CLR 00/00 A3030 RMK AO2
8A0,1/2/16 12:15,32.0,32.0,100.0,360,7,0.0,30.3,M,10.0,M,CLR,M,M,M,M,M,M,M,M,M,M,M,M,M,M,24.78,K8A0 021215Z AUTO 36007KT 10SM CLR 00/00 A3030 RMK AO2
8A0,1/2/16 12:35,32.0,30.2,92.97,10,6,0.0,30.3,M,10.0,M,CLR,M,M,M,M,M,M,M,M,M,M,M,M,M,M,25.53,K8A0 021235Z AUTO 01006KT 10SM CLR 00/M01 A3030 RMK AO2
8A0,1/2/16 12:55,32.0,30.2,92.97,360,5,0.0,30.31,M,10.0,M,CLR,M,M,M,M,M,M,M,M,M,M,M,M,M,M,26.4,K8A0 021255Z AUTO 36005KT 10SM CLR 00/M01 A3031 RMK AO2
8A0,1/2/16 13:15,32.0,30.2,92.97,360,4,0.0,30.31,M,10.0,M,CLR,M,M,M,M,M,M,M,M,M,M,M,M,M,M,27.42,K8A0 021315Z AUTO 36004KT 10SM CLR 00/M01 A3031 RMK AO2
8A0,1/2/16 13:35,32.0,30.2,92.97,10,4,0.0,30.31,M,10.0,M,CLR,M,M,M,M,M,M,M,M,M,M,M,M,M,M,27.42,K8A0 021335Z AUTO 01004KT 10SM CLR 00/M01 A3031 RMK AO2
8A0,1/2/16 13:55,32.0,32.0,100.0,20,4,0.0,30.32,M,10.0,M,CLR,M,M,M,M,M,M,M,M,M,M,M,M,M,M,27.42,K8A0 021355Z AUTO 02004KT 10SM CLR 00/00 A3032 RMK AO2
8A0,1/2/16 14:15,32.0,32.0,100.0,10,4,0.0,30.33,M,10.0,M,CLR,M,M,M,M,M,M,M,M,M,M,M,M,M,M,27.42,K8A0 021415Z AUTO 01004KT 10SM CLR 00/00 A3033 RMK AO2
8A0,1/2/16 14:35,33.8,32.0,93.03,360,4,0.0,30.33,M,10.0,M,CLR,M,M,M,M,M,M,M,M,M,M,M,M,M,M,29.52,K8A0 021435Z AUTO 36004KT 10SM CLR 01/00 A3033 RMK AO2
8A0,1/2/16 14:55,33.8,32.0,93.03,20,5,0.0,30.32,M,10.0,M,CLR,M,M,M,M,M,M,M,M,M,M,M,M,M,M,28.53,K8A0 021455Z AUTO 02005KT 10SM CLR 01/00 A3032 RMK AO2
8A0,1/2/16 15:15,35.6,32.0,86.59,360,4,0.0,30.33,M,10.0,M,CLR,M,M,M,M,M,M,M,M,M,M,M,M,M,M,31.62,K8A0 021515Z AUTO 36004KT 10SM CLR 02/00 A3033 RMK AO2
8A0,1/2/16 15:35,35.6,32.0,86.59,10,4,0.0,30.33,M,10.0,M,CLR,M,M,M,M,M,M,M,M,M,M,M,M,M,M,31.62,K8A0 021535Z AUTO 01004KT 10SM CLR 02/00 A3033 RMK AO2
8A0,1/2/16 15:55,35.6,32.0,86.59,40,6,0.0,30.34,M,10.0,M,CLR,M,M,M,M,M,M,M,M,M,M,M,M,M,M,29.87,K8A0 021555Z AUTO 04006KT 10SM CLR 02/00 A3034 RMK AO2
8A0,1/2/16 16:15,37.4,32.0,80.65,30,8,0.0,30.32,M,10.0,M,CLR,M,M,M,M,M,M,M,M,M,M,M,M,M,M,30.76,K8A0 021615Z AUTO 03008KT 10SM CLR 03/00 A3032 RMK AO2
8A0,1/2/16 16:35,37.4,30.2,74.98,360,7,0.0,30.31,M,10.0,M,CLR,M,M,M,M,M,M,M,M,M,M,M,M,M,M,31.36,K8A0 021635Z AUTO 36007KT 10SM CLR 03/M01 A3031 RMK AO2
8A0,1/2/16 16:55,39.2,30.2,69.88,350,6,0.0,30.31,M,10.0,M,CLR,M,M,M,M,M,M,M,M,M,M,M,M,M,M,34.2,K8A0 021655Z AUTO 35006KT 10SM CLR 04/M01 A3031 RMK AO2
8A0,1/2/16 17:15,41.0,32.0,70.08,350,7,0.0,30.29,M,10.0,M,CLR,M,M,M,M,M,M,M,M,M,M,M,M,M,M,35.75,K8A0 021715Z AUTO 35007KT 10SM CLR 05/00 A3029 RMK AO2
8A0,1/2/16 17:35,41.0,32.0,70.08,340,7,0.0,30.29,M,10.0,M,CLR,M,M,M,M,M,M,M,M,M,M,M,M,M,M,35.75,K8A0 021735Z AUTO 34007KT 10SM CLR 05/00 A3029 RMK AO2
8A0,1/2/16 17:55,41.0,32.0,70.08,340,5,0.0,30.26,M,10.0,M,CLR,M,M,M,M,M,M,M,M,M,M,M,M,M,M,37.08,K8A0 021755Z AUTO 34005KT 10SM CLR 05/00 A3026 RMK AO2
8A0,1/2/16 18:15,41.0,32.0,70.08,310,3,0.0,30.26,M,10.0,M,CLR,M,M,M,M,M,M,M,M,M,M,M,M,M,M,38.98,K8A0 021815Z AUTO 31003KT 10SM CLR 05/00 A3026 RMK AO2
8A0,1/2/16 18:35,41.0,32.0,70.08,310,4,0.0,30.25,M,10.0,M,CLR,M,M,M,M,M,M,M,M,M,M,M,M,M,M,37.93,K8A0 021835Z AUTO 31004KT 10SM CLR 05/00 A3025 RMK AO2
8A0,1/2/16 18:55,42.8,32.0,65.38,310,5,0.0,30.24,M,10.0,M,CLR,M,M,M,M,M,M,M,M,M,M,M,M,M,M,39.22,K8A0 021855Z AUTO 31005KT 10SM CLR 06/00 A3024 RMK AO2
8A0,1/2/16 19:15,42.8,30.2,60.79,320,5,0.0,30.22,M,10.0,M,CLR,M,M,M,M,M,M,M,M,M,M,M,M,M,M,39.22,K8A0 021915Z AUTO 32005KT 10SM CLR 06/M01 A3022 RMK AO2
8A0,1/2/16 19:35,42.8,30.2,60.79,330,5,0.0,30.22,M,10.0,M,CLR,M,M,M,M,M,M,M,M,M,M,M,M,M,M,39.22,K8A0 021935Z AUTO 33005KT 10SM CLR 06/M01 A3022 RMK AO2
8A0,1/2/16 19:55,44.6,32.0,61.03,350,5,0.0,30.22,M,10.0,M,CLR,M,M,M,M,M,M,M,M,M,M,M,M,M,M,41.36,K8A0 021955Z AUTO 35005KT 10SM CLR 07/00 A3022 RMK AO2
8A0,1/2/16 20:15,44.6,30.2,56.74,300,3,0.0,30.2,M,10.0,M,CLR,M,M,M,M,M,M,M,M,M,M,M,M,M,M,43.09,K8A0 022015Z AUTO 30003KT 10SM CLR 07/M01 A3020 RMK AO2
8A0,1/2/16 20:35,44.6,30.2,56.74,300,4,0.0,30.2,M,10.0,M,CLR,M,M,M,M,M,M,M,M,M,M,M,M,M,M,42.13,K8A0 022035Z AUTO 30004KT 10SM CLR 07/M01 A3020 RMK AO2
8A0,1/2/16 20:55,44.6,30.2,56.74,330,3,0.0,30.2,M,10.0,M,CLR,M,M,M,M,M,M,M,M,M,M,M,M,M,M,43.09,K8A0 022055Z AUTO 33003KT 10SM CLR 07/M01 A3020 RMK AO2
8A0,1/2/16 21:15,44.6,32.0,61.03,320,5,0.0,30.19,M,10.0,M,CLR,M,M,M,M,M,M,M,M,M,M,M,M,M,M,41.36,K8A0 022115Z AUTO 32005KT 10SM CLR 07/00 A3019 RMK AO2
8A0,1/2/16 21:35,44.6,32.0,61.03,310,5,0.0,30.19,M,10.0,M,CLR,M,M,M,M,M,M,M,M,M,M,M,M,M,M,41.36,K8A0 022135Z AUTO 31005KT 10SM CLR 07/00 A3019 RMK AO2
8A0,1/2/16 21:55,44.6,32.0,61.03,320,3,0.0,30.19,M,10.0,M,CLR,M,M,M,M,M,M,M,M,M,M,M,M,M,M,43.09,K8A0 022155Z AUTO 32003KT 10SM CLR 07/00 A3019 RMK AO2
8A0,1/2/16 22:15,42.8,32.0,65.38,0,0,0.0,30.2,M,10.0,M,CLR,M,M,M,M,M,M,M,M,M,M,M,M,M,M,42.8,K8A0 022215Z AUTO 00000KT 10SM CLR 06/00 A3020 RMK AO2
8A0,1/2/16 22:35,42.8,32.0,65.38,280,4,0.0,30.19,M,10.0,M,CLR,M,M,M,M,M,M,M,M,M,M,M,M,M,M,40.03,K8A0 022235Z AUTO 28004KT 10SM CLR 06/00 A3019 RMK AO2
8A0,1/2/16 22:55,41.0,32.0,70.08,280,5,0.0,30.19,M,10.0,M,CLR,M,M,M,M,M,M,M,M,M,M,M,M,M,M,37.08,K8A0 022255Z AUTO 28005KT 10SM CLR 05/00 A3019 RMK AO2
8A0,1/2/16 23:15,41.0,30.2,65.16,290,4,0.0,30.19,M,10.0,M,CLR,M,M,M,M,M,M,M,M,M,M,M,M,M,M,37.93,K8A0 022315Z AUTO 29004KT 10SM CLR 05/M01 A3019 RMK AO2
8A0,1/2/16 23:35,39.2,30.2,69.88,290,4,0.0,30.19,M,10.0,M,CLR,M,M,M,M,M,M,M,M,M,M,M,M,M,M,35.83,K8A0 022335Z AUTO 29004KT 10SM CLR 04/M01 A3019 RMK AO2
8A0,1/2/16 23:55,39.2,30.2,69.88,300,4,0.0,30.19,M,10.0,M,CLR,M,M,M,M,M,M,M,M,M,M,M,M,M,M,35.83,K8A0 022355Z AUTO 30004KT 10SM CLR 04/M01 A3019 RMK AO2
8A0,1/3/16 0:15,39.2,30.2,69.88,290,4,0.0,30.19,M,10.0,M,CLR,M,M,M,M,M,M,M,M,M,M,M,M,M,M,35.83,K8A0 030015Z AUTO 29004KT 10SM CLR 04/M01 A3019 RMK AO2
8A0,1/3/16 0:35,37.4,30.2,74.98,310,4,0.0,30.19,M,10.0,M,CLR,M,M,M,M,M,M,M,M,M,M,M,M,M,M,33.73,K8A0 030035Z AUTO 31004KT 10SM CLR 03/M01 A3019 RMK AO2
8A0,1/3/16 0:55,37.4,30.2,74.98,300,3,0.0,30.2,M,10.0,M,CLR,M,M,M,M,M,M,M,M,M,M,M,M,M,M,34.86,K8A0 030055Z AUTO 30003KT 10SM CLR 03/M01 A3020 RMK AO2
8A0,1/3/16 1:15,37.4,30.2,74.98,290,4,0.0,30.19,M,10.0,M,CLR,M,M,M,M,M,M,M,M,M,M,M,M,M,M,33.73,K8A0 030115Z AUTO 29004KT 10SM CLR 03/M01 A3019 RMK AO2
8A0,1/3/16 1:35,37.4,30.2,74.98,280,4,0.0,30.2,M,10.0,M,CLR,M,M,M,M,M,M,M,M,M,M,M,M,M,M,33.73,K8A0 030135Z AUTO 28004KT 10SM CLR 03/M01 A3020 RMK AO2
8A0,1/3/16 1:55,35.6,32.0,86.59,280,4,0.0,30.2,M,10.0,M,CLR,M,M,M,M,M,M,M,M,M,M,M,M,M,M,31.62,K8A0 030155Z AUTO 28004KT 10SM CLR 02/00 A3020 RMK AO2
8A0,1/3/16 2:15,37.4,30.2,74.98,280,3,0.0,30.2,M,10.0,M,CLR,M,M,M,M,M,M,M,M,M,M,M,M,M,M,34.86,K8A0 030215Z AUTO 28003KT 10SM CLR 03/M01 A3020 RMK AO2
8A0,1/3/16 2:35,35.6,30.2,80.51,260,3,0.0,30.2,M,10.0,M,CLR,M,M,M,M,M,M,M,M,M,M,M,M,M,M,32.8,K8A0 030235Z AUTO 26003KT 10SM CLR 02/M01 A3020 RMK AO2
8A0,1/3/16 2:55,35.6,30.2,80.51,260,3,0.0,30.2,M,10.0,M,CLR,M,M,M,M,M,M,M,M,M,M,M,M,M,M,32.8,K8A0 030255Z AUTO 26003KT 10SM CLR 02/M01 A3020 RMK AO2
8A0,1/3/16 3:15,35.6,30.2,80.51,260,4,0.0,30.19,M,10.0,M,CLR,M,M,M,M,M,M,M,M,M,M,M,M,M,M,31.62,K8A0 030315Z AUTO 26004KT 10SM CLR 02/M01 A3019 RMK AO2
8A0,1/3/16 3:35,35.6,32.0,86.59,270,5,0.0,30.19,M,10.0,M,CLR,M,M,M,M,M,M,M,M,M,M,M,M,M,M,30.67,K8A0 030335Z AUTO 27005KT 10SM CLR 02/00 A3019 RMK AO2
8A0,1/3/16 3:55,35.6,30.2,80.51,270,5,0.0,30.19,M,10.0,M,CLR,M,M,M,M,M,M,M,M,M,M,M,M,M,M,30.67,K8A0 030355Z AUTO 27005KT 10SM CLR 02/M01 A3019 RMK AO2
8A0,1/3/16 4:15,35.6,30.2,80.51,0,0,0.0,30.19,M,10.0,M,CLR,M,M,M,M,M,M,M,M,M,M,M,M,M,M,35.6,K8A0 030415Z AUTO 00000KT 10SM CLR 02/M01 A3019 RMK AO2
8A0,1/3/16 4:35,33.8,30.2,86.49,290,3,0.0,30.18,M,10.0,M,CLR,M,M,M,M,M,M,M,M,M,M,M,M,M,M,30.75,K8A0 030435Z AUTO 29003KT 10SM CLR 01/M01 A3018 RMK AO2
8A0,1/3/16 4:55,33.8,32.0,93.03,290,3,0.0,30.18,M,10.0,M,CLR,M,M,M,M,M,M,M,M,M,M,M,M,M,M,30.75,K8A0 030455Z AUTO 29003KT 10SM CLR 01/00 A3018 RMK AO2
8A0,1/3/16 5:15,32.0,30.2,92.97,0,0,0.0,30.18,M,10.0,M,CLR,M,M,M,M,M,M,M,M,M,M,M,M,M,M,32.0,K8A0 030515Z AUTO 00000KT 10SM CLR 00/M01 A3018 RMK AO2
8A0,1/3/16 5:35,33.8,30.2,86.49,0,0,0.0,30.17,M,10.0,M,CLR,M,M,M,M,M,M,M,M,M,M,M,M,M,M,33.8,K8A0 030535Z AUTO 00000KT 10SM CLR 01/M01 A3017 RMK AO2
8A0,1/3/16 5:55,33.8,32.0,93.03,0,0,0.0,30.17,M,10.0,M,CLR,M,M,M,M,M,M,M,M,M,M,M,M,M,M,33.8,K8A0 030555Z AUTO 00000KT 10SM CLR 01/00 A3017 RMK AO2
8A0,1/3/16 6:15,32.0,32.0,100.0,300,4,0.0,30.17,M,10.0,M,CLR,M,M,M,M,M,M,M,M,M,M,M,M,M,M,27.42,K8A0 030615Z AUTO 30004KT 10SM CLR 00/00 A3017 RMK AO2
8A0,1/3/16 6:35,32.0,30.2,92.97,300,6,0.0,30.17,M,10.0,M,CLR,M,M,M,M,M,M,M,M,M,M,M,M,M,M,25.53,K8A0 030635Z AUTO 30006KT 10SM CLR 00/M01 A3017 RMK AO2
8A0,1/3/16 6:55,33.8,30.2,86.49,300,4,0.0,30.17,M,10.0,M,CLR,M,M,M,M,M,M,M,M,M,M,M,M,M,M,29.52,K8A0 030655Z AUTO 30004KT 10SM CLR 01/M01 A3017 RMK AO2
8A0,1/3/16 7:15,33.8,30.2,86.49,310,4,0.0,30.16,M,10.0,M,CLR,M,M,M,M,M,M,M,M,M,M,M,M,M,M,29.52,K8A0 030715Z AUTO 31004KT 10SM CLR 01/M01 A3016 RMK AO2
8A0,1/3/16 7:35,35.6,30.2,80.51,320,5,0.0,30.16,M,10.0,M,CLR,M,M,M,M,M,M,M,M,M,M,M,M,M,M,30.67,K8A0 030735Z AUTO 32005KT 10SM CLR 02/M01 A3016 RMK AO2
8A0,1/3/16 7:55,35.6,30.2,80.51,310,6,0.0,30.17,M,10.0,M,CLR,M,M,M,M,M,M,M,M,M,M,M,M,M,M,29.87,K8A0 030755Z AUTO 31006KT 10SM CLR 02/M01 A3017 RMK AO2
8A0,1/3/16 8:15,35.6,30.2,80.51,310,5,0.0,30.16,M,10.0,M,CLR,M,M,M,M,M,M,M,M,M,M,M,M,M,M,30.67,K8A0 030815Z AUTO 31005KT 10SM CLR 02/M01 A3016 RMK AO2
8A0,1/3/16 8:35,35.6,30.2,80.51,320,6,0.0,30.15,M,10.0,M,CLR,M,M,M,M,M,M,M,M,M,M,M,M,M,M,29.87,K8A0 030835Z AUTO 32006KT 10SM CLR 02/M01 A3015 RMK AO2
8A0,1/3/16 8:55,35.6,30.2,80.51,300,6,0.0,30.16,M,10.0,M,CLR,M,M,M,M,M,M,M,M,M,M,M,M,M,M,29.87,K8A0 030855Z AUTO 30006KT 10SM CLR 02/M01 A3016 RMK AO2
8A0,1/3/16 9:15,35.6,30.2,80.51,290,5,0.0,30.15,M,10.0,M,CLR,M,M,M,M,M,M,M,M,M,M,M,M,M,M,30.67,K8A0 030915Z AUTO 29005KT 10SM CLR 02/M01 A3015 RMK AO2
8A0,1/3/16 9:35,33.8,30.2,86.49,320,4,0.0,30.14,M,10.0,M,CLR,M,M,M,M,M,M,M,M,M,M,M,M,M,M,29.52,K8A0 030935Z AUTO 32004KT 10SM CLR 01/M01 A3014 RMK AO2
8A0,1/3/16 9:55,33.8,30.2,86.49,300,3,0.0,30.14,M,10.0,M,CLR,M,M,M,M,M,M,M,M,M,M,M,M,M,M,30.75,K8A0 030955Z AUTO 30003KT 10SM CLR 01/M01 A3014 RMK AO2
8A0,1/3/16 10:15,33.8,30.2,86.49,290,3,0.0,30.14,M,10.0,M,CLR,M,M,M,M,M,M,M,M,M,M,M,M,M,M,30.75,K8A0 031015Z AUTO 29003KT 10SM CLR 01/M01 A3014 RMK AO2
8A0,1/3/16 10:35,32.0,32.0,100.0,0,0,0.0,30.13,M,10.0,M,CLR,M,M,M,M,M,M,M,M,M,M,M,M,M,M,32.0,K8A0 031035Z AUTO 00000KT 10SM CLR 00/00 A3013 RMK AO2
8A0,1/3/16 10:55,32.0,32.0,100.0,0,0,0.0,30.13,M,10.0,M,CLR,M,M,M,M,M,M,M,M,M,M,M,M,M,M,32.0,K8A0 031055Z AUTO 00000KT 10SM CLR 00/00 A3013 RMK AO2
8A0,1/3/16 11:15,32.0,30.2,92.97,20,3,0.0,30.12,M,10.0,M,CLR,M,M,M,M,M,M,M,M,M,M,M,M,M,M,28.69,K8A0 031115Z AUTO 02003KT 10SM CLR 00/M01 A3012 RMK AO2
8A0,1/3/16 11:35,32.0,32.0,100.0,310,3,0.0,30.13,M,10.0,M,CLR,M,M,M,M,M,M,M,M,M,M,M,M,M,M,28.69,K8A0 031135Z AUTO 31003KT 10SM CLR 00/00 A3013 RMK AO2
8A0,1/3/16 11:55,32.0,32.0,100.0,310,4,0.0,30.13,M,10.0,M,CLR,M,M,M,M,M,M,M,M,M,M,M,M,M,M,27.42,K8A0 031155Z AUTO 31004KT 10SM CLR 00/00 A3013 RMK AO2
8A0,1/3/16 12:15,32.0,32.0,100.0,340,5,0.0,30.13,M,10.0,M,CLR,M,M,M,M,M,M,M,M,M,M,M,M,M,M,26.4,K8A0 031215Z AUTO 34005KT 10SM CLR 00/00 A3013 RMK AO2
8A0,1/3/16 12:35,33.8,32.0,93.03,340,5,0.0,30.12,M,10.0,M,CLR,M,M,M,M,M,M,M,M,M,M,M,M,M,M,28.53,K8A0 031235Z AUTO 34005KT 10SM CLR 01/00 A3012 RMK AO2
8A0,1/3/16 12:55,33.8,32.0,93.03,330,3,0.0,30.13,M,10.0,M,CLR,M,M,M,M,M,M,M,M,M,M,M,M,M,M,30.75,K8A0 031255Z AUTO 33003KT 10SM CLR 01/00 A3013 RMK AO2
8A0,1/3/16 13:15,30.2,30.2,100.0,0,0,0.0,30.13,M,10.0,M,CLR,M,M,M,M,M,M,M,M,M,M,M,M,M,M,30.2,K8A0 031315Z AUTO 00000KT 10SM CLR M01/M01 A3013 RMK AO2
8A0,1/3/16 13:35,32.0,32.0,100.0,0,0,0.0,30.14,M,10.0,M,CLR,M,M,M,M,M,M,M,M,M,M,M,M,M,M,32.0,K8A0 031335Z AUTO 00000KT 10SM CLR 00/00 A3014 RMK AO2
8A0,1/3/16 13:55,32.0,32.0,100.0,0,0,0.0,30.13,M,10.0,M,CLR,M,M,M,M,M,M,M,M,M,M,M,M,M,M,32.0,K8A0 031355Z AUTO 00000KT 10SM CLR 00/00 A3013 RMK AO2
8A0,1/3/16 14:15,33.8,32.0,93.03,0,0,0.0,30.13,M,10.0,M,CLR,M,M,M,M,M,M,M,M,M,M,M,M,M,M,33.8,K8A0 031415Z AUTO 00000KT 10SM CLR 01/00 A3013 RMK AO2
8A0,1/3/16 14:35,33.8,32.0,93.03,0,0,0.0,30.12,M,10.0,M,CLR,M,M,M,M,M,M,M,M,M,M,M,M,M,M,33.8,K8A0 031435Z AUTO 00000KT 10SM CLR 01/00 A3012 RMK AO2
8A0,1/3/16 14:55,35.6,33.8,93.08,0,0,0.0,30.12,M,10.0,M,CLR,M,M,M,M,M,M,M,M,M,M,M,M,M,M,35.6,K8A0 031455Z AUTO 00000KT 10SM CLR 02/01 A3012 RMK AO2
8A0,1/3/16 15:15,37.4,33.8,86.69,0,0,0.0,30.13,M,10.0,M,CLR,M,M,M,M,M,M,M,M,M,M,M,M,M,M,37.4,K8A0 031515Z AUTO 00000KT 10SM CLR 03/01 A3013 RMK AO2
8A0,1/3/16 15:35,37.4,33.8,86.69,0,0,0.0,30.13,M,10.0,M,CLR,M,M,M,M,M,M,M,M,M,M,M,M,M,M,37.4,K8A0 031535Z AUTO 00000KT 10SM CLR 03/01 A3013 RMK AO2
8A0,1/3/16 15:55,41.0,33.8,75.33,0,0,0.0,30.14,M,10.0,M,CLR,M,M,M,M,M,M,M,M,M,M,M,M,M,M,41.0,K8A0 031555Z AUTO 00000KT 10SM CLR 05/01 A3014 RMK AO2
8A0,1/3/16 16:15,41.0,35.6,80.93,0,0,0.0,30.13,M,10.0,M,CLR,M,M,M,M,M,M,M,M,M,M,M,M,M,M,41.0,K8A0 031615Z AUTO 00000KT 10SM CLR 05/02 A3013 RMK AO2
8A0,1/3/16 16:35,42.8,35.6,75.5,0,0,0.0,30.12,M,10.0,M,CLR,M,M,M,M,M,M,M,M,M,M,M,M,M,M,42.8,K8A0 031635Z AUTO 00000KT 10SM CLR 06/02 A3012 RMK AO2
8A0,1/3/16 16:55,44.6,33.8,65.61,310,4,0.0,30.11,M,10.0,M,CLR,M,M,M,M,M,M,M,M,M,M,M,M,M,M,42.13,K8A0 031655Z AUTO 31004KT 10SM CLR 07/01 A3011 RMK AO2
8A0,1/3/16 17:15,44.6,33.8,65.61,290,4,0.0,30.11,M,10.0,M,CLR,M,M,M,M,M,M,M,M,M,M,M,M,M,M,42.13,K8A0 031715Z AUTO 29004KT 10SM CLR 07/01 A3011 RMK AO2
8A0,1/3/16 17:35,44.6,33.8,65.61,250,6,0.0,30.1,M,10.0,M,CLR,M,M,M,M,M,M,M,M,M,M,M,M,M,M,40.71,K8A0 031735Z AUTO 25006KT 10SM CLR 07/01 A3010 RMK AO2
8A0,1/3/16 17:55,44.6,33.8,65.61,270,5,0.0,30.09,M,10.0,M,CLR,M,M,M,M,M,M,M,M,M,M,M,M,M,M,41.36,K8A0 031755Z AUTO 27005KT 10SM CLR 07/01 A3009 RMK AO2
8A0,1/3/16 18:15,46.4,33.8,61.28,320,4,0.0,30.08,M,10.0,M,CLR,M,M,M,M,M,M,M,M,M,M,M,M,M,M,44.24,K8A0 031815Z AUTO 32004KT 10SM CLR 08/01 A3008 RMK AO2
8A0,1/3/16 18:35,46.4,32.0,57.0,270,5,0.0,30.07,M,10.0,M,CLR,M,M,M,M,M,M,M,M,M,M,M,M,M,M,43.5,K8A0 031835Z AUTO 27005KT 10SM CLR 08/00 A3007 RMK AO2
8A0,1/3/16 18:55,46.4,33.8,61.28,260,3,0.0,30.06,M,10.0,M,CLR,M,M,M,M,M,M,M,M,M,M,M,M,M,M,45.15,K8A0 031855Z AUTO 26003KT 10SM CLR 08/01 A3006 RMK AO2
8A0,1/3/16 19:15,48.2,33.8,57.26,270,4,0.0,30.05,M,10.0,M,CLR,M,M,M,M,M,M,M,M,M,M,M,M,M,M,46.34,K8A0 031915Z AUTO 27004KT 10SM CLR 09/01 A3005 RMK AO2
8A0,1/3/16 19:35,48.2,33.8,57.26,300,5,0.0,30.05,M,10.0,M,CLR,M,M,M,M,M,M,M,M,M,M,M,M,M,M,45.63,K8A0 031935Z AUTO 30005KT 10SM CLR 09/01 A3005 RMK AO2
8A0,1/3/16 19:55,48.2,35.6,61.52,260,5,0.0,30.04,M,10.0,M,CLR,M,M,M,M,M,M,M,M,M,M,M,M,M,M,45.63,K8A0 031955Z AUTO 26005KT 10SM CLR 09/02 A3004 RMK AO2
8A0,1/3/16 20:15,48.2,35.6,61.52,280,3,0.0,30.04,M,10.0,M,CLR,M,M,M,M,M,M,M,M,M,M,M,M,M,M,47.21,K8A0 032015Z AUTO 28003KT 10SM CLR 09/02 A3004 RMK AO2
8A0,1/3/16 20:35,48.2,33.8,57.26,270,5,0.0,30.04,M,10.0,M,CLR,M,M,M,M,M,M,M,M,M,M,M,M,M,M,45.63,K8A0 032035Z AUTO 27005KT 10SM CLR 09/01 A3004 RMK AO2
8A0,1/3/16 20:55,50.0,33.8,53.54,260,7,0.0,30.04,M,10.0,M,CLR,M,M,M,M,M,M,M,M,M,M,M,M,M,M,46.72,K8A0 032055Z AUTO 26007KT 10SM CLR 10/01 A3004 RMK AO2
8A0,1/3/16 21:15,50.0,33.8,53.54,260,6,0.0,30.04,M,10.0,M,CLR,M,M,M,M,M,M,M,M,M,M,M,M,M,M,47.21,K8A0 032115Z AUTO 26006KT 10SM CLR 10/01 A3004 RMK AO2
8A0,1/3/16 21:35,50.0,32.0,49.81,270,8,0.0,30.04,M,10.0,M,CLR,M,M,M,M,M,M,M,M,M,M,M,M,M,M,46.29,K8A0 032135Z AUTO 27008KT 10SM CLR 10/00 A3004 RMK AO2
8A0,1/3/16 21:55,48.2,30.2,49.53,280,6,0.0,30.05,M,10.0,M,CLR,M,M,M,M,M,M,M,M,M,M,M,M,M,M,45.04,K8A0 032155Z AUTO 28006KT 10SM CLR 09/M01 A3005 RMK AO2
8A0,1/3/16 22:15,46.4,32.0,57.0,290,4,0.0,30.04,M,10.0,M,CLR,M,M,M,M,M,M,M,M,M,M,M,M,M,M,44.24,K8A0 032215Z AUTO 29004KT 10SM CLR 08/00 A3004 RMK AO2
8A0,1/3/16 22:35,46.4,32.0,57.0,300,3,0.0,30.04,M,10.0,M,CLR,M,M,M,M,M,M,M,M,M,M,M,M,M,M,45.15,K8A0 032235Z AUTO 30003KT 10SM CLR 08/00 A3004 RMK AO2
8A0,1/3/16 22:55,44.6,30.2,56.74,300,3,0.0,30.05,M,10.0,M,CLR,M,M,M,M,M,M,M,M,M,M,M,M,M,M,43.09,K8A0 032255Z AUTO 30003KT 10SM CLR 07/M01 A3005 RMK AO2
8A0,1/3/16 23:15,44.6,32.0,61.03,310,4,0.0,30.06,M,10.0,M,CLR,M,M,M,M,M,M,M,M,M,M,M,M,M,M,42.13,K8A0 032315Z AUTO 31004KT 10SM CLR 07/00 A3006 RMK AO2
8A0,1/3/16 23:35,42.8,32.0,65.38,320,3,0.0,30.06,M,10.0,M,CLR,M,M,M,M,M,M,M,M,M,M,M,M,M,M,41.03,K8A0 032335Z AUTO 32003KT 10SM CLR 06/00 A3006 RMK AO2
8A0,1/3/16 23:55,42.8,32.0,65.38,310,5,0.0,30.06,M,10.0,M,CLR,M,M,M,M,M,M,M,M,M,M,M,M,M,M,39.22,K8A0 032355Z AUTO 31005KT 10SM CLR 06/00 A3006 RMK AO2
8A0,1/4/16 0:15,42.8,32.0,65.38,320,5,0.0,30.07,M,10.0,M,CLR,M,M,M,M,M,M,M,M,M,M,M,M,M,M,39.22,K8A0 040015Z AUTO 32005KT 10SM CLR 06/00 A3007 RMK AO2
8A0,1/4/16 0:35,42.8,32.0,65.38,340,4,0.0,30.07,M,10.0,M,CLR,M,M,M,M,M,M,M,M,M,M,M,M,M,M,40.03,K8A0 040035Z AUTO 34004KT 10SM CLR 06/00 A3007 RMK AO2
8A0,1/4/16 0:55,42.8,32.0,65.38,320,3,0.0,30.07,M,10.0,M,CLR,M,M,M,M,M,M,M,M,M,M,M,M,M,M,41.03,K8A0 040055Z AUTO 32003KT 10SM CLR 06/00 A3007 RMK AO2
8A0,1/4/16 1:15,39.2,32.0,75.16,310,4,0.0,30.06,M,10.0,M,CLR,M,M,M,M,M,M,M,M,M,M,M,M,M,M,35.83,K8A0 040115Z AUTO 31004KT 10SM CLR 04/00 A3006 RMK AO2
8A0,1/4/16 1:35,41.0,32.0,70.08,300,4,0.0,30.06,M,10.0,M,CLR,M,M,M,M,M,M,M,M,M,M,M,M,M,M,37.93,K8A0 040135Z AUTO 30004KT 10SM CLR 05/00 A3006 RMK AO2
8A0,1/4/16 1:55,41.0,32.0,70.08,290,4,0.0,30.06,M,10.0,M,CLR,M,M,M,M,M,M,M,M,M,M,M,M,M,M,37.93,K8A0 040155Z AUTO 29004KT 10SM CLR 05/00 A3006 RMK AO2
8A0,1/4/16 2:15,39.2,32.0,75.16,300,4,0.0,30.06,M,10.0,M,CLR,M,M,M,M,M,M,M,M,M,M,M,M,M,M,35.83,K8A0 040215Z AUTO 30004KT 10SM CLR 04/00 A3006 RMK AO2
8A0,1/4/16 2:35,39.2,32.0,75.16,310,4,0.0,30.06,M,10.0,M,CLR,M,M,M,M,M,M,M,M,M,M,M,M,M,M,35.83,K8A0 040235Z AUTO 31004KT 10SM CLR 04/00 A3006 RMK AO2
8A0,1/4/16 2:55,41.0,32.0,70.08,310,5,0.0,30.06,M,10.0,M,CLR,M,M,M,M,M,M,M,M,M,M,M,M,M,M,37.08,K8A0 040255Z AUTO 31005KT 10SM CLR 05/00 A3006 RMK AO2
8A0,1/4/16 3:15,39.2,32.0,75.16,290,3,0.0,30.06,M,10.0,M,CLR,M,M,M,M,M,M,M,M,M,M,M,M,M,M,36.92,K8A0 040315Z AUTO 29003KT 10SM CLR 04/00 A3006 RMK AO2
8A0,1/4/16 3:35,37.4,32.0,80.65,310,5,0.0,30.07,M,10.0,M,CLR,M,M,M,M,M,M,M,M,M,M,M,M,M,M,32.81,K8A0 040335Z AUTO 31005KT 10SM CLR 03/00 A3007 RMK AO2
8A0,1/4/16 3:55,37.4,32.0,80.65,310,5,0.0,30.07,M,10.0,M,CLR,M,M,M,M,M,M,M,M,M,M,M,M,M,M,32.81,K8A0 040355Z AUTO 31005KT 10SM CLR 03/00 A3007 RMK AO2
8A0,1/4/16 4:15,39.2,32.0,75.16,310,4,0.0,30.07,M,10.0,M,CLR,M,M,M,M,M,M,M,M,M,M,M,M,M,M,35.83,K8A0 040415Z AUTO 31004KT 10SM CLR 04/00 A3007 RMK AO2
8A0,1/4/16 4:35,37.4,32.0,80.65,310,3,0.0,30.08,M,10.0,M,CLR,M,M,M,M,M,M,M,M,M,M,M,M,M,M,34.86,K8A0 040435Z AUTO 31003KT 10SM CLR 03/00 A3008 RMK AO2
8A0,1/4/16 4:55,37.4,32.0,80.65,320,4,0.0,30.07,M,10.0,M,CLR,M,M,M,M,M,M,M,M,M,M,M,M,M,M,33.73,K8A0 040455Z AUTO 32004KT 10SM CLR 03/00 A3007 RMK AO2
8A0,1/4/16 5:15,37.4,32.0,80.65,330,5,0.0,30.07,M,10.0,M,CLR,M,M,M,M,M,M,M,M,M,M,M,M,M,M,32.81,K8A0 040515Z AUTO 33005KT 10SM CLR 03/00 A3007 RMK AO2
8A0,1/4/16 5:35,37.4,32.0,80.65,340,6,0.0,30.08,M,10.0,M,CLR,M,M,M,M,M,M,M,M,M,M,M,M,M,M,32.03,K8A0 040535Z AUTO 34006KT 10SM CLR 03/00 A3008 RMK AO2
8A0,1/4/16 5:55,37.4,32.0,80.65,360,6,0.0,30.08,M,10.0,M,CLR,M,M,M,M,M,M,M,M,M,M,M,M,M,M,32.03,K8A0 040555Z AUTO 36006KT 10SM CLR 03/00 A3008 RMK AO2
8A0,1/4/16 6:15,37.4,32.0,80.65,340,5,0.0,30.08,M,10.0,M,CLR,M,M,M,M,M,M,M,M,M,M,M,M,M,M,32.81,K8A0 040615Z AUTO 34005KT 10SM CLR 03/00 A3008 RMK AO2
8A0,1/4/16 6:35,37.4,32.0,80.65,350,7,0.0,30.08,M,10.0,M,CLR,M,M,M,M,M,M,M,M,M,M,M,M,M,M,31.36,K8A0 040635Z AUTO 35007KT 10SM CLR 03/00 A3008 RMK AO2
8A0,1/4/16 6:55,37.4,32.0,80.65,350,7,0.0,30.08,M,10.0,M,CLR,M,M,M,M,M,M,M,M,M,M,M,M,M,M,31.36,K8A0 040655Z AUTO 35007KT 10SM CLR 03/00 A3008 RMK AO2
8A0,1/4/16 7:15,35.6,32.0,86.59,340,7,0.0,30.08,M,10.0,M,CLR,M,M,M,M,M,M,M,M,M,M,M,M,M,M,29.17,K8A0 040715Z AUTO 34007KT 10SM CLR 02/00 A3008 RMK AO2
8A0,1/4/16 7:35,35.6,32.0,86.59,350,7,0.0,30.08,M,10.0,M,CLR,M,M,M,M,M,M,M,M,M,M,M,M,M,M,29.17,K8A0 040735Z AUTO 35007KT 10SM CLR 02/00 A3008 RMK AO2
8A0,1/4/16 7:55,35.6,32.0,86.59,350,3,0.0,30.09,M,10.0,M,CLR,M,M,M,M,M,M,M,M,M,M,M,M,M,M,32.8,K8A0 040755Z AUTO 35003KT 10SM CLR 02/00 A3009 RMK AO2
8A0,1/4/16 8:15,33.8,32.0,93.03,360,5,0.0,30.09,M,10.0,M,CLR,M,M,M,M,M,M,M,M,M,M,M,M,M,M,28.53,K8A0 040815Z AUTO 36005KT 10SM CLR 01/00 A3009 RMK AO2
8A0,1/4/16 8:35,33.8,32.0,93.03,350,7,0.0,30.09,M,10.0,M,CLR,M,M,M,M,M,M,M,M,M,M,M,M,M,M,26.97,K8A0 040835Z AUTO 35007KT 10SM CLR 01/00 A3009 RMK AO2
8A0,1/4/16 8:55,33.8,32.0,93.03,350,10,0.0,30.09,M,10.0,14,CLR,M,M,M,M,M,M,M,M,M,M,M,M,M,M,25.23,K8A0 040855Z AUTO 35010G14KT 10SM CLR 01/00 A3009 RMK AO2
8A0,1/4/16 9:15,33.8,32.0,93.03,350,10,0.0,30.1,M,10.0,15,CLR,M,M,M,M,M,M,M,M,M,M,M,M,M,M,25.23,K8A0 040915Z AUTO 35010G15KT 10SM CLR 01/00 A3010 RMK AO2
8A0,1/4/16 9:35,32.0,32.0,100.0,350,9,0.0,30.1,M,10.0,17,CLR,M,M,M,M,M,M,M,M,M,M,M,M,M,M,23.51,K8A0 040935Z AUTO 35009G17KT 10SM CLR 00/00 A3010 RMK AO2
8A0,1/4/16 9:55,32.0,32.0,100.0,360,13,0.0,30.11,M,10.0,17,BKN,M,M,M,1500,M,M,M,M,M,M,M,M,M,M,21.57,K8A0 040955Z AUTO 36013G17KT 10SM BKN015 00/00 A3011 RMK AO2
8A0,1/4/16 10:15,32.0,32.0,100.0,350,11,0.0,30.12,M,10.0,17,OVC,M,M,M,1700,M,M,M,M,M,M,M,M,M,M,22.47,K8A0 041015Z AUTO 35011G17KT 10SM OVC017 00/00 A3012 RMK AO2
8A0,1/4/16 10:35,32.0,32.0,100.0,360,12,0.0,30.12,M,10.0,17,OVC,M,M,M,1700,M,M,M,M,M,M,M,M,M,M,22.0,K8A0 041035Z AUTO 36012G17KT 10SM OVC017 00/00 A3012 RMK AO2
8A0,1/4/16 10:55,32.0,32.0,100.0,360,11,0.0,30.13,M,10.0,18,OVC,M,M,M,1900,M,M,M,M,M,M,M,M,M,M,22.47,K8A0 041055Z AUTO 36011G18KT 10SM OVC019 00/00 A3013 RMK AO2
8A0,1/4/16 11:15,32.0,32.0,100.0,340,13,0.0,30.14,M,10.0,M,OVC,M,M,M,1900,M,M,M,M,M,M,M,M,M,M,21.57,K8A0 041115Z AUTO 34013KT 10SM OVC019 00/00 A3014 RMK AO2
8A0,1/4/16 11:35,32.0,30.2,92.97,350,11,0.0,30.14,M,10.0,17,OVC,M,M,M,1900,M,M,M,M,M,M,M,M,M,M,22.47,K8A0 041135Z AUTO 35011G17KT 10SM OVC019 00/M01 A3014 RMK AO2
8A0,1/4/16 11:55,32.0,30.2,92.97,360,10,0.0,30.15,M,10.0,15,BKN,M,M,M,1900,M,M,M,M,M,M,M,M,M,M,22.97,K8A0 041155Z AUTO 36010G15KT 10SM BKN019 00/M01 A3015 RMK AO2
8A0,1/4/16 12:15,32.0,30.2,92.97,360,10,0.0,30.15,M,10.0,16,SCT,M,M,M,2100,M,M,M,M,M,M,M,M,M,M,22.97,K8A0 041215Z AUTO 36010G16KT 10SM SCT021 00/M01 A3015 RMK AO2
8A0,1/4/16 12:35,32.0,30.2,92.97,360,10,0.0,30.17,M,10.0,M,SCT,M,M,M,2200,M,M,M,M,M,M,M,M,M,M,22.97,K8A0 041235Z AUTO 36010KT 10SM SCT022 00/M01 A3017 RMK AO2
8A0,1/4/16 12:55,32.0,28.4,86.39,10,11,0.0,30.17,M,10.0,16,CLR,M,M,M,M,M,M,M,M,M,M,M,M,M,M,22.47,K8A0 041255Z AUTO 01011G16KT 10SM CLR 00/M02 A3017 RMK AO2
8A0,1/4/16 13:15,32.0,28.4,86.39,360,11,0.0,30.18,M,10.0,16,CLR,M,M,M,M,M,M,M,M,M,M,M,M,M,M,22.47,K8A0 041315Z AUTO 36011G16KT 10SM CLR 00/M02 A3018 RMK AO2
8A0,1/4/16 13:35,32.0,28.4,86.39,360,13,0.0,30.19,M,10.0,18,CLR,M,M,M,M,M,M,M,M,M,M,M,M,M,M,21.57,K8A0 041335Z AUTO 36013G18KT 10SM CLR 00/M02 A3019 RMK AO2
8A0,1/4/16 13:55,32.0,28.4,86.39,360,13,0.0,30.2,M,10.0,19,CLR,M,M,M,M,M,M,M,M,M,M,M,M,M,M,21.57,K8A0 041355Z AUTO 36013G19KT 10SM CLR 00/M02 A3020 RMK AO2
8A0,1/4/16 14:15,32.0,30.2,92.97,360,15,0.0,30.21,M,10.0,20,CLR,M,M,M,M,M,M,M,M,M,M,M,M,M,M,20.78,K8A0 041415Z AUTO 36015G20KT 10SM CLR 00/M01 A3021 RMK AO2
8A0,1/4/16 14:35,32.0,30.2,92.97,10,14,0.0,30.23,M,10.0,21,CLR,M,M,M,M,M,M,M,M,M,M,M,M,M,M,21.16,K8A0 041435Z AUTO 01014G21KT 10SM CLR 00/M01 A3023 RMK AO2
8A0,1/4/16 14:55,33.8,30.2,86.49,10,13,0.0,30.24,M,10.0,21,SCT,M,M,M,2200,M,M,M,M,M,M,M,M,M,M,23.87,K8A0 041455Z AUTO 01013G21KT 10SM SCT022 01/M01 A3024 RMK AO2
8A0,1/4/16 15:15,33.8,30.2,86.49,10,14,0.0,30.25,M,10.0,21,BKN,M,M,M,2400,M,M,M,M,M,M,M,M,M,M,23.48,K8A0 041515Z AUTO 01014G21KT 10SM BKN024 01/M01 A3025 RMK AO2
8A0,1/4/16 15:35,33.8,30.2,86.49,360,12,0.0,30.26,M,10.0,20,OVC,M,M,M,2400,M,M,M,M,M,M,M,M,M,M,24.29,K8A0 041535Z AUTO 36012G20KT 10SM OVC024 01/M01 A3026 RMK AO2
8A0,1/4/16 15:55,33.8,30.2,86.49,350,13,0.0,30.26,M,10.0,M,OVC,M,M,M,2600,M,M,M,M,M,M,M,M,M,M,23.87,K8A0 041555Z AUTO 35013KT 10SM OVC026 01/M01 A3026 RMK AO2
8A0,1/4/16 16:15,33.8,30.2,86.49,340,15,0.0,30.26,M,10.0,21,OVC,M,M,M,2600,M,M,M,M,M,M,M,M,M,M,23.11,K8A0 041615Z AUTO 34015G21KT 10SM OVC026 01/M01 A3026 RMK AO2
8A0,1/4/16 16:35,33.8,30.2,86.49,10,14,0.0,30.27,M,10.0,20,BKN,M,M,M,2800,M,M,M,M,M,M,M,M,M,M,23.48,K8A0 041635Z AUTO 01014G20KT 10SM BKN028 01/M01 A3027 RMK AO2
8A0,1/4/16 16:55,37.4,30.2,74.98,360,12,0.0,30.27,M,10.0,18,SCT,M,M,M,3000,M,M,M,M,M,M,M,M,M,M,28.87,K8A0 041655Z AUTO 36012G18KT 10SM SCT030 03/M01 A3027 RMK AO2
8A0,1/4/16 17:15,37.4,30.2,74.98,20,14,0.0,30.26,M,10.0,19,BKN,M,M,M,3200,M,M,M,M,M,M,M,M,M,M,28.12,K8A0 041715Z AUTO 02014G19KT 10SM BKN032 03/M01 A3026 RMK AO2
8A0,1/4/16 17:35,37.4,30.2,74.98,360,13,0.0,30.26,M,10.0,20,OVC,M,M,M,3200,M,M,M,M,M,M,M,M,M,M,28.49,K8A0 041735Z AUTO 36013G20KT 10SM OVC032 03/M01 A3026 RMK AO2
8A0,1/4/16 17:55,35.6,28.4,74.8,10,15,0.0,30.26,M,10.0,20,BKN,M,M,M,3400,M,M,M,M,M,M,M,M,M,M,25.45,K8A0 041755Z AUTO 01015G20KT 10SM BKN034 02/M02 A3026 RMK AO2
8A0,1/4/16 18:15,37.4,30.2,74.98,20,12,0.0,30.25,M,10.0,22,BKN,M,M,M,3400,M,M,M,M,M,M,M,M,M,M,28.87,K8A0 041815Z AUTO 02012G22KT 10SM BKN034 03/M01 A3025 RMK AO2
8A0,1/4/16 18:35,37.4,30.2,74.98,10,14,0.0,30.25,M,10.0,19,BKN,M,M,M,3200,M,M,M,M,M,M,M,M,M,M,28.12,K8A0 041835Z AUTO 01014G19KT 10SM BKN032 03/M01 A3025 RMK AO2
8A0,1/4/16 18:55,35.6,30.2,80.51,20,11,0.0,30.25,M,10.0,18,BKN,M,M,M,3200,M,M,M,M,M,M,M,M,M,M,27.02,K8A0 041855Z AUTO 02011G18KT 10SM BKN032 02/M01 A3025 RMK AO2
8A0,1/4/16 19:15,37.4,28.4,69.67,10,12,0.0,30.25,M,10.0,17,BKN,BKN,M,M,3200,3900,M,M,M,M,M,M,M,M,M,28.87,K8A0 041915Z AUTO 01012G17KT 10SM BKN032 BKN039 03/M02 A3025 RMK AO2
8A0,1/4/16 19:35,37.4,30.2,74.98,20,15,0.0,30.26,M,10.0,19,BKN,BKN,M,M,3600,4200,M,M,M,M,M,M,M,M,M,27.78,K8A0 041935Z AUTO 02015G19KT 10SM BKN036 BKN042 03/M01 A3026 RMK AO2
8A0,1/4/16 19:55,37.4,28.4,69.67,360,11,0.0,30.26,M,10.0,18,BKN,M,M,M,3600,M,M,M,M,M,M,M,M,M,M,29.29,K8A0 041955Z AUTO 36011G18KT 10SM BKN036 03/M02 A3026 RMK AO2
8A0,1/4/16 20:15,37.4,28.4,69.67,10,13,0.0,30.26,M,10.0,16,SCT,M,M,M,3800,M,M,M,M,M,M,M,M,M,M,28.49,K8A0 042015Z AUTO 01013G16KT 10SM SCT038 03/M02 A3026 RMK AO2
8A0,1/4/16 20:35,37.4,28.4,69.67,360,14,0.0,30.26,M,10.0,M,SCT,M,M,M,3800,M,M,M,M,M,M,M,M,M,M,28.12,K8A0 042035Z AUTO 36014KT 10SM SCT038 03/M02 A3026 RMK AO2
8A0,1/4/16 20:55,35.6,28.4,74.8,10,11,0.0,30.27,M,10.0,M,SCT,M,M,M,4000,M,M,M,M,M,M,M,M,M,M,27.02,K8A0 042055Z AUTO 01011KT 10SM SCT040 02/M02 A3027 RMK AO2
8A0,1/4/16 21:15,35.6,28.4,74.8,350,11,0.0,30.27,M,10.0,15,SCT,M,M,M,3800,M,M,M,M,M,M,M,M,M,M,27.02,K8A0 042115Z AUTO 35011G15KT 10SM SCT038 02/M02 A3027 RMK AO2
8A0,1/4/16 21:35,35.6,28.4,74.8,10,15,0.0,30.28,M,10.0,20,BKN,M,M,M,3800,M,M,M,M,M,M,M,M,M,M,25.45,K8A0 042135Z AUTO 01015G20KT 10SM BKN038 02/M02 A3028 RMK AO2
8A0,1/4/16 21:55,35.6,28.4,74.8,350,15,0.0,30.29,M,10.0,19,BKN,M,M,M,3600,M,M,M,M,M,M,M,M,M,M,25.45,K8A0 042155Z AUTO 35015G19KT 10SM BKN036 02/M02 A3029 RMK AO2
8A0,1/4/16 22:15,33.8,28.4,80.36,20,10,0.0,30.3,M,10.0,19,OVC,M,M,M,3600,M,M,M,M,M,M,M,M,M,M,25.23,K8A0 042215Z AUTO 02010G19KT 10SM OVC036 01/M02 A3030 RMK AO2
8A0,1/4/16 22:35,33.8,28.4,80.36,20,12,0.0,30.31,M,10.0,17,BKN,M,M,M,3600,M,M,M,M,M,M,M,M,M,M,24.29,K8A0 042235Z AUTO 02012G17KT 10SM BKN036 01/M02 A3031 RMK AO2
8A0,1/4/16 22:55,33.8,28.4,80.36,360,8,0.0,30.32,M,10.0,16,OVC,M,M,M,3800,M,M,M,M,M,M,M,M,M,M,26.33,K8A0 042255Z AUTO 36008G16KT 10SM OVC038 01/M02 A3032 RMK AO2
8A0,1/4/16 23:15,33.8,28.4,80.36,10,6,0.0,30.32,M,10.0,M,OVC,M,M,M,3600,M,M,M,M,M,M,M,M,M,M,27.7,K8A0 042315Z AUTO 01006KT 10SM OVC036 01/M02 A3032 RMK AO2
8A0,1/4/16 23:35,33.8,28.4,80.36,360,9,0.0,30.33,M,10.0,M,OVC,M,M,M,3600,M,M,M,M,M,M,M,M,M,M,25.75,K8A0 042335Z AUTO 36009KT 10SM OVC036 01/M02 A3033 RMK AO2
8A0,1/4/16 23:55,33.8,28.4,80.36,20,7,0.0,30.34,M,10.0,M,SCT,M,M,M,3600,M,M,M,M,M,M,M,M,M,M,26.97,K8A0 042355Z AUTO 02007KT 10SM SCT036 01/M02 A3034 RMK AO2
8A0,1/5/16 0:15,32.0,26.6,80.22,10,6,0.0,30.34,M,10.0,M,CLR,M,M,M,M,M,M,M,M,M,M,M,M,M,M,25.53,K8A0 050015Z AUTO 01006KT 10SM CLR 00/M03 A3034 RMK AO2
8A0,1/5/16 0:35,32.0,26.6,80.22,360,5,0.0,30.35,M,10.0,M,CLR,M,M,M,M,M,M,M,M,M,M,M,M,M,M,26.4,K8A0 050035Z AUTO 36005KT 10SM CLR 00/M03 A3035 RMK AO2
8A0,1/5/16 0:55,32.0,26.6,80.22,360,6,0.0,30.35,M,10.0,M,CLR,M,M,M,M,M,M,M,M,M,M,M,M,M,M,25.53,K8A0 050055Z AUTO 36006KT 10SM CLR 00/M03 A3035 RMK AO2
8A0,1/5/16 1:15,32.0,26.6,80.22,10,6,0.0,30.36,M,10.0,M,CLR,M,M,M,M,M,M,M,M,M,M,M,M,M,M,25.53,K8A0 050115Z AUTO 01006KT 10SM CLR 00/M03 A3036 RMK AO2
8A0,1/5/16 1:35,32.0,26.6,80.22,10,8,0.0,30.36,M,10.0,M,CLR,M,M,M,M,M,M,M,M,M,M,M,M,M,M,24.11,K8A0 050135Z AUTO 01008KT 10SM CLR 00/M03 A3036 RMK AO2
8A0,1/5/16 1:55,32.0,26.6,80.22,10,6,0.0,30.37,M,10.0,M,CLR,M,M,M,M,M,M,M,M,M,M,M,M,M,M,25.53,K8A0 050155Z AUTO 01006KT 10SM CLR 00/M03 A3037 RMK AO2
8A0,1/5/16 2:15,30.2,26.6,86.28,20,5,0.0,30.36,M,10.0,M,CLR,M,M,M,M,M,M,M,M,M,M,M,M,M,M,24.26,K8A0 050215Z AUTO 02005KT 10SM CLR M01/M03 A3036 RMK AO2
8A0,1/5/16 2:35,30.2,26.6,86.28,20,5,0.0,30.37,M,10.0,M,CLR,M,M,M,M,M,M,M,M,M,M,M,M,M,M,24.26,K8A0 050235Z AUTO 02005KT 10SM CLR M01/M03 A3037 RMK AO2
8A0,1/5/16 2:55,30.2,26.6,86.28,20,6,0.0,30.37,M,10.0,M,CLR,M,M,M,M,M,M,M,M,M,M,M,M,M,M,23.36,K8A0 050255Z AUTO 02006KT 10SM CLR M01/M03 A3037 RMK AO2
8A0,1/5/16 3:15,30.2,26.6,86.28,20,5,0.0,30.37,M,10.0,M,CLR,M,M,M,M,M,M,M,M,M,M,M,M,M,M,24.26,K8A0 050315Z AUTO 02005KT 10SM CLR M01/M03 A3037 RMK AO2
8A0,1/5/16 3:35,30.2,26.6,86.28,20,6,0.0,30.36,M,10.0,M,CLR,M,M,M,M,M,M,M,M,M,M,M,M,M,M,23.36,K8A0 050335Z AUTO 02006KT 10SM CLR M01/M03 A3036 RMK AO2
8A0,1/5/16 3:55,30.2,26.6,86.28,30,7,0.0,30.36,M,10.0,M,CLR,M,M,M,M,M,M,M,M,M,M,M,M,M,M,22.59,K8A0 050355Z AUTO 03007KT 10SM CLR M01/M03 A3036 RMK AO2
8A0,1/5/16 4:15,30.2,26.6,86.28,20,8,0.0,30.36,M,10.0,M,CLR,M,M,M,M,M,M,M,M,M,M,M,M,M,M,21.9,K8A0 050415Z AUTO 02008KT 10SM CLR M01/M03 A3036 RMK AO2
8A0,1/5/16 4:35,30.2,26.6,86.28,30,9,0.0,30.35,M,10.0,M,CLR,M,M,M,M,M,M,M,M,M,M,M,M,M,M,21.28,K8A0 050435Z AUTO 03009KT 10SM CLR M01/M03 A3035 RMK AO2
8A0,1/5/16 4:55,30.2,24.8,80.07,30,9,0.0,30.35,M,10.0,M,CLR,M,M,M,M,M,M,M,M,M,M,M,M,M,M,21.28,K8A0 050455Z AUTO 03009KT 10SM CLR M01/M04 A3035 RMK AO2
8A0,1/5/16 5:15,30.2,23.0,74.26,60,7,0.0,30.36,M,10.0,M,CLR,M,M,M,M,M,M,M,M,M,M,M,M,M,M,22.59,K8A0 050515Z AUTO 06007KT 10SM CLR M01/M05 A3036 RMK AO2
8A0,1/5/16 5:35,30.2,23.0,74.26,50,8,0.0,30.35,M,10.0,M,CLR,M,M,M,M,M,M,M,M,M,M,M,M,M,M,21.9,K8A0 050535Z AUTO 05008KT 029V089 10SM CLR M01/M05 A3035 RMK AO2
8A0,1/5/16 5:55,30.2,23.0,74.26,50,8,0.0,30.36,M,10.0,M,CLR,M,M,M,M,M,M,M,M,M,M,M,M,M,M,21.9,K8A0 050555Z AUTO 05008KT 10SM CLR M01/M05 A3036 RMK AO2
8A0,1/5/16 6:15,30.2,23.0,74.26,50,6,0.0,30.36,M,10.0,M,CLR,M,M,M,M,M,M,M,M,M,M,M,M,M,M,23.36,K8A0 050615Z AUTO 05006KT 10SM CLR M01/M05 A3036 RMK AO2
8A0,1/5/16 6:35,30.2,23.0,74.26,40,7,0.0,30.35,M,10.0,M,CLR,M,M,M,M,M,M,M,M,M,M,M,M,M,M,22.59,K8A0 050635Z AUTO 04007KT 10SM CLR M01/M05 A3035 RMK AO2
8A0,1/5/16 6:55,30.2,23.0,74.26,40,7,0.0,30.35,M,10.0,M,CLR,M,M,M,M,M,M,M,M,M,M,M,M,M,M,22.59,K8A0 050655Z AUTO 04007KT 10SM CLR M01/M05 A3035 RMK AO2
8A0,1/5/16 7:15,30.2,23.0,74.26,50,7,0.0,30.35,M,10.0,M,CLR,M,M,M,M,M,M,M,M,M,M,M,M,M,M,22.59,K8A0 050715Z AUTO 05007KT 10SM CLR M01/M05 A3035 RMK AO2
8A0,1/5/16 7:35,30.2,23.0,74.26,50,5,0.0,30.36,M,10.0,M,CLR,M,M,M,M,M,M,M,M,M,M,M,M,M,M,24.26,K8A0 050735Z AUTO 05005KT 10SM CLR M01/M05 A3036 RMK AO2
8A0,1/5/16 7:55,28.4,23.0,79.92,50,5,0.0,30.37,M,10.0,M,CLR,M,M,M,M,M,M,M,M,M,M,M,M,M,M,22.12,K8A0 050755Z AUTO 05005KT 10SM CLR M02/M05 A3037 RMK AO2
8A0,1/5/16 8:15,28.4,23.0,79.92,50,7,0.0,30.37,M,10.0,M,CLR,M,M,M,M,M,M,M,M,M,M,M,M,M,M,20.39,K8A0 050815Z AUTO 05007KT 10SM CLR M02/M05 A3037 RMK AO2
8A0,1/5/16 8:35,28.4,23.0,79.92,50,6,0.0,30.37,M,10.0,M,CLR,M,M,M,M,M,M,M,M,M,M,M,M,M,M,21.19,K8A0 050835Z AUTO 05006KT 10SM CLR M02/M05 A3037 RMK AO2
8A0,1/5/16 8:55,28.4,23.0,79.92,60,5,0.0,30.38,M,10.0,M,CLR,M,M,M,M,M,M,M,M,M,M,M,M,M,M,22.12,K8A0 050855Z AUTO 06005KT 10SM CLR M02/M05 A3038 RMK AO2
8A0,1/5/16 9:15,28.4,23.0,79.92,60,3,0.0,30.39,M,10.0,M,CLR,M,M,M,M,M,M,M,M,M,M,M,M,M,M,24.57,K8A0 050915Z AUTO 06003KT 10SM CLR M02/M05 A3039 RMK AO2
8A0,1/5/16 9:35,26.6,21.2,79.77,50,3,0.0,30.41,M,10.0,M,CLR,M,M,M,M,M,M,M,M,M,M,M,M,M,M,22.52,K8A0 050935Z AUTO 05003KT 10SM CLR M03/M06 A3041 RMK AO2
8A0,1/5/16 9:55,26.6,23.0,86.07,70,4,0.0,30.4,M,10.0,M,CLR,M,M,M,M,M,M,M,M,M,M,M,M,M,M,21.11,K8A0 050955Z AUTO 07004KT 10SM CLR M03/M05 A3040 RMK AO2
8A0,1/5/16 10:15,26.6,23.0,86.07,60,4,0.0,30.41,M,10.0,M,CLR,M,M,M,M,M,M,M,M,M,M,M,M,M,M,21.11,K8A0 051015Z AUTO 06004KT 10SM CLR M03/M05 A3041 RMK AO2
8A0,1/5/16 10:35,26.6,21.2,79.77,80,3,0.0,30.42,M,10.0,M,CLR,M,M,M,M,M,M,M,M,M,M,M,M,M,M,22.52,K8A0 051035Z AUTO 08003KT 10SM CLR M03/M06 A3042 RMK AO2
8A0,1/5/16 10:55,26.6,21.2,79.77,0,0,0.0,30.43,M,10.0,M,CLR,M,M,M,M,M,M,M,M,M,M,M,M,M,M,26.6,K8A0 051055Z AUTO 00000KT 10SM CLR M03/M06 A3043 RMK AO2
8A0,1/5/16 11:15,26.6,21.2,79.77,0,0,0.0,30.43,M,10.0,M,CLR,M,M,M,M,M,M,M,M,M,M,M,M,M,M,26.6,K8A0 051115Z AUTO 00000KT 10SM CLR M03/M06 A3043 RMK AO2
8A0,1/5/16 11:35,26.6,21.2,79.77,0,0,0.0,30.44,M,10.0,M,CLR,M,M,M,M,M,M,M,M,M,M,M,M,M,M,26.6,K8A0 051135Z AUTO 00000KT 10SM CLR M03/M06 A3044 RMK AO2
8A0,1/5/16 11:55,26.6,21.2,79.77,80,3,0.0,30.44,M,10.0,M,CLR,M,M,M,M,M,M,M,M,M,M,M,M,M,M,22.52,K8A0 051155Z AUTO 08003KT 10SM CLR M03/M06 A3044 RMK AO2
8A0,1/5/16 12:15,26.6,21.2,79.77,90,3,0.0,30.45,M,10.0,M,CLR,M,M,M,M,M,M,M,M,M,M,M,M,M,M,22.52,K8A0 051215Z AUTO 09003KT 10SM CLR M03/M06 A3045 RMK AO2
8A0,1/5/16 12:35,23.0,23.0,100.0,70,3,0.0,30.46,M,10.0,M,CLR,M,M,M,M,M,M,M,M,M,M,M,M,M,M,18.4,K8A0 051235Z AUTO 07003KT 10SM CLR M05/M05 A3046 RMK AO2
8A0,1/5/16 12:55,23.0,23.0,100.0,80,3,0.0,30.46,M,10.0,M,CLR,M,M,M,M,M,M,M,M,M,M,M,M,M,M,18.4,K8A0 051255Z AUTO 08003KT 10SM CLR M05/M05 A3046 RMK AO2
8A0,1/5/16 13:15,23.0,23.0,100.0,80,3,0.0,30.47,M,3.0,M,CLR,M,M,M,M,M,M,M,BR,M,M,M,M,M,M,18.4,K8A0 051315Z AUTO 08003KT 3SM BR CLR M05/M05 A3047 RMK AO2
8A0,1/5/16 13:35,24.8,23.0,92.74,80,4,0.0,30.48,M,5.0,M,CLR,M,M,M,M,M,M,M,BR,M,M,M,M,M,M,19.01,K8A0 051335Z AUTO 08004KT 5SM BR CLR M04/M05 A3048 RMK AO2
8A0,1/5/16 13:55,28.4,21.2,74.08,80,5,0.0,30.48,M,10.0,M,CLR,M,M,M,M,M,M,M,M,M,M,M,M,M,M,22.12,K8A0 051355Z AUTO 08005KT 10SM CLR M02/M06 A3048 RMK AO2
8A0,1/5/16 14:15,30.2,23.0,74.26,90,6,0.0,30.48,M,10.0,M,CLR,M,M,M,M,M,M,M,M,M,M,M,M,M,M,23.36,K8A0 051415Z AUTO 09006KT 10SM CLR M01/M05 A3048 RMK AO2
8A0,1/5/16 14:35,32.0,23.0,69.04,90,6,0.0,30.49,M,10.0,M,CLR,M,M,M,M,M,M,M,M,M,M,M,M,M,M,25.53,K8A0 051435Z AUTO 09006KT 10SM CLR 00/M05 A3049 RMK AO2
8A0,1/5/16 14:55,32.0,23.0,69.04,90,6,0.0,30.49,M,10.0,M,CLR,M,M,M,M,M,M,M,M,M,M,M,M,M,M,25.53,K8A0 051455Z AUTO 09006KT 10SM CLR 00/M05 A3049 RMK AO2
8A0,1/5/16 15:15,32.0,23.0,69.04,90,6,0.0,30.49,M,10.0,M,CLR,M,M,M,M,M,M,M,M,M,M,M,M,M,M,25.53,K8A0 051515Z AUTO 09006KT 10SM CLR 00/M05 A3049 RMK AO2
8A0,1/5/16 15:35,33.8,23.0,64.23,100,10,0.0,30.49,M,10.0,15,CLR,M,M,M,M,M,M,M,M,M,M,M,M,M,M,25.23,K8A0 051535Z AUTO 10010G15KT 10SM CLR 01/M05 A3049 RMK AO2
8A0,1/5/16 15:55,33.8,23.0,64.23,100,8,0.0,30.5,M,10.0,15,CLR,M,M,M,M,M,M,M,M,M,M,M,M,M,M,26.33,K8A0 051555Z AUTO 10008G15KT 10SM CLR 01/M05 A3050 RMK AO2
8A0,1/5/16 16:15,35.6,23.0,59.79,120,10,0.0,30.49,M,10.0,16,CLR,M,M,M,M,M,M,M,M,M,M,M,M,M,M,27.48,K8A0 051615Z AUTO 12010G16KT 10SM CLR 02/M05 A3049 RMK AO2
8A0,1/5/16 16:35,35.6,23.0,59.79,90,7,0.0,30.49,M,10.0,M,CLR,M,M,M,M,M,M,M,M,M,M,M,M,M,M,29.17,K8A0 051635Z AUTO 09007KT 10SM CLR 02/M05 A3049 RMK AO2
8A0,1/5/16 16:55,35.6,23.0,59.79,90,7,0.0,30.48,M,10.0,14,CLR,M,M,M,M,M,M,M,M,M,M,M,M,M,M,29.17,K8A0 051655Z AUTO 09007G14KT 10SM CLR 02/M05 A3048 RMK AO2
8A0,1/5/16 17:15,37.4,23.0,55.68,120,7,0.0,30.48,M,10.0,M,CLR,M,M,M,M,M,M,M,M,M,M,M,M,M,M,31.36,K8A0 051715Z AUTO 12007KT 10SM CLR 03/M05 A3048 RMK AO2
8A0,1/5/16 17:35,37.4,23.0,55.68,90,9,0.0,30.46,M,10.0,14,CLR,M,M,M,M,M,M,M,M,M,M,M,M,M,M,30.23,K8A0 051735Z AUTO 09009G14KT 10SM CLR 03/M05 A3046 RMK AO2
8A0,1/5/16 17:55,39.2,23.0,51.89,130,7,0.0,30.44,M,10.0,M,CLR,M,M,M,M,M,M,M,M,M,M,M,M,M,M,33.56,K8A0 051755Z AUTO 13007KT 10SM CLR 04/M05 A3044 RMK AO2
8A0,1/5/16 18:15,41.0,23.0,48.39,120,7,0.0,30.43,M,10.0,M,CLR,M,M,M,M,M,M,M,M,M,M,M,M,M,M,35.75,K8A0 051815Z AUTO 12007KT 10SM CLR 05/M05 A3043 RMK AO2
8A0,1/5/16 18:35,41.0,23.0,48.39,100,8,0.0,30.42,M,10.0,M,CLR,M,M,M,M,M,M,M,M,M,M,M,M,M,M,35.2,K8A0 051835Z AUTO 10008KT 10SM CLR 05/M05 A3042 RMK AO2
8A0,1/5/16 18:55,41.0,23.0,48.39,90,10,0.0,30.41,M,10.0,14,CLR,M,M,M,M,M,M,M,M,M,M,M,M,M,M,34.25,K8A0 051855Z AUTO 09010G14KT 039V099 10SM CLR 05/M05 A3041 RMK AO2
8A0,1/5/16 19:15,41.0,23.0,48.39,120,5,0.0,30.41,M,10.0,M,CLR,M,M,M,M,M,M,M,M,M,M,M,M,M,M,37.08,K8A0 051915Z AUTO 12005KT 10SM CLR 05/M05 A3041 RMK AO2
8A0,1/5/16 19:35,41.0,23.0,48.39,100,7,0.0,30.4,M,10.0,M,CLR,M,M,M,M,M,M,M,M,M,M,M,M,M,M,35.75,K8A0 051935Z AUTO 10007KT 10SM CLR 05/M05 A3040 RMK AO2
8A0,1/5/16 19:55,41.0,24.8,52.17,60,4,0.0,30.39,M,10.0,M,CLR,M,M,M,M,M,M,M,M,M,M,M,M,M,M,37.93,K8A0 051955Z AUTO 06004KT 10SM CLR 05/M04 A3039 RMK AO2
8A0,1/5/16 20:15,41.0,24.8,52.17,110,7,0.0,30.38,M,10.0,M,CLR,M,M,M,M,M,M,M,M,M,M,M,M,M,M,35.75,K8A0 052015Z AUTO 11007KT 069V129 10SM CLR 05/M04 A3038 RMK AO2
8A0,1/5/16 20:35,41.0,24.8,52.17,130,5,0.0,30.38,M,10.0,M,CLR,M,M,M,M,M,M,M,M,M,M,M,M,M,M,37.08,K8A0 052035Z AUTO 13005KT 10SM CLR 05/M04 A3038 RMK AO2
8A0,1/5/16 20:55,42.8,26.6,52.45,90,7,0.0,30.39,M,10.0,M,CLR,M,M,M,M,M,M,M,M,M,M,M,M,M,M,37.94,K8A0 052055Z AUTO 09007KT 10SM CLR 06/M03 A3039 RMK AO2
8A0,1/5/16 21:15,41.0,24.8,52.17,100,3,0.0,30.39,M,10.0,M,CLR,M,M,M,M,M,M,M,M,M,M,M,M,M,M,38.98,K8A0 052115Z AUTO 10003KT 10SM CLR 05/M04 A3039 RMK AO2
8A0,1/5/16 21:35,41.0,24.8,52.17,80,5,0.0,30.39,M,10.0,M,CLR,M,M,M,M,M,M,M,M,M,M,M,M,M,M,37.08,K8A0 052135Z AUTO 08005KT 10SM CLR 05/M04 A3039 RMK AO2
8A0,1/5/16 21:55,41.0,24.8,52.17,100,7,0.0,30.4,M,10.0,M,CLR,M,M,M,M,M,M,M,M,M,M,M,M,M,M,35.75,K8A0 052155Z AUTO 10007KT 10SM CLR 05/M04 A3040 RMK AO2
8A0,1/5/16 22:15,39.2,24.8,55.95,110,6,0.0,30.4,M,10.0,M,CLR,M,M,M,M,M,M,M,M,M,M,M,M,M,M,34.2,K8A0 052215Z AUTO 11006KT 10SM CLR 04/M04 A3040 RMK AO2
8A0,1/5/16 22:35,37.4,24.8,60.04,90,3,0.0,30.4,M,10.0,M,CLR,M,M,M,M,M,M,M,M,M,M,M,M,M,M,34.86,K8A0 052235Z AUTO 09003KT 10SM CLR 03/M04 A3040 RMK AO2
8A0,1/5/16 22:55,35.6,24.8,64.46,90,4,0.0,30.4,M,10.0,M,CLR,M,M,M,M,M,M,M,M,M,M,M,M,M,M,31.62,K8A0 052255Z AUTO 09004KT 10SM CLR 02/M04 A3040 RMK AO2
8A0,1/5/16 23:15,35.6,24.8,64.46,80,3,0.0,30.4,M,10.0,M,CLR,M,M,M,M,M,M,M,M,M,M,M,M,M,M,32.8,K8A0 052315Z AUTO 08003KT 10SM CLR 02/M04 A3040 RMK AO2
8A0,1/5/16 23:35,35.6,24.8,64.46,80,3,0.0,30.4,M,10.0,M,CLR,M,M,M,M,M,M,M,M,M,M,M,M,M,M,32.8,K8A0 052335Z AUTO 08003KT 10SM CLR 02/M04 A3040 RMK AO2
8A0,1/5/16 23:55,33.8,24.8,69.25,80,3,0.0,30.4,M,10.0,M,CLR,M,M,M,M,M,M,M,M,M,M,M,M,M,M,30.75,K8A0 052355Z AUTO 08003KT 10SM CLR 01/M04 A3040 RMK AO2
8A0,1/6/16 0:15,32.0,26.6,80.22,80,4,0.0,30.4,M,10.0,M,CLR,M,M,M,M,M,M,M,M,M,M,M,M,M,M,27.42,K8A0 060015Z AUTO 08004KT 10SM CLR 00/M03 A3040 RMK AO2
8A0,1/6/16 0:35,32.0,26.6,80.22,80,4,0.0,30.4,M,10.0,M,CLR,M,M,M,M,M,M,M,M,M,M,M,M,M,M,27.42,K8A0 060035Z AUTO 08004KT 10SM CLR 00/M03 A3040 RMK AO2
8A0,1/6/16 0:55,32.0,26.6,80.22,80,5,0.0,30.41,M,10.0,M,CLR,M,M,M,M,M,M,M,M,M,M,M,M,M,M,26.4,K8A0 060055Z AUTO 08005KT 10SM CLR 00/M03 A3041 RMK AO2
8A0,1/6/16 1:15,32.0,23.0,69.04,90,5,0.0,30.41,M,10.0,M,CLR,M,M,M,M,M,M,M,M,M,M,M,M,M,M,26.4,K8A0 060115Z AUTO 09005KT 10SM CLR 00/M05 A3041 RMK AO2
8A0,1/6/16 1:35,33.8,23.0,64.23,90,6,0.0,30.41,M,10.0,M,CLR,M,M,M,M,M,M,M,M,M,M,M,M,M,M,27.7,K8A0 060135Z AUTO 09006KT 10SM CLR 01/M05 A3041 RMK AO2
8A0,1/6/16 1:55,33.8,23.0,64.23,100,6,0.0,30.41,M,10.0,M,CLR,M,M,M,M,M,M,M,M,M,M,M,M,M,M,27.7,K8A0 060155Z AUTO 10006KT 10SM CLR 01/M05 A3041 RMK AO2
8A0,1/6/16 2:15,33.8,23.0,64.23,100,7,0.0,30.41,M,10.0,M,CLR,M,M,M,M,M,M,M,M,M,M,M,M,M,M,26.97,K8A0 060215Z AUTO 10007KT 10SM CLR 01/M05 A3041 RMK AO2
8A0,1/6/16 2:35,32.0,23.0,69.04,100,6,0.0,30.41,M,10.0,M,CLR,M,M,M,M,M,M,M,M,M,M,M,M,M,M,25.53,K8A0 060235Z AUTO 10006KT 10SM CLR 00/M05 A3041 RMK AO2
8A0,1/6/16 2:55,32.0,21.2,63.99,110,5,0.0,30.41,M,10.0,M,CLR,M,M,M,M,M,M,M,M,M,M,M,M,M,M,26.4,K8A0 060255Z AUTO 11005KT 10SM CLR 00/M06 A3041 RMK AO2
8A0,1/6/16 3:15,32.0,21.2,63.99,110,5,0.0,30.41,M,10.0,M,CLR,M,M,M,M,M,M,M,M,M,M,M,M,M,M,26.4,K8A0 060315Z AUTO 11005KT 10SM CLR 00/M06 A3041 RMK AO2
8A0,1/6/16 3:35,32.0,21.2,63.99,110,5,0.0,30.41,M,10.0,M,CLR,M,M,M,M,M,M,M,M,M,M,M,M,M,M,26.4,K8A0 060335Z AUTO 11005KT 10SM CLR 00/M06 A3041 RMK AO2
8A0,1/6/16 3:55,32.0,21.2,63.99,110,4,0.0,30.42,M,10.0,M,CLR,M,M,M,M,M,M,M,M,M,M,M,M,M,M,27.42,K8A0 060355Z AUTO 11004KT 10SM CLR 00/M06 A3042 RMK AO2
8A0,1/6/16 4:15,32.0,21.2,63.99,110,5,0.0,30.42,M,10.0,M,CLR,M,M,M,M,M,M,M,M,M,M,M,M,M,M,26.4,K8A0 060415Z AUTO 11005KT 10SM CLR 00/M06 A3042 RMK AO2
8A0,1/6/16 4:35,32.0,21.2,63.99,110,5,0.0,30.43,M,10.0,M,CLR,M,M,M,M,M,M,M,M,M,M,M,M,M,M,26.4,K8A0 060435Z AUTO 11005KT 10SM CLR 00/M06 A3043 RMK AO2
8A0,1/6/16 4:55,32.0,21.2,63.99,110,3,0.0,30.43,M,10.0,M,CLR,M,M,M,M,M,M,M,M,M,M,M,M,M,M,28.69,K8A0 060455Z AUTO 11003KT 10SM CLR 00/M06 A3043 RMK AO2
8A0,1/6/16 5:15,32.0,21.2,63.99,110,5,0.0,30.42,M,10.0,M,CLR,M,M,M,M,M,M,M,M,M,M,M,M,M,M,26.4,K8A0 060515Z AUTO 11005KT 10SM CLR 00/M06 A3042 RMK AO2
8A0,1/6/16 5:35,32.0,21.2,63.99,100,4,0.0,30.42,M,10.0,M,CLR,M,M,M,M,M,M,M,M,M,M,M,M,M,M,27.42,K8A0 060535Z AUTO 10004KT 10SM CLR 00/M06 A3042 RMK AO2
8A0,1/6/16 5:55,32.0,21.2,63.99,110,5,0.0,30.42,M,10.0,M,CLR,M,M,M,M,M,M,M,M,M,M,M,M,M,M,26.4,K8A0 060555Z AUTO 11005KT 10SM CLR 00/M06 A3042 RMK AO2
8A0,1/6/16 6:15,32.0,21.2,63.99,120,6,0.0,30.42,M,10.0,M,CLR,M,M,M,M,M,M,M,M,M,M,M,M,M,M,25.53,K8A0 060615Z AUTO 12006KT 10SM CLR 00/M06 A3042 RMK AO2
8A0,1/6/16 6:35,32.0,21.2,63.99,110,6,0.0,30.41,M,10.0,M,CLR,M,M,M,M,M,M,M,M,M,M,M,M,M,M,25.53,K8A0 060635Z AUTO 11006KT 10SM CLR 00/M06 A3041 RMK AO2
8A0,1/6/16 6:55,32.0,21.2,63.99,100,5,0.0,30.41,M,10.0,M,CLR,M,M,M,M,M,M,M,M,M,M,M,M,M,M,26.4,K8A0 060655Z AUTO 10005KT 10SM CLR 00/M06 A3041 RMK AO2
8A0,1/6/16 7:15,30.2,21.2,68.83,110,7,0.0,30.4,M,10.0,M,CLR,M,M,M,M,M,M,M,M,M,M,M,M,M,M,22.59,K8A0 060715Z AUTO 11007KT 10SM CLR M01/M06 A3040 RMK AO2
8A0,1/6/16 7:35,30.2,21.2,68.83,110,5,0.0,30.4,M,10.0,M,CLR,M,M,M,M,M,M,M,M,M,M,M,M,M,M,24.26,K8A0 060735Z AUTO 11005KT 10SM CLR M01/M06 A3040 RMK AO2
8A0,1/6/16 7:55,30.2,21.2,68.83,110,5,0.0,30.4,M,10.0,M,CLR,M,M,M,M,M,M,M,M,M,M,M,M,M,M,24.26,K8A0 060755Z AUTO 11005KT 10SM CLR M01/M06 A3040 RMK AO2
8A0,1/6/16 8:15,30.2,21.2,68.83,110,5,0.0,30.4,M,10.0,M,CLR,M,M,M,M,M,M,M,M,M,M,M,M,M,M,24.26,K8A0 060815Z AUTO 11005KT 10SM CLR M01/M06 A3040 RMK AO2
8A0,1/6/16 8:35,30.2,21.2,68.83,120,6,0.0,30.4,M,10.0,M,CLR,M,M,M,M,M,M,M,M,M,M,M,M,M,M,23.36,K8A0 060835Z AUTO 12006KT 10SM CLR M01/M06 A3040 RMK AO2
8A0,1/6/16 8:55,30.2,21.2,68.83,110,6,0.0,30.4,M,10.0,M,CLR,M,M,M,M,M,M,M,M,M,M,M,M,M,M,23.36,K8A0 060855Z AUTO 11006KT 10SM CLR M01/M06 A3040 RMK AO2
8A0,1/6/16 9:15,30.2,19.4,63.75,110,5,0.0,30.4,M,10.0,M,CLR,M,M,M,M,M,M,M,M,M,M,M,M,M,M,24.26,K8A0 060915Z AUTO 11005KT 10SM CLR M01/M07 A3040 RMK AO2
8A0,1/6/16 9:35,30.2,21.2,68.83,110,5,0.0,30.4,M,10.0,M,CLR,M,M,M,M,M,M,M,M,M,M,M,M,M,M,24.26,K8A0 060935Z AUTO 11005KT 10SM CLR M01/M06 A3040 RMK AO2
8A0,1/6/16 9:55,30.2,21.2,68.83,120,5,0.0,30.39,M,10.0,M,CLR,M,M,M,M,M,M,M,M,M,M,M,M,M,M,24.26,K8A0 060955Z AUTO 12005KT 10SM CLR M01/M06 A3039 RMK AO2
8A0,1/6/16 10:15,30.2,19.4,63.75,110,5,0.0,30.39,M,10.0,M,CLR,M,M,M,M,M,M,M,M,M,M,M,M,M,M,24.26,K8A0 061015Z AUTO 11005KT 10SM CLR M01/M07 A3039 RMK AO2
8A0,1/6/16 10:35,30.2,21.2,68.83,100,6,0.0,30.39,M,10.0,M,CLR,M,M,M,M,M,M,M,M,M,M,M,M,M,M,23.36,K8A0 061035Z AUTO 10006KT 10SM CLR M01/M06 A3039 RMK AO2
8A0,1/6/16 10:55,30.2,19.4,63.75,100,7,0.0,30.4,M,10.0,M,CLR,M,M,M,M,M,M,M,M,M,M,M,M,M,M,22.59,K8A0 061055Z AUTO 10007KT 10SM CLR M01/M07 A3040 RMK AO2
8A0,1/6/16 11:15,30.2,19.4,63.75,100,7,0.0,30.4,M,10.0,M,CLR,M,M,M,M,M,M,M,M,M,M,M,M,M,M,22.59,K8A0 061115Z AUTO 10007KT 10SM CLR M01/M07 A3040 RMK AO2
8A0,1/6/16 11:35,30.2,19.4,63.75,100,6,0.0,30.4,M,10.0,M,CLR,M,M,M,M,M,M,M,M,M,M,M,M,M,M,23.36,K8A0 061135Z AUTO 10006KT 10SM CLR M01/M07 A3040 RMK AO2
8A0,1/6/16 11:55,30.2,19.4,63.75,100,6,0.0,30.4,M,10.0,M,CLR,M,M,M,M,M,M,M,M,M,M,M,M,M,M,23.36,K8A0 061155Z AUTO 10006KT 10SM CLR M01/M07 A3040 RMK AO2
8A0,1/6/16 12:15,30.2,19.4,63.75,90,7,0.0,30.4,M,10.0,M,CLR,M,M,M,M,M,M,M,M,M,M,M,M,M,M,22.59,K8A0 061215Z AUTO 09007KT 10SM CLR M01/M07 A3040 RMK AO2
8A0,1/6/16 12:35,30.2,19.4,63.75,90,7,0.0,30.4,M,10.0,M,SCT,M,M,M,2200,M,M,M,M,M,M,M,M,M,M,22.59,K8A0 061235Z AUTO 09007KT 10SM SCT022 M01/M07 A3040 RMK AO2
8A0,1/6/16 12:55,30.2,19.4,63.75,90,9,0.0,30.39,M,10.0,M,SCT,M,M,M,2200,M,M,M,M,M,M,M,M,M,M,21.28,K8A0 061255Z AUTO 09009KT 10SM SCT022 M01/M07 A3039 RMK AO2
8A0,1/6/16 13:15,30.2,19.4,63.75,100,8,0.0,30.39,M,10.0,14,BKN,M,M,M,2200,M,M,M,M,M,M,M,M,M,M,21.9,K8A0 061315Z AUTO 10008G14KT 10SM BKN022 M01/M07 A3039 RMK AO2
8A0,1/6/16 13:35,30.2,19.4,63.75,100,6,0.0,30.4,M,10.0,14,SCT,SCT,M,M,2200,7500,M,M,M,M,M,M,M,M,M,23.36,K8A0 061335Z AUTO 10006G14KT 10SM SCT022 SCT075 M01/M07 A3040 RMK AO2
8A0,1/6/16 13:55,30.2,19.4,63.75,100,9,0.0,30.4,M,10.0,15,SCT,M,M,M,2200,M,M,M,M,M,M,M,M,M,M,21.28,K8A0 061355Z AUTO 10009G15KT 10SM SCT022 M01/M07 A3040 RMK AO2
8A0,1/6/16 14:15,32.0,19.4,59.27,90,8,0.0,30.4,M,10.0,M,SCT,M,M,M,2200,M,M,M,M,M,M,M,M,M,M,24.11,K8A0 061415Z AUTO 09008KT 059V139 10SM SCT022 00/M07 A3040 RMK AO2
8A0,1/6/16 14:35,32.0,21.2,63.99,80,9,0.0,30.4,M,10.0,M,CLR,M,M,M,M,M,M,M,M,M,M,M,M,M,M,23.51,K8A0 061435Z AUTO 08009KT 029V089 10SM CLR 00/M06 A3040 RMK AO2
8A0,1/6/16 14:55,33.8,21.2,59.53,80,7,0.0,30.41,M,10.0,14,CLR,M,M,M,M,M,M,M,M,M,M,M,M,M,M,26.97,K8A0 061455Z AUTO 08007G14KT 10SM CLR 01/M06 A3041 RMK AO2
8A0,1/6/16 15:15,33.8,21.2,59.53,100,10,0.0,30.41,M,10.0,15,CLR,M,M,M,M,M,M,M,M,M,M,M,M,M,M,25.23,K8A0 061515Z AUTO 10010G15KT 10SM CLR 01/M06 A3041 RMK AO2
8A0,1/6/16 15:35,35.6,23.0,59.79,80,9,0.0,30.41,M,10.0,M,CLR,M,M,M,M,M,M,M,M,M,M,M,M,M,M,27.99,K8A0 061535Z AUTO 08009KT 10SM CLR 02/M05 A3041 RMK AO2
8A0,1/6/16 15:55,35.6,23.0,59.79,90,9,0.0,30.41,M,10.0,M,SCT,M,M,M,2200,M,M,M,M,M,M,M,M,M,M,27.99,K8A0 061555Z AUTO 09009KT 10SM SCT022 02/M05 A3041 RMK AO2
8A0,1/6/16 16:15,35.6,24.8,64.46,110,6,0.0,30.41,M,10.0,M,BKN,M,M,M,2200,M,M,M,M,M,M,M,M,M,M,29.87,K8A0 061615Z AUTO 11006KT 10SM BKN022 02/M04 A3041 RMK AO2
8A0,1/6/16 16:35,37.4,24.8,60.04,80,8,0.0,30.4,M,10.0,M,BKN,M,M,M,2200,M,M,M,M,M,M,M,M,M,M,30.76,K8A0 061635Z AUTO 08008KT 10SM BKN022 03/M04 A3040 RMK AO2
8A0,1/6/16 16:55,37.4,24.8,60.04,90,5,0.0,30.38,M,10.0,M,SCT,SCT,M,M,2000,2700,M,M,M,M,M,M,M,M,M,32.81,K8A0 061655Z AUTO 09005KT 10SM SCT020 SCT027 03/M04 A3038 RMK AO2
8A0,1/6/16 17:15,37.4,26.6,64.7,80,8,0.0,30.37,M,10.0,M,BKN,M,M,M,2700,M,M,M,M,M,M,M,M,M,M,30.76,K8A0 061715Z AUTO 08008KT 10SM BKN027 03/M03 A3037 RMK AO2
8A0,1/6/16 17:35,39.2,26.6,60.29,90,9,0.0,30.35,M,10.0,M,BKN,M,M,M,2700,M,M,M,M,M,M,M,M,M,M,32.47,K8A0 061735Z AUTO 09009KT 069V129 10SM BKN027 04/M03 A3035 RMK AO2
8A0,1/6/16 17:55,39.2,28.4,64.93,100,5,0.0,30.34,M,10.0,M,BKN,M,M,M,2900,M,M,M,M,M,M,M,M,M,M,34.95,K8A0 061755Z AUTO 10005KT 10SM BKN029 04/M02 A3034 RMK AO2
8A0,1/6/16 18:15,41.0,28.4,60.54,120,4,0.0,30.32,M,10.0,M,OVC,M,M,M,2700,M,M,M,M,M,M,M,M,M,M,37.93,K8A0 061815Z AUTO 12004KT 10SM OVC027 05/M02 A3032 RMK AO2
8A0,1/6/16 18:35,42.8,28.4,56.48,100,5,0.0,30.31,M,10.0,M,OVC,M,M,M,2700,M,M,M,M,M,M,M,M,M,M,39.22,K8A0 061835Z AUTO 10005KT 10SM OVC027 06/M02 A3031 RMK AO2
8A0,1/6/16 18:55,42.8,30.2,60.79,80,7,0.0,30.29,M,10.0,M,OVC,M,M,M,2500,M,M,M,M,M,M,M,M,M,M,37.94,K8A0 061855Z AUTO 08007KT 10SM OVC025 06/M01 A3029 RMK AO2
8A0,1/6/16 19:15,42.8,30.2,60.79,140,6,0.0,30.28,M,10.0,M,SCT,M,M,M,2300,M,M,M,M,M,M,M,M,M,M,38.54,K8A0 061915Z AUTO 14006KT 10SM SCT023 06/M01 A3028 RMK AO2
8A0,1/6/16 19:35,44.6,30.2,56.74,110,5,0.0,30.28,M,10.0,M,SCT,M,M,M,2300,M,M,M,M,M,M,M,M,M,M,41.36,K8A0 061935Z AUTO 11005KT 10SM SCT023 07/M01 A3028 RMK AO2
8A0,1/6/16 19:55,44.6,32.0,61.03,90,6,0.0,30.27,M,10.0,M,SCT,M,M,M,2300,M,M,M,M,M,M,M,M,M,M,40.71,K8A0 061955Z AUTO 09006KT 10SM SCT023 07/00 A3027 RMK AO2
8A0,1/6/16 20:15,44.6,32.0,61.03,70,3,0.0,30.26,M,10.0,M,CLR,M,M,M,M,M,M,M,M,M,M,M,M,M,M,43.09,K8A0 062015Z AUTO 07003KT 10SM CLR 07/00 A3026 RMK AO2
8A0,1/6/16 20:35,46.4,32.0,57.0,120,4,0.0,30.25,M,10.0,M,CLR,M,M,M,M,M,M,M,M,M,M,M,M,M,M,44.24,K8A0 062035Z AUTO 12004KT 10SM CLR 08/00 A3025 RMK AO2
8A0,1/6/16 20:55,46.4,32.0,57.0,0,0,0.0,30.25,M,10.0,M,CLR,M,M,M,M,M,M,M,M,M,M,M,M,M,M,46.4,K8A0 062055Z AUTO 00000KT 10SM CLR 08/00 A3025 RMK AO2
8A0,1/6/16 21:15,46.4,32.0,57.0,100,5,0.0,30.24,M,10.0,M,CLR,M,M,M,M,M,M,M,M,M,M,M,M,M,M,43.5,K8A0 062115Z AUTO 10005KT 10SM CLR 08/00 A3024 RMK AO2
8A0,1/6/16 21:35,46.4,32.0,57.0,80,4,0.0,30.24,M,10.0,M,CLR,M,M,M,M,M,M,M,M,M,M,M,M,M,M,44.24,K8A0 062135Z AUTO 08004KT 10SM CLR 08/00 A3024 RMK AO2
8A0,1/6/16 21:55,44.6,32.0,61.03,90,6,0.0,30.24,M,10.0,M,CLR,M,M,M,M,M,M,M,M,M,M,M,M,M,M,40.71,K8A0 062155Z AUTO 09006KT 10SM CLR 07/00 A3024 RMK AO2
8A0,1/6/16 22:15,44.6,32.0,61.03,130,6,0.0,30.24,M,10.0,M,CLR,M,M,M,M,M,M,M,M,M,M,M,M,M,M,40.71,K8A0 062215Z AUTO 13006KT 10SM CLR 07/00 A3024 RMK AO2
8A0,1/6/16 22:35,42.8,32.0,65.38,110,4,0.0,30.24,M,10.0,M,CLR,M,M,M,M,M,M,M,M,M,M,M,M,M,M,40.03,K8A0 062235Z AUTO 11004KT 10SM CLR 06/00 A3024 RMK AO2
8A0,1/6/16 22:55,41.0,32.0,70.08,90,5,0.0,30.24,M,10.0,M,CLR,M,M,M,M,M,M,M,M,M,M,M,M,M,M,37.08,K8A0 062255Z AUTO 09005KT 10SM CLR 05/00 A3024 RMK AO2
8A0,1/6/16 23:15,41.0,30.2,65.16,90,4,0.0,30.24,M,10.0,M,CLR,M,M,M,M,M,M,M,M,M,M,M,M,M,M,37.93,K8A0 062315Z AUTO 09004KT 10SM CLR 05/M01 A3024 RMK AO2
8A0,1/6/16 23:35,39.2,30.2,69.88,80,4,0.0,30.24,M,10.0,M,CLR,M,M,M,M,M,M,M,M,M,M,M,M,M,M,35.83,K8A0 062335Z AUTO 08004KT 10SM CLR 04/M01 A3024 RMK AO2
8A0,1/6/16 23:55,39.2,30.2,69.88,90,4,0.0,30.24,M,10.0,M,CLR,M,M,M,M,M,M,M,M,M,M,M,M,M,M,35.83,K8A0 062355Z AUTO 09004KT 10SM CLR 04/M01 A3024 RMK AO2
8A0,1/7/16 0:15,39.2,30.2,69.88,100,5,0.0,30.24,M,10.0,M,CLR,M,M,M,M,M,M,M,M,M,M,M,M,M,M,34.95,K8A0 070015Z AUTO 10005KT 10SM CLR 04/M01 A3024 RMK AO2
8A0,1/7/16 0:35,39.2,30.2,69.88,100,6,0.0,30.24,M,10.0,M,CLR,M,M,M,M,M,M,M,M,M,M,M,M,M,M,34.2,K8A0 070035Z AUTO 10006KT 10SM CLR 04/M01 A3024 RMK AO2
8A0,1/7/16 0:55,39.2,30.2,69.88,90,6,0.0,30.24,M,10.0,M,CLR,M,M,M,M,M,M,M,M,M,M,M,M,M,M,34.2,K8A0 070055Z AUTO 09006KT 10SM CLR 04/M01 A3024 RMK AO2
8A0,1/7/16 1:15,37.4,30.2,74.98,90,6,0.0,30.24,M,10.0,M,CLR,M,M,M,M,M,M,M,M,M,M,M,M,M,M,32.03,K8A0 070115Z AUTO 09006KT 10SM CLR 03/M01 A3024 RMK AO2
8A0,1/7/16 1:35,39.2,30.2,69.88,100,6,0.0,30.25,M,10.0,M,CLR,M,M,M,M,M,M,M,M,M,M,M,M,M,M,34.2,K8A0 070135Z AUTO 10006KT 10SM CLR 04/M01 A3025 RMK AO2
8A0,1/7/16 1:55,39.2,30.2,69.88,100,3,0.0,30.25,M,10.0,M,CLR,M,M,M,M,M,M,M,M,M,M,M,M,M,M,36.92,K8A0 070155Z AUTO 10003KT 10SM CLR 04/M01 A3025 RMK AO2
8A0,1/7/16 2:15,39.2,30.2,69.88,100,4,0.0,30.25,M,10.0,M,CLR,M,M,M,M,M,M,M,M,M,M,M,M,M,M,35.83,K8A0 070215Z AUTO 10004KT 10SM CLR 04/M01 A3025 RMK AO2
8A0,1/7/16 2:35,39.2,30.2,69.88,110,5,0.0,30.25,M,10.0,M,CLR,M,M,M,M,M,M,M,M,M,M,M,M,M,M,34.95,K8A0 070235Z AUTO 11005KT 10SM CLR 04/M01 A3025 RMK AO2
8A0,1/7/16 2:55,39.2,30.2,69.88,100,5,0.0,30.24,M,10.0,M,CLR,M,M,M,M,M,M,M,M,M,M,M,M,M,M,34.95,K8A0 070255Z AUTO 10005KT 10SM CLR 04/M01 A3024 RMK AO2
8A0,1/7/16 3:15,39.2,30.2,69.88,100,4,0.0,30.24,M,10.0,M,CLR,M,M,M,M,M,M,M,M,M,M,M,M,M,M,35.83,K8A0 070315Z AUTO 10004KT 10SM CLR 04/M01 A3024 RMK AO2
8A0,1/7/16 3:35,37.4,30.2,74.98,110,4,0.0,30.24,M,10.0,M,CLR,M,M,M,M,M,M,M,M,M,M,M,M,M,M,33.73,K8A0 070335Z AUTO 11004KT 10SM CLR 03/M01 A3024 RMK AO2
8A0,1/7/16 3:55,39.2,30.2,69.88,110,4,0.0,30.24,M,10.0,M,CLR,M,M,M,M,M,M,M,M,M,M,M,M,M,M,35.83,K8A0 070355Z AUTO 11004KT 10SM CLR 04/M01 A3024 RMK AO2
8A0,1/7/16 4:15,39.2,30.2,69.88,110,5,0.0,30.24,M,10.0,M,CLR,M,M,M,M,M,M,M,M,M,M,M,M,M,M,34.95,K8A0 070415Z AUTO 11005KT 10SM CLR 04/M01 A3024 RMK AO2
8A0,1/7/16 4:35,37.4,30.2,74.98,110,6,0.0,30.23,M,10.0,M,CLR,M,M,M,M,M,M,M,M,M,M,M,M,M,M,32.03,K8A0 070435Z AUTO 11006KT 10SM CLR 03/M01 A3023 RMK AO2
8A0,1/7/16 4:55,37.4,30.2,74.98,100,5,0.0,30.23,M,10.0,M,CLR,M,M,M,M,M,M,M,M,M,M,M,M,M,M,32.81,K8A0 070455Z AUTO 10005KT 10SM CLR 03/M01 A3023 RMK AO2
8A0,1/7/16 5:15,37.4,30.2,74.98,100,6,0.0,30.22,M,10.0,M,CLR,M,M,M,M,M,M,M,M,M,M,M,M,M,M,32.03,K8A0 070515Z AUTO 10006KT 10SM CLR 03/M01 A3022 RMK AO2
8A0,1/7/16 5:35,37.4,28.4,69.67,100,5,0.0,30.22,M,10.0,M,CLR,M,M,M,M,M,M,M,M,M,M,M,M,M,M,32.81,K8A0 070535Z AUTO 10005KT 10SM CLR 03/M02 A3022 RMK AO2
8A0,1/7/16 5:55,35.6,28.4,74.8,100,5,0.0,30.21,M,10.0,M,CLR,M,M,M,M,M,M,M,M,M,M,M,M,M,M,30.67,K8A0 070555Z AUTO 10005KT 10SM CLR 02/M02 A3021 RMK AO2
8A0,1/7/16 6:15,35.6,26.6,69.46,100,4,0.0,30.2,M,10.0,M,CLR,M,M,M,M,M,M,M,M,M,M,M,M,M,M,31.62,K8A0 070615Z AUTO 10004KT 10SM CLR 02/M03 A3020 RMK AO2
8A0,1/7/16 6:35,35.6,26.6,69.46,100,5,0.0,30.19,M,10.0,M,CLR,M,M,M,M,M,M,M,M,M,M,M,M,M,M,30.67,K8A0 070635Z AUTO 10005KT 10SM CLR 02/M03 A3019 RMK AO2
8A0,1/7/16 6:55,35.6,26.6,69.46,100,6,0.0,30.19,M,10.0,M,CLR,M,M,M,M,M,M,M,M,M,M,M,M,M,M,29.87,K8A0 070655Z AUTO 10006KT 10SM CLR 02/M03 A3019 RMK AO2
8A0,1/7/16 7:15,35.6,26.6,69.46,90,7,0.0,30.18,M,10.0,M,CLR,M,M,M,M,M,M,M,M,M,M,M,M,M,M,29.17,K8A0 070715Z AUTO 09007KT 10SM CLR 02/M03 A3018 RMK AO2
8A0,1/7/16 7:35,35.6,26.6,69.46,100,6,0.0,30.17,M,10.0,M,CLR,M,M,M,M,M,M,M,M,M,M,M,M,M,M,29.87,K8A0 070735Z AUTO 10006KT 10SM CLR 02/M03 A3017 RMK AO2
8A0,1/7/16 7:55,35.6,26.6,69.46,100,6,0.0,30.17,M,10.0,M,CLR,M,M,M,M,M,M,M,M,M,M,M,M,M,M,29.87,K8A0 070755Z AUTO 10006KT 10SM CLR 02/M03 A3017 RMK AO2
8A0,1/7/16 8:15,35.6,26.6,69.46,90,7,0.0,30.16,M,10.0,M,CLR,M,M,M,M,M,M,M,M,M,M,M,M,M,M,29.17,K8A0 070815Z AUTO 09007KT 10SM CLR 02/M03 A3016 RMK AO2
8A0,1/7/16 8:35,33.8,28.4,80.36,80,5,0.0,30.15,M,10.0,M,CLR,M,M,M,M,M,M,M,M,M,M,M,M,M,M,28.53,K8A0 070835Z AUTO 08005KT 10SM CLR 01/M02 A3015 RMK AO2
8A0,1/7/16 8:55,35.6,28.4,74.8,90,7,0.0,30.13,M,10.0,M,CLR,M,M,M,M,M,M,M,M,M,M,M,M,M,M,29.17,K8A0 070855Z AUTO 09007KT 10SM CLR 02/M02 A3013 RMK AO2
8A0,1/7/16 9:15,35.6,28.4,74.8,80,9,0.0,30.12,M,10.0,M,SCT,M,M,M,2200,M,M,M,M,M,M,M,M,M,M,27.99,K8A0 070915Z AUTO 08009KT 10SM SCT022 02/M02 A3012 RMK AO2
8A0,1/7/16 9:35,35.6,28.4,74.8,100,5,0.0,30.12,M,10.0,M,SCT,M,M,M,2200,M,M,M,M,M,M,M,M,M,M,30.67,K8A0 070935Z AUTO 10005KT 10SM SCT022 02/M02 A3012 RMK AO2
8A0,1/7/16 9:55,35.6,28.4,74.8,100,4,0.0,30.13,M,10.0,M,CLR,M,M,M,M,M,M,M,M,M,M,M,M,M,M,31.62,K8A0 070955Z AUTO 10004KT 10SM CLR 02/M02 A3013 RMK AO2
8A0,1/7/16 10:15,33.8,28.4,80.36,100,3,0.0,30.13,M,10.0,M,CLR,M,M,M,M,M,M,M,M,M,M,M,M,M,M,30.75,K8A0 071015Z AUTO 10003KT 10SM CLR 01/M02 A3013 RMK AO2
8A0,1/7/16 10:35,35.6,30.2,80.51,120,3,0.0,30.14,M,10.0,M,CLR,M,M,M,M,M,M,M,M,M,M,M,M,M,M,32.8,K8A0 071035Z AUTO 12003KT 10SM CLR 02/M01 A3014 RMK AO2
8A0,1/7/16 10:55,35.6,30.2,80.51,90,4,0.0,30.14,M,10.0,M,CLR,M,M,M,M,M,M,M,M,M,M,M,M,M,M,31.62,K8A0 071055Z AUTO 09004KT 10SM CLR 02/M01 A3014 RMK AO2
8A0,1/7/16 11:15,33.8,30.2,86.49,80,4,0.0,30.14,M,10.0,M,CLR,M,M,M,M,M,M,M,M,M,M,M,M,M,M,29.52,K8A0 071115Z AUTO 08004KT 10SM CLR 01/M01 A3014 RMK AO2
8A0,1/7/16 11:35,33.8,32.0,93.03,80,3,0.0,30.15,M,10.0,M,CLR,M,M,M,M,M,M,M,M,M,M,M,M,M,M,30.75,K8A0 071135Z AUTO 08003KT 10SM CLR 01/00 A3015 RMK AO2
8A0,1/7/16 11:55,33.8,32.0,93.03,80,5,0.0,30.15,M,10.0,M,CLR,M,M,M,M,M,M,M,M,M,M,M,M,M,M,28.53,K8A0 071155Z AUTO 08005KT 10SM CLR 01/00 A3015 RMK AO2
8A0,1/7/16 12:15,33.8,32.0,93.03,80,5,0.0,30.15,M,10.0,M,CLR,M,M,M,M,M,M,M,M,M,M,M,M,M,M,28.53,K8A0 071215Z AUTO 08005KT 10SM CLR 01/00 A3015 RMK AO2
8A0,1/7/16 12:35,33.8,32.0,93.03,70,5,0.0,30.15,M,10.0,M,CLR,M,M,M,M,M,M,M,M,M,M,M,M,M,M,28.53,K8A0 071235Z AUTO 07005KT 10SM CLR 01/00 A3015 RMK AO2
8A0,1/7/16 12:55,35.6,32.0,86.59,90,5,0.0,30.16,M,10.0,M,SCT,M,M,M,2200,M,M,M,M,M,M,M,M,M,M,30.67,K8A0 071255Z AUTO 09005KT 10SM SCT022 02/00 A3016 RMK AO2
8A0,1/7/16 13:15,35.6,32.0,86.59,80,4,0.0,30.17,M,10.0,M,SCT,BKN,BKN,M,1500,2400,3100,M,M,M,M,M,M,M,M,31.62,K8A0 071315Z AUTO 08004KT 10SM SCT015 BKN024 BKN031 02/00 A3017 RMK AO2
8A0,1/7/16 13:35,37.4,33.8,86.69,90,6,0.0,30.17,M,10.0,M,OVC,M,M,M,1300,M,M,M,M,M,M,M,M,M,M,32.03,K8A0 071335Z AUTO 09006KT 10SM OVC013 03/01 A3017 RMK AO2
8A0,1/7/16 13:55,39.2,33.8,80.79,90,8,0.0,30.16,M,10.0,M,BKN,BKN,OVC,M,1300,2200,5500,M,M,M,M,M,M,M,M,32.98,K8A0 071355Z AUTO 09008KT 049V109 10SM BKN013 BKN022 OVC055 04/01 A3016 RMK AO2
8A0,1/7/16 14:15,41.0,33.8,75.33,90,6,0.0,30.17,M,10.0,M,OVC,M,M,M,1700,M,M,M,M,M,M,M,M,M,M,36.37,K8A0 071415Z AUTO 09006KT 10SM OVC017 05/01 A3017 RMK AO2
8A0,1/7/16 14:35,41.0,35.6,80.93,120,3,0.0,30.17,M,10.0,M,OVC,M,M,M,1900,M,M,M,M,M,M,M,M,M,M,38.98,K8A0 071435Z AUTO 12003KT 10SM OVC019 05/02 A3017 RMK AO2
8A0,1/7/16 14:55,42.8,35.6,75.5,120,5,0.0,30.18,M,7.0,M,OVC,M,M,M,2300,M,M,M,M,M,M,M,M,M,M,39.22,K8A0 071455Z AUTO 12005KT 7SM OVC023 06/02 A3018 RMK AO2
8A0,1/7/16 15:15,42.8,35.6,75.5,100,9,0.0,30.17,M,10.0,14,BKN,OVC,M,M,2500,3500,M,M,M,M,M,M,M,M,M,36.94,K8A0 071515Z AUTO 10009G14KT 079V139 10SM BKN025 OVC035 06/02 A3017 RMK AO2
8A0,1/7/16 15:35,44.6,35.6,70.48,90,9,0.0,30.17,M,10.0,M,OVC,M,M,M,2900,M,M,M,M,M,M,M,M,M,M,39.18,K8A0 071535Z AUTO 09009KT 10SM OVC029 07/02 A3017 RMK AO2
8A0,1/7/16 15:55,44.6,35.6,70.48,90,8,0.0,30.16,M,10.0,M,BKN,OVC,M,M,3300,3800,M,M,M,M,M,M,M,M,M,39.63,K8A0 071555Z AUTO 09008KT 10SM BKN033 OVC038 07/02 A3016 RMK AO2
8A0,1/7/16 16:15,46.4,35.6,65.83,100,7,0.0,30.15,M,10.0,M,SCT,OVC,M,M,3600,6000,M,M,M,M,M,M,M,M,M,42.33,K8A0 071615Z AUTO 10007KT 089V149 10SM SCT036 OVC060 08/02 A3015 RMK AO2
8A0,1/7/16 16:35,46.4,35.6,65.83,100,9,0.0,30.14,M,10.0,M,BKN,M,M,M,6000,M,M,M,M,M,M,M,M,M,M,41.42,K8A0 071635Z AUTO 10009KT 069V139 10SM BKN060 08/02 A3014 RMK AO2
8A0,1/7/16 16:55,50.0,37.4,61.76,90,6,0.0,30.13,M,10.0,M,SCT,BKN,M,M,3300,6000,M,M,M,M,M,M,M,M,M,47.21,K8A0 071655Z AUTO 09006KT 10SM SCT033 BKN060 10/03 A3013 RMK AO2
8A0,1/7/16 17:15,48.2,37.4,66.05,100,6,0.0,30.12,M,10.0,M,SCT,BKN,M,M,4800,6000,M,M,M,M,M,M,M,M,M,45.04,K8A0 071715Z AUTO 10006KT 10SM SCT048 BKN060 09/03 A3012 RMK AO2
8A0,1/7/16 17:35,51.8,41.0,66.48,100,6,0.0,30.1,M,10.0,M,SCT,SCT,OVC,M,3200,3900,6000,M,M,M,M,M,M,M,M,51.8,K8A0 071735Z AUTO 10006KT 10SM SCT032 SCT039 OVC060 11/05 A3010 RMK AO2
8A0,1/7/16 17:55,53.6,41.0,62.23,110,7,0.0,30.08,M,10.0,M,BKN,BKN,OVC,M,2800,3300,6000,M,M,M,M,M,M,M,M,53.6,K8A0 071755Z AUTO 11007KT 059V129 10SM BKN028 BKN033 OVC060 12/05 A3008 RMK AO2
8A0,1/7/16 18:15,53.6,42.8,66.7,100,6,0.0,30.06,M,10.0,M,SCT,SCT,SCT,M,2800,3400,11000,M,M,M,M,M,M,M,M,53.6,K8A0 071815Z AUTO 10006KT 10SM SCT028 SCT034 SCT110 12/06 A3006 RMK AO2
8A0,1/7/16 18:35,53.6,42.8,66.7,110,4,0.0,30.04,M,10.0,M,SCT,SCT,M,M,3300,6000,M,M,M,M,M,M,M,M,M,53.6,K8A0 071835Z AUTO 11004KT 10SM SCT033 SCT060 12/06 A3004 RMK AO2
8A0,1/7/16 18:55,53.6,42.8,66.7,100,3,0.0,30.03,M,10.0,M,SCT,SCT,M,M,3300,6000,M,M,M,M,M,M,M,M,M,53.6,K8A0 071855Z AUTO 10003KT 10SM SCT033 SCT060 12/06 A3003 RMK AO2
8A0,1/7/16 19:15,53.6,42.8,66.7,100,7,0.0,30.02,M,10.0,M,SCT,M,M,M,6500,M,M,M,M,M,M,M,M,M,M,53.6,K8A0 071915Z AUTO 10007KT 10SM SCT065 12/06 A3002 RMK AO2
8A0,1/7/16 19:35,53.6,42.8,66.7,120,5,0.0,30.01,M,10.0,M,SCT,M,M,M,6500,M,M,M,M,M,M,M,M,M,M,53.6,K8A0 071935Z AUTO 12005KT 10SM SCT065 12/06 A3001 RMK AO2
8A0,1/7/16 19:55,53.6,42.8,66.7,100,5,0.0,30.0,M,10.0,M,BKN,M,M,M,6500,M,M,M,M,M,M,M,M,M,M,53.6,K8A0 071955Z AUTO 10005KT 10SM BKN065 12/06 A3000 RMK AO2
8A0,1/7/16 20:15,53.6,42.8,66.7,100,4,0.0,30.01,M,10.0,M,OVC,M,M,M,6500,M,M,M,M,M,M,M,M,M,M,53.6,K8A0 072015Z AUTO 10004KT 10SM OVC065 12/06 A3001 RMK AO2
8A0,1/7/16 20:35,53.6,42.8,66.7,120,7,0.0,30.0,M,10.0,M,OVC,M,M,M,6500,M,M,M,M,M,M,M,M,M,M,53.6,K8A0 072035Z AUTO 12007KT 10SM OVC065 12/06 A3000 RMK AO2
8A0,1/7/16 20:55,53.6,42.8,66.7,100,5,0.0,30.0,M,10.0,M,OVC,M,M,M,5500,M,M,M,M,M,M,M,M,M,M,53.6,K8A0 072055Z AUTO 10005KT 10SM OVC055 12/06 A3000 RMK AO2
8A0,1/7/16 21:15,53.6,42.8,66.7,100,4,0.0,30.0,M,10.0,M,SCT,OVC,M,M,4300,5000,M,M,M,M,M,M,M,M,M,53.6,K8A0 072115Z AUTO 10004KT 10SM SCT043 OVC050 12/06 A3000 RMK AO2
8A0,1/7/16 21:35,53.6,42.8,66.7,90,4,0.0,29.98,M,10.0,M,SCT,OVC,M,M,4300,5000,M,M,M,M,M,M,M,M,M,53.6,K8A0 072135Z AUTO 09004KT 10SM SCT043 OVC050 12/06 A2998 RMK AO2
8A0,1/7/16 21:55,53.6,42.8,66.7,110,3,0.0,29.98,M,10.0,M,OVC,M,M,M,5000,M,M,M,M,M,M,M,M,M,M,53.6,K8A0 072155Z AUTO 11003KT 10SM OVC050 12/06 A2998 RMK AO2
8A0,1/7/16 22:15,53.6,44.6,71.45,100,6,0.0,29.97,M,10.0,M,OVC,M,M,M,4600,M,M,M,M,M,M,M,M,M,M,53.6,K8A0 072215Z AUTO 10006KT 10SM OVC046 12/07 A2997 RMK AO2
8A0,1/7/16 22:35,53.6,42.8,66.7,100,6,0.0,29.97,M,10.0,M,SCT,BKN,BKN,M,3600,4400,5500,M,M,M,M,M,M,M,M,53.6,K8A0 072235Z AUTO 10006KT 10SM SCT036 BKN044 BKN055 12/06 A2997 RMK AO2
8A0,1/7/16 22:55,51.8,44.6,76.34,100,5,0.0,29.98,M,10.0,M,SCT,M,M,M,5500,M,M,M,M,M,M,M,M,M,M,51.8,K8A0 072255Z AUTO 10005KT 10SM SCT055 11/07 A2998 RMK AO2
8A0,1/7/16 23:15,51.8,44.6,76.34,90,6,0.0,29.98,M,10.0,M,SCT,M,M,M,2800,M,M,M,M,M,M,M,M,M,M,51.8,K8A0 072315Z AUTO 09006KT 10SM SCT028 11/07 A2998 RMK AO2
8A0,1/7/16 23:35,51.8,44.6,76.34,90,5,0.0,29.98,M,10.0,M,BKN,M,M,M,3000,M,M,M,M,M,M,M,M,M,M,51.8,K8A0 072335Z AUTO 09005KT 10SM BKN030 11/07 A2998 RMK AO2
8A0,1/7/16 23:55,51.8,44.6,76.34,90,6,0.0,29.98,M,10.0,M,OVC,M,M,M,2800,M,M,M,M,M,M,M,M,M,M,51.8,K8A0 072355Z AUTO 09006KT 10SM OVC028 11/07 A2998 RMK AO2
8A0,1/8/16 0:15,51.8,44.6,76.34,100,5,0.0,29.98,M,10.0,M,SCT,SCT,M,M,2800,12000,M,M,M,M,M,M,M,M,M,51.8,K8A0 080015Z AUTO 10005KT 10SM SCT028 SCT120 11/07 A2998 RMK AO2
8A0,1/8/16 0:35,51.8,46.4,81.74,110,3,0.0,29.99,M,10.0,M,BKN,M,M,M,2600,M,M,M,M,M,M,M,M,M,M,51.8,K8A0 080035Z AUTO 11003KT 10SM BKN026 11/08 A2999 RMK AO2
8A0,1/8/16 0:55,51.8,46.4,81.74,120,3,0.0,29.99,M,10.0,M,BKN,BKN,M,M,2600,3100,M,M,M,M,M,M,M,M,M,51.8,K8A0 080055Z AUTO 12003KT 10SM BKN026 BKN031 11/08 A2999 RMK AO2
8A0,1/8/16 1:15,53.6,48.2,81.87,120,4,0.0,29.99,M,10.0,M,SCT,SCT,M,M,3100,12000,M,M,M,M,M,M,M,M,M,53.6,K8A0 080115Z AUTO 12004KT 10SM SCT031 SCT120 12/09 A2999 RMK AO2
8A0,1/8/16 1:35,53.6,50.0,87.56,120,6,0.0,29.99,M,10.0,M,BKN,BKN,M,M,3100,11000,M,M,M,M,M,M,M,M,M,53.6,K8A0 080135Z AUTO 12006KT 089V149 10SM BKN031 BKN110 12/10 A2999 RMK AO2
8A0,1/8/16 1:55,51.8,50.0,93.55,110,6,0.0,29.99,M,10.0,M,SCT,OVC,M,M,3300,11000,M,M,M,M,M,M,M,M,M,51.8,K8A0 080155Z AUTO 11006KT 10SM SCT033 OVC110 11/10 A2999 RMK AO2
8A0,1/8/16 2:15,53.6,50.0,87.56,120,7,0.0,29.98,M,10.0,M,SCT,OVC,M,M,3300,10000,M,M,M,M,M,M,M,M,M,53.6,K8A0 080215Z AUTO 12007KT 089V149 10SM SCT033 OVC100 12/10 A2998 RMK AO2
8A0,1/8/16 2:35,53.6,50.0,87.56,110,5,0.0,29.98,M,10.0,M,SCT,OVC,M,M,2900,9000,M,M,M,M,M,M,M,M,M,53.6,K8A0 080235Z AUTO 11005KT 10SM SCT029 OVC090 12/10 A2998 RMK AO2
8A0,1/8/16 2:55,51.8,50.0,93.55,110,4,0.0,29.98,M,10.0,M,SCT,OVC,M,M,2800,9000,M,M,M,M,M,M,M,M,M,51.8,K8A0 080255Z AUTO 11004KT 10SM SCT028 OVC090 11/10 A2998 RMK AO2
8A0,1/8/16 3:15,51.8,50.0,93.55,110,4,0.0,29.97,M,10.0,M,OVC,M,M,M,10000,M,M,M,M,M,M,M,M,M,M,51.8,K8A0 080315Z AUTO 11004KT 10SM OVC100 11/10 A2997 RMK AO2
8A0,1/8/16 3:35,51.8,50.0,93.55,120,4,0.0,29.97,M,10.0,M,OVC,M,M,M,10000,M,M,M,M,M,M,M,M,M,M,51.8,K8A0 080335Z AUTO 12004KT 10SM OVC100 11/10 A2997 RMK AO2
8A0,1/8/16 3:55,51.8,50.0,93.55,120,4,0.0,29.98,M,10.0,M,SCT,OVC,M,M,4100,10000,M,M,M,M,M,M,M,M,M,51.8,K8A0 080355Z AUTO 12004KT 10SM SCT041 OVC100 11/10 A2998 RMK AO2
8A0,1/8/16 4:15,51.8,51.8,100.0,120,5,0.0,29.97,M,10.0,M,SCT,BKN,OVC,M,3100,4400,10000,M,#NAME?,M,M,M,M,M,M,51.8,K8A0 080415Z AUTO 12005KT 10SM -RA SCT031 BKN044 OVC100 11/11 A2997 RMK AO2
8A0,1/8/16 4:35,51.8,51.8,100.0,110,5,0.0,29.97,M,10.0,M,SCT,BKN,OVC,M,3100,7000,8000,M,RA,M,M,M,M,M,M,51.8,K8A0 080435Z AUTO 11005KT 10SM RA SCT031 BKN070 OVC080 11/11 A2997 RMK AO2
8A0,1/8/16 4:55,51.8,51.8,100.0,110,4,0.0,29.96,M,10.0,M,BKN,OVC,M,M,6500,8500,M,M,#NAME?,M,M,M,M,M,M,51.8,K8A0 080455Z AUTO 11004KT 10SM -DZ BKN065 OVC085 11/11 A2996 RMK AO2
8A0,1/8/16 5:15,51.8,51.8,100.0,110,6,0.0,29.95,M,10.0,M,OVC,M,M,M,8500,M,M,M,M,M,M,M,M,M,M,51.8,K8A0 080515Z AUTO 11006KT 10SM OVC085 11/11 A2995 RMK AO2
8A0,1/8/16 5:35,51.8,51.8,100.0,120,9,0.0,29.95,M,10.0,M,SCT,BKN,OVC,M,1900,7500,9000,M,M,M,M,M,M,M,M,51.8,K8A0 080535Z AUTO 12009KT 10SM SCT019 BKN075 OVC090 11/11 A2995 RMK AO2
8A0,1/8/16 5:55,51.8,51.8,100.0,110,6,0.0,29.94,M,10.0,M,SCT,OVC,M,M,1900,7500,M,M,M,M,M,M,M,M,M,51.8,K8A0 080555Z AUTO 11006KT 10SM SCT019 OVC075 11/11 A2994 RMK AO2
8A0,1/8/16 6:15,51.8,51.8,100.0,130,6,0.0,29.94,M,10.0,M,SCT,BKN,OVC,M,1700,7000,8500,M,M,M,M,M,M,M,M,51.8,K8A0 080615Z AUTO 13006KT 10SM SCT017 BKN070 OVC085 11/11 A2994 RMK AO2
8A0,1/8/16 6:35,51.8,51.8,100.0,140,6,0.0,29.95,M,7.0,M,SCT,BKN,OVC,M,1800,7000,8500,M,RA,M,M,M,M,M,M,51.8,K8A0 080635Z AUTO 14006KT 7SM RA SCT018 BKN070 OVC085 11/11 A2995 RMK AO2
8A0,1/8/16 6:55,50.0,50.0,100.0,120,5,0.01,29.94,M,10.0,M,BKN,BKN,OVC,M,1800,4300,6000,M,#NAME?,M,M,M,M,M,M,47.77,K8A0 080655Z AUTO 12005KT 10SM -RA BKN018 BKN043 OVC060 10/10 A2994 RMK AO2 P0001
8A0,1/8/16 7:15,50.0,50.0,100.0,120,4,0.0,29.94,M,10.0,M,OVC,M,M,M,1800,M,M,M,#NAME?,M,M,M,M,M,M,48.44,K8A0 080715Z AUTO 12004KT 10SM -DZ OVC018 10/10 A2994 RMK AO2
8A0,1/8/16 7:35,50.0,50.0,100.0,120,3,0.0,29.94,M,10.0,M,OVC,M,M,M,1600,M,M,M,M,M,M,M,M,M,M,49.27,K8A0 080735Z AUTO 12003KT 10SM OVC016 10/10 A2994 RMK AO2
8A0,1/8/16 7:55,50.0,50.0,100.0,120,4,0.0,29.94,M,10.0,M,OVC,M,M,M,1400,M,M,M,M,M,M,M,M,M,M,48.44,K8A0 080755Z AUTO 12004KT 10SM OVC014 10/10 A2994 RMK AO2
8A0,1/8/16 8:15,50.0,50.0,100.0,130,3,0.0,29.94,M,10.0,M,OVC,M,M,M,1400,M,M,M,#NAME?,M,M,M,M,M,M,49.27,K8A0 080815Z AUTO 13003KT 10SM -RA OVC014 10/10 A2994 RMK AO2
8A0,1/8/16 8:35,50.0,50.0,100.0,150,5,0.0,29.94,M,10.0,M,BKN,OVC,M,M,1400,2600,M,M,M,M,M,M,M,M,M,47.77,K8A0 080835Z AUTO 15005KT 10SM BKN014 OVC026 10/10 A2994 RMK AO2
8A0,1/8/16 8:55,50.0,50.0,100.0,150,5,0.0,29.95,M,10.0,M,SCT,BKN,OVC,M,900,1600,2100,M,M,M,M,M,M,M,M,47.77,K8A0 080855Z AUTO 15005KT 10SM SCT009 BKN016 OVC021 10/10 A2995 RMK AO2
8A0,1/8/16 9:15,50.0,50.0,100.0,150,6,0.0,29.94,M,10.0,M,SCT,BKN,OVC,M,900,1300,1900,M,M,M,M,M,M,M,M,47.21,K8A0 080915Z AUTO 15006KT 10SM SCT009 BKN013 OVC019 10/10 A2994 RMK AO2
8A0,1/8/16 9:35,50.0,50.0,100.0,130,7,0.0,29.94,M,10.0,M,OVC,M,M,M,1100,M,M,M,M,M,M,M,M,M,M,46.72,K8A0 080935Z AUTO 13007KT 10SM OVC011 10/10 A2994 RMK AO2
8A0,1/8/16 9:55,50.0,50.0,100.0,140,4,0.0,29.94,M,10.0,M,OVC,M,M,M,900,M,M,M,M,M,M,M,M,M,M,48.44,K8A0 080955Z AUTO 14004KT 10SM OVC009 10/10 A2994 RMK AO2
8A0,1/8/16 10:15,51.8,51.8,100.0,150,3,0.0,29.94,M,10.0,M,OVC,M,M,M,900,M,M,M,M,M,M,M,M,M,M,51.8,K8A0 081015Z AUTO 15003KT 10SM OVC009 11/11 A2994 RMK AO2
8A0,1/8/16 10:35,51.8,51.8,100.0,140,5,0.0,29.93,M,10.0,M,OVC,M,M,M,900,M,M,M,M,M,M,M,M,M,M,51.8,K8A0 081035Z AUTO 14005KT 10SM OVC009 11/11 A2993 RMK AO2
8A0,1/8/16 10:55,51.8,51.8,100.0,140,6,0.0,29.93,M,10.0,M,OVC,M,M,M,900,M,M,M,M,M,M,M,M,M,M,51.8,K8A0 081055Z AUTO 14006KT 10SM OVC009 11/11 A2993 RMK AO2
8A0,1/8/16 11:15,50.0,50.0,100.0,140,5,0.0,29.93,M,10.0,M,OVC,M,M,M,900,M,M,M,M,M,M,M,M,M,M,47.77,K8A0 081115Z AUTO 14005KT 10SM OVC009 10/10 A2993 RMK AO2
8A0,1/8/16 11:35,50.0,50.0,100.0,140,4,0.0,29.94,M,10.0,M,OVC,M,M,M,900,M,M,M,M,M,M,M,M,M,M,48.44,K8A0 081135Z AUTO 14004KT 10SM OVC009 10/10 A2994 RMK AO2
8A0,1/8/16 11:55,50.0,50.0,100.0,130,3,0.0,29.95,M,10.0,M,OVC,M,M,M,900,M,M,M,M,M,M,M,M,M,M,49.27,K8A0 081155Z AUTO 13003KT 10SM OVC009 10/10 A2995 RMK AO2
8A0,1/8/16 12:15,50.0,50.0,100.0,170,3,0.0,29.95,M,10.0,M,OVC,M,M,M,700,M,M,M,M,M,M,M,M,M,M,49.27,K8A0 081215Z AUTO 17003KT 10SM OVC007 10/10 A2995 RMK AO2
8A0,1/8/16 12:35,50.0,50.0,100.0,150,3,0.0,29.96,M,10.0,M,OVC,M,M,M,700,M,M,M,M,M,M,M,M,M,M,49.27,K8A0 081235Z AUTO 15003KT 10SM OVC007 10/10 A2996 RMK AO2
8A0,1/8/16 12:55,50.0,50.0,100.0,130,3,0.0,29.96,M,10.0,M,OVC,M,M,M,700,M,M,M,M,M,M,M,M,M,M,49.27,K8A0 081255Z AUTO 13003KT 10SM OVC007 10/10 A2996 RMK AO2
8A0,1/8/16 13:15,50.0,50.0,100.0,0,0,0.0,29.96,M,7.0,M,OVC,M,M,M,500,M,M,M,M,M,M,M,M,M,M,50.0,K8A0 081315Z AUTO 00000KT 7SM OVC005 10/10 A2996 RMK AO2
8A0,1/8/16 13:35,50.0,50.0,100.0,130,8,0.0,29.96,M,7.0,M,OVC,M,M,M,500,M,M,M,M,M,M,M,M,M,M,46.29,K8A0 081335Z AUTO 13008KT 7SM OVC005 10/10 A2996 RMK AO2
8A0,1/8/16 13:55,50.0,50.0,100.0,120,5,0.0,29.97,M,7.0,M,OVC,M,M,M,500,M,M,M,M,M,M,M,M,M,M,47.77,K8A0 081355Z AUTO 12005KT 7SM OVC005 10/10 A2997 RMK AO2
8A0,1/8/16 14:15,50.0,50.0,100.0,110,4,0.0,29.98,M,10.0,M,OVC,M,M,M,500,M,M,M,M,M,M,M,M,M,M,48.44,K8A0 081415Z AUTO 11004KT 10SM OVC005 10/10 A2998 RMK AO2
8A0,1/8/16 14:35,50.0,50.0,100.0,120,5,0.0,29.98,M,10.0,M,OVC,M,M,M,500,M,M,M,M,M,M,M,M,M,M,47.77,K8A0 081435Z AUTO 12005KT 10SM OVC005 10/10 A2998 RMK AO2
8A0,1/8/16 14:55,50.0,50.0,100.0,110,5,0.0,29.99,M,10.0,M,OVC,M,M,M,500,M,M,M,M,M,M,M,M,M,M,47.77,K8A0 081455Z AUTO 11005KT 10SM OVC005 10/10 A2999 RMK AO2
8A0,1/8/16 15:15,50.0,50.0,100.0,130,4,0.0,29.99,M,10.0,M,OVC,M,M,M,500,M,M,M,M,M,M,M,M,M,M,48.44,K8A0 081515Z AUTO 13004KT 10SM OVC005 10/10 A2999 RMK AO2
8A0,1/8/16 15:35,50.0,50.0,100.0,130,8,0.0,29.99,M,10.0,M,OVC,M,M,M,500,M,M,M,M,M,M,M,M,M,M,46.29,K8A0 081535Z AUTO 13008KT 10SM OVC005 10/10 A2999 RMK AO2
8A0,1/8/16 15:55,50.0,50.0,100.0,150,4,0.0,30.0,M,10.0,M,OVC,M,M,M,500,M,M,M,M,M,M,M,M,M,M,48.44,K8A0 081555Z AUTO 15004KT 10SM OVC005 10/10 A3000 RMK AO2
8A0,1/8/16 16:15,51.8,51.8,100.0,150,5,0.0,30.0,M,10.0,M,OVC,M,M,M,500,M,M,M,M,M,M,M,M,M,M,51.8,K8A0 081615Z AUTO 15005KT 10SM OVC005 11/11 A3000 RMK AO2
8A0,1/8/16 16:35,51.8,51.8,100.0,150,5,0.0,29.99,M,10.0,M,OVC,M,M,M,500,M,M,M,M,M,M,M,M,M,M,51.8,K8A0 081635Z AUTO 15005KT 10SM OVC005 11/11 A2999 RMK AO2
8A0,1/8/16 16:55,51.8,51.8,100.0,140,6,0.0,29.98,M,10.0,M,OVC,M,M,M,500,M,M,M,M,M,M,M,M,M,M,51.8,K8A0 081655Z AUTO 14006KT 10SM OVC005 11/11 A2998 RMK AO2
8A0,1/8/16 17:15,51.8,51.8,100.0,160,8,0.0,29.97,M,10.0,M,OVC,M,M,M,500,M,M,M,M,M,M,M,M,M,M,51.8,K8A0 081715Z AUTO 16008KT 10SM OVC005 11/11 A2997 RMK AO2
8A0,1/8/16 17:35,51.8,51.8,100.0,140,4,0.0,29.97,M,10.0,M,OVC,M,M,M,700,M,M,M,M,M,M,M,M,M,M,51.8,K8A0 081735Z AUTO 14004KT 10SM OVC007 11/11 A2997 RMK AO2
8A0,1/8/16 17:55,51.8,51.8,100.0,150,7,0.0,29.95,M,10.0,M,OVC,M,M,M,700,M,M,M,M,M,M,M,M,M,M,51.8,K8A0 081755Z AUTO 15007KT 10SM OVC007 11/11 A2995 RMK AO2
8A0,1/8/16 18:15,53.6,53.6,100.0,160,4,0.0,29.95,M,10.0,M,OVC,M,M,M,700,M,M,M,M,M,M,M,M,M,M,53.6,K8A0 081815Z AUTO 16004KT 10SM OVC007 12/12 A2995 RMK AO2
8A0,1/8/16 18:35,51.8,51.8,100.0,130,5,0.0,29.94,M,10.0,M,OVC,M,M,M,700,M,M,M,M,M,M,M,M,M,M,51.8,K8A0 081835Z AUTO 13005KT 10SM OVC007 11/11 A2994 RMK AO2
8A0,1/8/16 18:55,53.6,53.6,100.0,140,6,0.0,29.93,M,10.0,M,OVC,M,M,M,700,M,M,M,M,M,M,M,M,M,M,53.6,K8A0 081855Z AUTO 14006KT 10SM OVC007 12/12 A2993 RMK AO2
8A0,1/8/16 19:15,53.6,53.6,100.0,150,6,0.0,29.93,M,10.0,M,BKN,OVC,M,M,700,1200,M,M,M,M,M,M,M,M,M,53.6,K8A0 081915Z AUTO 15006KT 10SM BKN007 OVC012 12/12 A2993 RMK AO2
8A0,1/8/16 19:35,53.6,53.6,100.0,160,7,0.0,29.92,M,10.0,M,BKN,OVC,M,M,700,1200,M,M,M,M,M,M,M,M,M,53.6,K8A0 081935Z AUTO 16007KT 10SM BKN007 OVC012 12/12 A2992 RMK AO2
8A0,1/8/16 19:55,53.6,53.6,100.0,150,5,0.0,29.92,M,10.0,M,OVC,M,M,M,900,M,M,M,M,M,M,M,M,M,M,53.6,K8A0 081955Z AUTO 15005KT 10SM OVC009 12/12 A2992 RMK AO2
8A0,1/8/16 20:15,53.6,53.6,100.0,180,6,0.0,29.92,M,10.0,M,OVC,M,M,M,1100,M,M,M,M,M,M,M,M,M,M,53.6,K8A0 082015Z AUTO 18006KT 10SM OVC011 12/12 A2992 RMK AO2
8A0,1/8/16 20:35,53.6,53.6,100.0,160,4,0.0,29.92,M,10.0,M,BKN,OVC,M,M,1200,1800,M,M,M,M,M,M,M,M,M,53.6,K8A0 082035Z AUTO 16004KT 10SM BKN012 OVC018 12/12 A2992 RMK AO2
8A0,1/8/16 20:55,53.6,53.6,100.0,150,6,0.0,29.93,M,10.0,M,SCT,OVC,M,M,1200,1800,M,M,M,M,M,M,M,M,M,53.6,K8A0 082055Z AUTO 15006KT 10SM SCT012 OVC018 12/12 A2993 RMK AO2
8A0,1/8/16 21:15,53.6,53.6,100.0,140,5,0.0,29.93,M,10.0,M,OVC,M,M,M,1800,M,M,M,M,M,M,M,M,M,M,53.6,K8A0 082115Z AUTO 14005KT 10SM OVC018 12/12 A2993 RMK AO2
8A0,1/8/16 21:35,53.6,53.6,100.0,140,3,0.0,29.92,M,10.0,M,OVC,M,M,M,2000,M,M,M,M,M,M,M,M,M,M,53.6,K8A0 082135Z AUTO 14003KT 10SM OVC020 12/12 A2992 RMK AO2
8A0,1/8/16 21:55,53.6,53.6,100.0,140,4,0.0,29.92,M,10.0,M,OVC,M,M,M,2200,M,M,M,M,M,M,M,M,M,M,53.6,K8A0 082155Z AUTO 14004KT 10SM OVC022 12/12 A2992 RMK AO2
8A0,1/8/16 22:15,53.6,53.6,100.0,130,4,0.0,29.92,M,10.0,M,OVC,M,M,M,2200,M,M,M,M,M,M,M,M,M,M,53.6,K8A0 082215Z AUTO 13004KT 10SM OVC022 12/12 A2992 RMK AO2
8A0,1/8/16 22:35,53.6,53.6,100.0,110,3,0.0,29.93,M,10.0,M,OVC,M,M,M,2200,M,M,M,M,M,M,M,M,M,M,53.6,K8A0 082235Z AUTO 11003KT 10SM OVC022 12/12 A2993 RMK AO2
8A0,1/8/16 22:55,53.6,53.6,100.0,110,3,0.0,29.94,M,10.0,M,OVC,M,M,M,2200,M,M,M,M,M,M,M,M,M,M,53.6,K8A0 082255Z AUTO 11003KT 10SM OVC022 12/12 A2994 RMK AO2
8A0,1/8/16 23:15,53.6,53.6,100.0,110,3,0.0,29.94,M,10.0,M,OVC,M,M,M,2200,M,M,M,M,M,M,M,M,M,M,53.6,K8A0 082315Z AUTO 11003KT 10SM OVC022 12/12 A2994 RMK AO2
8A0,1/8/16 23:35,53.6,53.6,100.0,120,4,0.0,29.94,M,10.0,M,OVC,M,M,M,2200,M,M,M,M,M,M,M,M,M,M,53.6,K8A0 082335Z AUTO 12004KT 10SM OVC022 12/12 A2994 RMK AO2
8A0,1/8/16 23:55,51.8,51.8,100.0,0,0,0.0,29.95,M,10.0,M,OVC,M,M,M,2200,M,M,M,M,M,M,M,M,M,M,51.8,K8A0 082355Z AUTO 00000KT 10SM OVC022 11/11 A2995 RMK AO2
8A0,1/9/16 0:15,51.8,51.8,100.0,100,3,0.0,29.96,M,10.0,M,OVC,M,M,M,2400,M,M,M,M,M,M,M,M,M,M,51.8,K8A0 090015Z AUTO 10003KT 10SM OVC024 11/11 A2996 RMK AO2
8A0,1/9/16 0:35,51.8,51.8,100.0,120,3,0.0,29.95,M,10.0,M,OVC,M,M,M,2400,M,M,M,M,M,M,M,M,M,M,51.8,K8A0 090035Z AUTO 12003KT 10SM OVC024 11/11 A2995 RMK AO2
8A0,1/9/16 0:55,51.8,51.8,100.0,120,5,0.0,29.95,M,10.0,M,OVC,M,M,M,2400,M,M,M,M,M,M,M,M,M,M,51.8,K8A0 090055Z AUTO 12005KT 10SM OVC024 11/11 A2995 RMK AO2
8A0,1/9/16 1:15,51.8,51.8,100.0,120,4,0.0,29.96,M,10.0,M,OVC,M,M,M,2400,M,M,M,M,M,M,M,M,M,M,51.8,K8A0 090115Z AUTO 12004KT 10SM OVC024 11/11 A2996 RMK AO2
8A0,1/9/16 1:35,51.8,51.8,100.0,130,5,0.0,29.96,M,10.0,M,OVC,M,M,M,2400,M,M,M,M,M,M,M,M,M,M,51.8,K8A0 090135Z AUTO 13005KT 10SM OVC024 11/11 A2996 RMK AO2
8A0,1/9/16 1:55,51.8,51.8,100.0,120,4,0.0,29.96,M,10.0,M,OVC,M,M,M,2200,M,M,M,M,M,M,M,M,M,M,51.8,K8A0 090155Z AUTO 12004KT 10SM OVC022 11/11 A2996 RMK AO2
8A0,1/9/16 2:15,50.0,50.0,100.0,120,4,0.0,29.95,M,10.0,M,SCT,M,M,M,2200,M,M,M,M,M,M,M,M,M,M,48.44,K8A0 090215Z AUTO 12004KT 10SM SCT022 10/10 A2995 RMK AO2
8A0,1/9/16 2:35,50.0,50.0,100.0,130,4,0.0,29.96,M,10.0,M,SCT,M,M,M,2000,M,M,M,M,M,M,M,M,M,M,48.44,K8A0 090235Z AUTO 13004KT 10SM SCT020 10/10 A2996 RMK AO2
8A0,1/9/16 2:55,50.0,50.0,100.0,130,4,0.0,29.97,M,10.0,M,SCT,M,M,M,2000,M,M,M,M,M,M,M,M,M,M,48.44,K8A0 090255Z AUTO 13004KT 10SM SCT020 10/10 A2997 RMK AO2
8A0,1/9/16 3:15,48.2,48.2,100.0,120,3,0.0,29.96,M,10.0,M,CLR,M,M,M,M,M,M,M,M,M,M,M,M,M,M,47.21,K8A0 090315Z AUTO 12003KT 10SM CLR 09/09 A2996 RMK AO2
8A0,1/9/16 3:35,48.2,48.2,100.0,130,4,0.0,29.96,M,10.0,M,CLR,M,M,M,M,M,M,M,M,M,M,M,M,M,M,46.34,K8A0 090335Z AUTO 13004KT 10SM CLR 09/09 A2996 RMK AO2
8A0,1/9/16 3:55,48.2,48.2,100.0,120,3,0.0,29.95,M,10.0,M,CLR,M,M,M,M,M,M,M,M,M,M,M,M,M,M,47.21,K8A0 090355Z AUTO 12003KT 10SM CLR 09/09 A2995 RMK AO2
8A0,1/9/16 4:15,48.2,48.2,100.0,120,5,0.0,29.94,M,10.0,M,CLR,M,M,M,M,M,M,M,M,M,M,M,M,M,M,45.63,K8A0 090415Z AUTO 12005KT 10SM CLR 09/09 A2994 RMK AO2
8A0,1/9/16 4:35,48.2,48.2,100.0,110,3,0.0,29.94,M,10.0,M,CLR,M,M,M,M,M,M,M,M,M,M,M,M,M,M,47.21,K8A0 090435Z AUTO 11003KT 10SM CLR 09/09 A2994 RMK AO2
8A0,1/9/16 4:55,48.2,48.2,100.0,100,4,0.0,29.95,M,10.0,M,CLR,M,M,M,M,M,M,M,M,M,M,M,M,M,M,46.34,K8A0 090455Z AUTO 10004KT 10SM CLR 09/09 A2995 RMK AO2
8A0,1/9/16 5:15,48.2,48.2,100.0,120,4,0.0,29.94,M,10.0,M,CLR,M,M,M,M,M,M,M,M,M,M,M,M,M,M,46.34,K8A0 090515Z AUTO 12004KT 10SM CLR 09/09 A2994 RMK AO2
8A0,1/9/16 5:35,48.2,48.2,100.0,110,3,0.0,29.93,M,10.0,M,CLR,M,M,M,M,M,M,M,M,M,M,M,M,M,M,47.21,K8A0 090535Z AUTO 11003KT 10SM CLR 09/09 A2993 RMK AO2
8A0,1/9/16 5:55,48.2,48.2,100.0,110,5,0.0,29.93,M,10.0,M,CLR,M,M,M,M,M,M,M,M,M,M,M,M,M,M,45.63,K8A0 090555Z AUTO 11005KT 10SM CLR 09/09 A2993 RMK AO2
8A0,1/9/16 6:15,48.2,48.2,100.0,100,4,0.0,29.92,M,10.0,M,CLR,M,M,M,M,M,M,M,M,M,M,M,M,M,M,46.34,K8A0 090615Z AUTO 10004KT 10SM CLR 09/09 A2992 RMK AO2
8A0,1/9/16 6:35,48.2,48.2,100.0,100,5,0.0,29.92,M,10.0,M,CLR,M,M,M,M,M,M,M,M,M,M,M,M,M,M,45.63,K8A0 090635Z AUTO 10005KT 10SM CLR 09/09 A2992 RMK AO2
8A0,1/9/16 6:55,48.2,48.2,100.0,120,5,0.0,29.91,M,10.0,M,CLR,M,M,M,M,M,M,M,M,M,M,M,M,M,M,45.63,K8A0 090655Z AUTO 12005KT 10SM CLR 09/09 A2991 RMK AO2
8A0,1/9/16 7:15,48.2,48.2,100.0,130,5,0.0,29.92,M,10.0,M,SCT,M,M,M,1300,M,M,M,M,M,M,M,M,M,M,45.63,K8A0 090715Z AUTO 13005KT 10SM SCT013 09/09 A2992 RMK AO2
8A0,1/9/16 7:35,50.0,50.0,100.0,120,5,0.0,29.92,M,10.0,M,SCT,SCT,M,M,700,1300,M,M,M,M,M,M,M,M,M,47.77,K8A0 090735Z AUTO 12005KT 10SM SCT007 SCT013 10/10 A2992 RMK AO2 LTG DSNT NW
8A0,1/9/16 7:55,48.2,48.2,100.0,100,5,0.0,29.91,M,7.0,M,SCT,SCT,M,M,700,1300,M,M,M,M,M,M,M,M,M,45.63,K8A0 090755Z AUTO 10005KT 7SM SCT007 SCT013 09/09 A2991 RMK AO2
8A0,1/9/16 8:15,48.2,48.2,100.0,120,6,0.0,29.9,M,7.0,M,SCT,SCT,M,M,900,1300,M,M,M,M,M,M,M,M,M,45.04,K8A0 090815Z AUTO 12006KT 7SM SCT009 SCT013 09/09 A2990 RMK AO2
8A0,1/9/16 8:35,48.2,48.2,100.0,120,5,0.0,29.9,M,7.0,M,SCT,M,M,M,900,M,M,M,M,M,M,M,M,M,M,45.63,K8A0 090835Z AUTO 12005KT 7SM SCT009 09/09 A2990 RMK AO2
8A0,1/9/16 8:55,50.0,50.0,100.0,110,4,0.0,29.91,M,7.0,M,BKN,M,M,M,1100,M,M,M,M,M,M,M,M,M,M,48.44,K8A0 090855Z AUTO 11004KT 7SM BKN011 10/10 A2991 RMK AO2
8A0,1/9/16 9:15,50.0,50.0,100.0,120,3,0.0,29.92,M,10.0,M,OVC,M,M,M,1300,M,M,M,M,M,M,M,M,M,M,49.27,K8A0 090915Z AUTO 12003KT 10SM OVC013 10/10 A2992 RMK AO2
8A0,1/9/16 9:35,50.0,50.0,100.0,0,0,0.0,29.92,M,10.0,M,SCT,OVC,M,M,900,1300,M,M,M,M,M,M,M,M,M,50.0,K8A0 090935Z AUTO 00000KT 10SM SCT009 OVC013 10/10 A2992 RMK AO2
8A0,1/9/16 9:55,50.0,50.0,100.0,90,5,0.0,29.9,M,10.0,M,SCT,OVC,M,M,900,1500,M,M,M,M,M,M,M,M,M,47.77,K8A0 090955Z AUTO 09005KT 10SM SCT009 OVC015 10/10 A2990 RMK AO2 LTG DSNT NW
8A0,1/9/16 10:15,50.0,50.0,100.0,110,4,0.0,29.9,M,10.0,M,OVC,M,M,M,1500,M,M,M,M,M,M,M,M,M,M,48.44,K8A0 091015Z AUTO 11004KT 10SM OVC015 10/10 A2990 RMK AO2
8A0,1/9/16 10:35,50.0,50.0,100.0,110,5,0.0,29.89,M,10.0,M,OVC,M,M,M,1500,M,M,M,M,M,M,M,M,M,M,47.77,K8A0 091035Z AUTO 11005KT 10SM OVC015 10/10 A2989 RMK AO2 LTG DSNT NW
8A0,1/9/16 10:55,50.0,50.0,100.0,110,4,0.0,29.9,M,7.0,M,OVC,M,M,M,1700,M,M,M,M,M,M,M,M,M,M,48.44,K8A0 091055Z AUTO 11004KT 7SM OVC017 10/10 A2990 RMK AO2 LTG DSNT NW
8A0,1/9/16 11:15,50.0,50.0,100.0,100,6,0.0,29.89,M,10.0,M,OVC,M,M,M,1700,M,M,M,M,M,M,M,M,M,M,47.21,K8A0 091115Z AUTO 10006KT 10SM OVC017 10/10 A2989 RMK AO2
8A0,1/9/16 11:35,50.0,50.0,100.0,100,4,0.0,29.9,M,10.0,M,OVC,M,M,M,1700,M,M,M,M,M,M,M,M,M,M,48.44,K8A0 091135Z AUTO 10004KT 10SM OVC017 10/10 A2990 RMK AO2
8A0,1/9/16 11:55,50.0,50.0,100.0,110,6,0.0,29.9,M,10.0,M,OVC,M,M,M,1700,M,M,M,M,M,M,M,M,M,M,47.21,K8A0 091155Z AUTO 11006KT 10SM OVC017 10/10 A2990 RMK AO2
8A0,1/9/16 12:15,48.2,48.2,100.0,90,7,0.0,29.87,M,10.0,M,SCT,OVC,M,M,800,1700,M,M,M,M,M,M,M,M,M,44.53,K8A0 091215Z AUTO 09007KT 10SM SCT008 OVC017 09/09 A2987 RMK AO2
8A0,1/9/16 12:35,50.0,50.0,100.0,120,3,0.0,29.91,M,10.0,M,SCT,OVC,M,M,800,1500,M,M,M,M,M,M,M,M,M,49.27,K8A0 091235Z AUTO 12003KT 10SM SCT008 OVC015 10/10 A2991 RMK AO2
8A0,1/9/16 12:55,50.0,50.0,100.0,130,5,0.0,29.92,M,10.0,M,OVC,M,M,M,1500,M,M,M,M,M,M,M,M,M,M,47.77,K8A0 091255Z AUTO 13005KT 10SM OVC015 10/10 A2992 RMK AO2
8A0,1/9/16 13:15,50.0,50.0,100.0,120,7,0.0,29.9,M,10.0,M,OVC,M,M,M,1500,M,M,M,M,M,M,M,M,M,M,46.72,K8A0 091315Z AUTO 12007KT 10SM OVC015 10/10 A2990 RMK AO2
8A0,1/9/16 13:35,50.0,50.0,100.0,120,7,0.0,29.9,M,10.0,M,OVC,M,M,M,1300,M,M,M,M,M,M,M,M,M,M,46.72,K8A0 091335Z AUTO 12007KT 10SM OVC013 10/10 A2990 RMK AO2
8A0,1/9/16 13:55,50.0,50.0,100.0,110,4,0.0,29.9,M,10.0,M,OVC,M,M,M,1100,M,M,M,M,M,M,M,M,M,M,48.44,K8A0 091355Z AUTO 11004KT 10SM OVC011 10/10 A2990 RMK AO2
8A0,1/9/16 14:15,50.0,50.0,100.0,110,6,0.0,29.9,M,10.0,M,OVC,M,M,M,900,M,M,M,M,M,M,M,M,M,M,47.21,K8A0 091415Z AUTO 11006KT 10SM OVC009 10/10 A2990 RMK AO2
8A0,1/9/16 14:35,50.0,50.0,100.0,110,3,0.0,29.91,M,10.0,M,OVC,M,M,M,900,M,M,M,M,M,M,M,M,M,M,49.27,K8A0 091435Z AUTO 11003KT 10SM OVC009 10/10 A2991 RMK AO2
8A0,1/9/16 14:55,50.0,50.0,100.0,120,5,0.0,29.9,M,7.0,M,OVC,M,M,M,700,M,M,M,M,M,M,M,M,M,M,47.77,K8A0 091455Z AUTO 12005KT 7SM OVC007 10/10 A2990 RMK AO2
8A0,1/9/16 15:15,50.0,50.0,100.0,140,5,0.0,29.89,M,5.0,M,OVC,M,M,M,700,M,M,M,BR,M,M,M,M,M,M,47.77,K8A0 091515Z AUTO 14005KT 5SM BR OVC007 10/10 A2989 RMK AO2
8A0,1/9/16 15:35,50.0,50.0,100.0,130,5,0.0,29.9,M,4.0,M,OVC,M,M,M,700,M,M,M,BR,M,M,M,M,M,M,47.77,K8A0 091535Z AUTO 13005KT 4SM BR OVC007 10/10 A2990 RMK AO2
8A0,1/9/16 15:55,50.0,50.0,100.0,140,7,0.0,29.9,M,10.0,M,OVC,M,M,M,700,M,M,M,M,M,M,M,M,M,M,46.72,K8A0 091555Z AUTO 14007KT 10SM OVC007 10/10 A2990 RMK AO2
8A0,1/9/16 16:15,50.0,50.0,100.0,140,6,0.0,29.89,M,10.0,M,OVC,M,M,M,900,M,M,M,M,M,M,M,M,M,M,47.21,K8A0 091615Z AUTO 14006KT 10SM OVC009 10/10 A2989 RMK AO2
8A0,1/9/16 16:35,50.0,50.0,100.0,140,7,0.0,29.88,M,4.0,M,OVC,M,M,M,900,M,M,M,BR,M,M,M,M,M,M,46.72,K8A0 091635Z AUTO 14007KT 119V179 4SM BR OVC009 10/10 A2988 RMK AO2
8A0,1/9/16 16:55,51.8,51.8,100.0,120,5,0.0,29.86,M,5.0,M,OVC,M,M,M,900,M,M,M,BR,M,M,M,M,M,M,51.8,K8A0 091655Z AUTO 12005KT 5SM BR OVC009 11/11 A2986 RMK AO2
8A0,1/9/16 17:15,51.8,51.8,100.0,110,5,0.0,29.83,M,10.0,M,OVC,M,M,M,900,M,M,M,M,M,M,M,M,M,M,51.8,K8A0 091715Z AUTO 11005KT 10SM OVC009 11/11 A2983 RMK AO2
8A0,1/9/16 17:35,51.8,51.8,100.0,110,6,0.0,29.82,M,10.0,M,OVC,M,M,M,700,M,M,M,M,M,M,M,M,M,M,51.8,K8A0 091735Z AUTO 11006KT 10SM OVC007 11/11 A2982 RMK AO2
8A0,1/9/16 17:55,51.8,51.8,100.0,140,5,0.0,29.81,M,10.0,M,OVC,M,M,M,900,M,M,M,M,M,M,M,M,M,M,51.8,K8A0 091755Z AUTO 14005KT 10SM OVC009 11/11 A2981 RMK AO2
8A0,1/9/16 18:15,51.8,51.8,100.0,130,6,0.0,29.79,M,10.0,M,BKN,OVC,M,M,900,1200,M,M,M,M,M,M,M,M,M,51.8,K8A0 091815Z AUTO 13006KT 10SM BKN009 OVC012 11/11 A2979 RMK AO2
8A0,1/9/16 18:35,51.8,51.8,100.0,130,7,0.0,29.77,M,10.0,M,OVC,M,M,M,900,M,M,M,M,M,M,M,M,M,M,51.8,K8A0 091835Z AUTO 13007KT 10SM OVC009 11/11 A2977 RMK AO2
8A0,1/9/16 18:55,51.8,51.8,100.0,130,8,0.0,29.76,M,10.0,M,OVC,M,M,M,900,M,M,M,M,M,M,M,M,M,M,51.8,K8A0 091855Z AUTO 13008KT 089V169 10SM OVC009 11/11 A2976 RMK AO2
8A0,1/9/16 19:15,51.8,51.8,100.0,140,6,0.0,29.74,M,10.0,M,OVC,M,M,M,1100,M,M,M,M,M,M,M,M,M,M,51.8,K8A0 091915Z AUTO 14006KT 10SM OVC011 11/11 A2974 RMK AO2
8A0,1/9/16 19:35,51.8,51.8,100.0,120,6,0.0,29.73,M,10.0,M,OVC,M,M,M,1100,M,M,M,#NAME?,M,M,M,M,M,M,51.8,K8A0 091935Z AUTO 12006KT 089V149 10SM -RA OVC011 11/11 A2973 RMK AO2
8A0,1/9/16 19:55,51.8,51.8,100.0,130,7,0.0,29.7,M,10.0,M,OVC,M,M,M,1100,M,M,M,M,M,M,M,M,M,M,51.8,K8A0 091955Z AUTO 13007KT 099V159 10SM OVC011 11/11 A2970 RMK AO2
8A0,1/9/16 20:15,51.8,51.8,100.0,120,10,0.0,29.69,M,10.0,16,BKN,BKN,OVC,M,1100,6000,8000,M,M,M,M,M,M,M,M,51.8,K8A0 092015Z AUTO 12010G16KT 079V159 10SM BKN011 BKN060 OVC080 11/11 A2969 RMK AO2
8A0,1/9/16 20:35,51.8,51.8,100.0,120,8,0.0,29.67,M,10.0,16,BKN,OVC,M,M,1100,7000,M,M,M,M,M,M,M,M,M,51.8,K8A0 092035Z AUTO 12008G16KT 079V139 10SM BKN011 OVC070 11/11 A2967 RMK AO2
8A0,1/9/16 20:55,51.8,51.8,100.0,130,7,0.0,29.69,M,10.0,M,SCT,OVC,M,M,1100,7000,M,M,M,M,M,M,M,M,M,51.8,K8A0 092055Z AUTO 13007KT 10SM SCT011 OVC070 11/11 A2969 RMK AO2
8A0,1/9/16 21:15,51.8,51.8,100.0,0,0,0.0,29.69,M,10.0,M,BKN,OVC,M,M,1100,7000,M,M,M,M,M,M,M,M,M,51.8,K8A0 092115Z AUTO 00000KT 10SM BKN011 OVC070 11/11 A2969 RMK AO2
8A0,1/9/16 21:35,51.8,51.8,100.0,120,7,0.0,29.67,M,10.0,M,OVC,M,M,M,1100,M,M,M,#NAME?,M,M,M,M,M,M,51.8,K8A0 092135Z AUTO 12007KT 10SM -RA OVC011 11/11 A2967 RMK AO2
8A0,1/9/16 21:55,51.8,51.8,100.0,110,6,0.0,29.67,M,10.0,M,OVC,M,M,M,1100,M,M,M,M,M,M,M,M,M,M,51.8,K8A0 092155Z AUTO 11006KT 10SM OVC011 11/11 A2967 RMK AO2
8A0,1/9/16 22:15,51.8,51.8,100.0,100,5,0.0,29.65,M,10.0,M,OVC,M,M,M,1100,M,M,M,M,M,M,M,M,M,M,51.8,K8A0 092215Z AUTO 10005KT 10SM OVC011 11/11 A2965 RMK AO2 LTG DSNT W
8A0,1/9/16 22:35,51.8,51.8,100.0,0,0,0.01,29.66,M,10.0,M,OVC,M,M,M,900,M,M,M,#NAME?,M,M,M,M,M,M,51.8,K8A0 092235Z AUTO 00000KT 10SM -RA OVC009 11/11 A2966 RMK AO2 P0001
8A0,1/9/16 22:55,51.8,51.8,100.0,0,0,0.02,29.65,M,7.0,M,OVC,M,M,M,900,M,M,M,#NAME?,M,M,M,M,M,M,51.8,K8A0 092255Z AUTO 00000KT 7SM -RA OVC009 11/11 A2965 RMK AO2 P0002
8A0,1/9/16 23:15,51.8,51.8,100.0,130,6,0.0,29.64,M,10.0,M,OVC,M,M,M,900,M,M,M,#NAME?,M,M,M,M,M,M,51.8,K8A0 092315Z AUTO 13006KT 10SM -RA OVC009 11/11 A2964 RMK AO2
8A0,1/9/16 23:35,51.8,51.8,100.0,190,5,0.01,29.66,M,7.0,M,OVC,M,M,M,900,M,M,M,RA,M,M,M,M,M,M,51.8,K8A0 092335Z AUTO 19005KT 7SM RA OVC009 11/11 A2966 RMK AO2 P0001
8A0,1/9/16 23:55,51.8,51.8,100.0,300,6,0.21,29.69,M,2.5,M,OVC,M,M,M,700,M,M,M,#NAME?,M,M,M,M,M,M,51.8,K8A0 092355Z AUTO 30006KT 2 1/2SM +RA OVC007 11/11 A2969 RMK AO2 VIS 3/4V5 P0021
8A0,1/10/16 0:15,50.0,50.0,100.0,320,4,0.03,29.69,M,7.0,M,BKN,BKN,OVC,M,400,1100,1800,M,#NAME?,M,M,M,M,M,M,48.44,K8A0 100015Z AUTO 32004KT 7SM -RA BKN004 BKN011 OVC018 10/10 A2969 RMK AO2 P0003
8A0,1/10/16 0:35,50.0,50.0,100.0,0,0,0.06,29.69,M,5.0,M,SCT,BKN,OVC,M,400,1300,2500,M,RA,M,M,M,M,M,M,50.0,K8A0 100035Z AUTO 00000KT 5SM RA SCT004 BKN013 OVC025 10/10 A2969 RMK AO2 P0006
8A0,1/10/16 0:55,50.0,50.0,100.0,60,3,0.1,29.67,M,5.0,M,SCT,BKN,OVC,M,1200,4800,6000,M,RA,M,M,M,M,M,M,49.27,K8A0 100055Z AUTO 06003KT 5SM RA SCT012 BKN048 OVC060 10/10 A2967 RMK AO2 P0010
8A0,1/10/16 1:15,50.0,50.0,100.0,100,3,0.02,29.67,M,5.0,M,BKN,OVC,M,M,5000,7000,M,M,RA,M,M,M,M,M,M,49.27,K8A0 100115Z AUTO 10003KT 5SM RA BKN050 OVC070 10/10 A2967 RMK AO2 P0002
8A0,1/10/16 1:35,50.0,50.0,100.0,0,0,0.02,29.67,M,10.0,M,BKN,BKN,OVC,M,3000,4700,7000,M,RA,M,M,M,M,M,M,50.0,K8A0 100135Z AUTO 00000KT 10SM RA BKN030 BKN047 OVC070 10/10 A2967 RMK AO2 P0002
8A0,1/10/16 1:55,50.0,50.0,100.0,0,0,0.03,29.68,M,7.0,M,SCT,BKN,OVC,M,2300,3100,3900,M,#NAME?,M,M,M,M,M,M,50.0,K8A0 100155Z AUTO 00000KT 7SM +RA SCT023 BKN031 OVC039 10/10 A2968 RMK AO2 P0003
8A0,1/10/16 2:15,50.0,50.0,100.0,260,10,0.04,29.69,M,5.0,24,SCT,BKN,OVC,M,1200,3100,4500,M,RA,M,M,M,M,M,M,45.54,K8A0 100215Z AUTO 26010G24KT 5SM RA SCT012 BKN031 OVC045 10/10 A2969 RMK AO2 P0004
8A0,1/10/16 2:35,50.0,50.0,100.0,250,9,0.07,29.69,M,10.0,M,SCT,BKN,OVC,M,3500,4700,6000,M,RA,M,M,M,M,M,M,45.9,K8A0 100235Z AUTO 25009KT 10SM RA SCT035 BKN047 OVC060 10/10 A2969 RMK AO2 P0007 LTG DSNT SW
8A0,1/10/16 2:55,50.0,50.0,100.0,210,6,0.1,29.69,M,7.0,M,SCT,BKN,OVC,M,4200,4900,6000,M,RA,M,M,M,M,M,M,47.21,K8A0 100255Z AUTO 21006KT 7SM RA SCT042 BKN049 OVC060 10/10 A2969 RMK AO2 P0010
8A0,1/10/16 3:15,50.0,50.0,100.0,220,5,0.02,29.69,M,10.0,M,SCT,SCT,OVC,M,3700,4300,5000,M,RA,M,M,M,M,M,M,47.77,K8A0 100315Z AUTO 22005KT 10SM RA SCT037 SCT043 OVC050 10/10 A2969 RMK AO2 P0002 LTG DSNT SE
8A0,1/10/16 3:35,50.0,50.0,100.0,220,6,0.02,29.68,M,10.0,M,BKN,OVC,M,M,1400,5000,M,M,VCTS,M,M,M,M,M,M,47.21,K8A0 100335Z AUTO 22006KT 10SM VCTS BKN014 OVC050 10/10 A2968 RMK AO2 P0002
8A0,1/10/16 3:55,50.0,50.0,100.0,230,7,0.02,29.69,M,10.0,M,BKN,BKN,OVC,M,1200,3200,12000,M,M,M,M,M,M,M,M,46.72,K8A0 100355Z AUTO 23007KT 10SM BKN012 BKN032 OVC120 10/10 A2969 RMK AO2 P0002
8A0,1/10/16 4:15,48.2,48.2,100.0,230,7,0.0,29.69,M,10.0,M,SCT,SCT,BKN,M,900,1400,12000,M,M,M,M,M,M,M,M,44.53,K8A0 100415Z AUTO 23007KT 10SM SCT009 SCT014 BKN120 09/09 A2969 RMK AO2
8A0,1/10/16 4:35,48.2,48.2,100.0,240,8,0.0,29.69,M,10.0,M,SCT,M,M,M,12000,M,M,M,M,M,M,M,M,M,M,44.07,K8A0 100435Z AUTO 24008KT 10SM SCT120 09/09 A2969 RMK AO2
8A0,1/10/16 4:55,48.2,48.2,100.0,240,13,0.0,29.69,M,10.0,M,SCT,SCT,BKN,M,1400,1900,3100,M,M,M,M,M,M,M,M,42.32,K8A0 100455Z AUTO 24013KT 10SM SCT014 SCT019 BKN031 09/09 A2969 RMK AO2
8A0,1/10/16 5:15,48.2,48.2,100.0,260,11,0.0,29.69,M,10.0,18,SCT,BKN,OVC,M,1200,1600,3000,M,M,M,M,M,M,M,M,42.94,K8A0 100515Z AUTO 26011G18KT 10SM SCT012 BKN016 OVC030 09/09 A2969 RMK AO2
8A0,1/10/16 5:35,46.4,46.4,100.0,250,13,0.0,29.7,M,10.0,19,BKN,BKN,BKN,M,1200,2200,4100,M,M,M,M,M,M,M,M,40.02,K8A0 100535Z AUTO 25013G19KT 10SM BKN012 BKN022 BKN041 08/08 A2970 RMK AO2
8A0,1/10/16 5:55,44.6,44.6,100.0,250,11,0.0,29.7,M,10.0,18,BKN,BKN,M,M,1400,4100,M,M,M,M,M,M,M,M,M,38.39,K8A0 100555Z AUTO 25011G18KT 10SM BKN014 BKN041 07/07 A2970 RMK AO2
8A0,1/10/16 6:15,44.6,44.6,100.0,240,11,0.0,29.7,M,10.0,M,SCT,BKN,M,M,1600,3500,M,M,M,M,M,M,M,M,M,38.39,K8A0 100615Z AUTO 24011KT 10SM SCT016 BKN035 07/07 A2970 RMK AO2
8A0,1/10/16 6:35,44.6,44.6,100.0,260,14,0.0,29.7,M,10.0,M,SCT,SCT,OVC,M,2300,2800,3500,M,M,M,M,M,M,M,M,37.4,K8A0 100635Z AUTO 26014KT 10SM SCT023 SCT028 OVC035 07/07 A2970 RMK AO2
8A0,1/10/16 6:55,44.6,44.6,100.0,260,15,0.0,29.72,M,10.0,21,BKN,BKN,OVC,M,1500,2200,3100,M,M,M,M,M,M,M,M,37.11,K8A0 100655Z AUTO 26015G21KT 10SM BKN015 BKN022 OVC031 07/07 A2972 RMK AO2
8A0,1/10/16 7:15,42.8,42.8,100.0,260,14,0.0,29.73,M,10.0,21,SCT,BKN,OVC,M,1500,2000,3300,M,M,M,M,M,M,M,M,35.08,K8A0 100715Z AUTO 26014G21KT 10SM SCT015 BKN020 OVC033 06/06 A2973 RMK AO2
8A0,1/10/16 7:35,42.8,42.8,100.0,260,15,0.0,29.74,M,10.0,M,SCT,BKN,OVC,M,1700,2500,3200,M,M,M,M,M,M,M,M,34.78,K8A0 100735Z AUTO 26015KT 10SM SCT017 BKN025 OVC032 06/06 A2974 RMK AO2
8A0,1/10/16 7:55,41.0,41.0,100.0,270,17,0.0,29.75,M,10.0,24,BKN,OVC,M,M,1700,2500,M,M,M,M,M,M,M,M,M,31.87,K8A0 100755Z AUTO 27017G24KT 10SM BKN017 OVC025 05/05 A2975 RMK AO2
8A0,1/10/16 8:15,41.0,41.0,100.0,290,16,0.0,29.77,M,7.0,23,BKN,OVC,M,M,1500,2300,M,M,#NAME?,M,M,M,M,M,M,32.15,K8A0 100815Z AUTO 29016G23KT 7SM -DZ BKN015 OVC023 05/05 A2977 RMK AO2
8A0,1/10/16 8:35,39.2,39.2,100.0,290,14,0.0,29.77,M,10.0,22,BKN,BKN,OVC,M,1300,2000,2600,M,M,M,M,M,M,M,M,30.44,K8A0 100835Z AUTO 29014G22KT 10SM BKN013 BKN020 OVC026 04/04 A2977 RMK AO2
8A0,1/10/16 8:55,37.4,37.4,100.0,280,14,0.0,29.78,M,10.0,21,BKN,OVC,M,M,2400,3000,M,M,M,M,M,M,M,M,M,28.12,K8A0 100855Z AUTO 28014G21KT 10SM BKN024 OVC030 03/03 A2978 RMK AO2
8A0,1/10/16 9:15,37.4,37.4,100.0,280,17,0.0,29.8,M,10.0,25,OVC,M,M,M,2200,M,M,M,M,M,M,M,M,M,M,27.15,K8A0 100915Z AUTO 28017G25KT 10SM OVC022 03/03 A2980 RMK AO2
8A0,1/10/16 9:35,37.4,37.4,100.0,300,12,0.0,29.81,M,10.0,22,BKN,OVC,M,M,1500,2200,M,M,M,M,M,M,M,M,M,28.87,K8A0 100935Z AUTO 30012G22KT 10SM BKN015 OVC022 03/03 A2981 RMK AO2
8A0,1/10/16 9:55,35.6,33.8,93.08,280,15,0.0,29.82,M,10.0,21,BKN,OVC,M,M,1700,2300,M,M,M,M,M,M,M,M,M,25.45,K8A0 100955Z AUTO 28015G21KT 10SM BKN017 OVC023 02/01 A2982 RMK AO2
8A0,1/10/16 10:15,33.8,33.8,100.0,290,8,0.0,29.83,M,10.0,21,OVC,M,M,M,1500,M,M,M,M,M,M,M,M,M,M,26.33,K8A0 101015Z AUTO 29008G21KT 10SM OVC015 01/01 A2983 RMK AO2
8A0,1/10/16 10:35,33.8,33.8,100.0,290,10,0.0,29.83,M,10.0,19,OVC,M,M,M,1500,M,M,M,M,M,M,M,M,M,M,25.23,K8A0 101035Z AUTO 29010G19KT 10SM OVC015 01/01 A2983 RMK AO2
8A0,1/10/16 10:55,33.8,33.8,100.0,290,12,0.0,29.84,M,10.0,17,OVC,M,M,M,1600,M,M,M,M,M,M,M,M,M,M,24.29,K8A0 101055Z AUTO 29012G17KT 10SM OVC016 01/01 A2984 RMK AO2
8A0,1/10/16 11:15,33.8,33.8,100.0,290,15,0.0,29.85,M,10.0,20,OVC,M,M,M,1600,M,M,M,M,M,M,M,M,M,M,23.11,K8A0 101115Z AUTO 29015G20KT 10SM OVC016 01/01 A2985 RMK AO2
8A0,1/10/16 11:35,33.8,33.8,100.0,300,11,0.0,29.87,M,10.0,18,OVC,M,M,M,1600,M,M,M,M,M,M,M,M,M,M,24.74,K8A0 101135Z AUTO 30011G18KT 10SM OVC016 01/01 A2987 RMK AO2
8A0,1/10/16 11:55,33.8,33.8,100.0,300,10,0.0,29.88,M,10.0,19,OVC,M,M,M,1400,M,M,M,M,M,M,M,M,M,M,25.23,K8A0 101155Z AUTO 30010G19KT 10SM OVC014 01/01 A2988 RMK AO2
8A0,1/10/16 12:15,33.8,33.8,100.0,290,11,0.0,29.89,M,10.0,16,OVC,M,M,M,1400,M,M,M,M,M,M,M,M,M,M,24.74,K8A0 101215Z AUTO 29011G16KT 10SM OVC014 01/01 A2989 RMK AO2
8A0,1/10/16 12:35,33.8,33.8,100.0,290,14,0.0,29.91,M,10.0,17,OVC,M,M,M,1200,M,M,M,M,M,M,M,M,M,M,23.48,K8A0 101235Z AUTO 29014G17KT 10SM OVC012 01/01 A2991 RMK AO2
8A0,1/10/16 12:55,33.8,33.8,100.0,300,8,0.0,29.92,M,10.0,21,OVC,M,M,M,1200,M,M,M,M,M,M,M,M,M,M,26.33,K8A0 101255Z AUTO 30008G21KT 10SM OVC012 01/01 A2992 RMK AO2
8A0,1/10/16 13:15,33.8,33.8,100.0,290,8,0.0,29.93,M,10.0,15,OVC,M,M,M,1200,M,M,M,M,M,M,M,M,M,M,26.33,K8A0 101315Z AUTO 29008G15KT 10SM OVC012 01/01 A2993 RMK AO2
8A0,1/10/16 13:35,33.8,33.8,100.0,290,10,0.0,29.94,M,10.0,M,OVC,M,M,M,1200,M,M,M,M,M,M,M,M,M,M,25.23,K8A0 101335Z AUTO 29010KT 10SM OVC012 01/01 A2994 RMK AO2
8A0,1/10/16 13:55,33.8,33.8,100.0,290,14,0.0,29.95,M,10.0,17,OVC,M,M,M,1200,M,M,M,M,M,M,M,M,M,M,23.48,K8A0 101355Z AUTO 29014G17KT 10SM OVC012 01/01 A2995 RMK AO2
8A0,1/10/16 14:15,33.8,33.8,100.0,290,10,0.0,29.97,M,10.0,14,OVC,M,M,M,1000,M,M,M,M,M,M,M,M,M,M,25.23,K8A0 101415Z AUTO 29010G14KT 10SM OVC010 01/01 A2997 RMK AO2
8A0,1/10/16 14:35,33.8,33.8,100.0,280,11,0.0,29.98,M,10.0,15,OVC,M,M,M,1000,M,M,M,M,M,M,M,M,M,M,24.74,K8A0 101435Z AUTO 28011G15KT 10SM OVC010 01/01 A2998 RMK AO2
8A0,1/10/16 14:55,33.8,33.8,100.0,290,11,0.0,29.99,M,10.0,M,OVC,M,M,M,1000,M,M,M,M,M,M,M,M,M,M,24.74,K8A0 101455Z AUTO 29011KT 10SM OVC010 01/01 A2999 RMK AO2
8A0,1/10/16 15:15,33.8,33.8,100.0,280,13,0.0,30.0,M,10.0,17,OVC,M,M,M,1000,M,M,M,M,M,M,M,M,M,M,23.87,K8A0 101515Z AUTO 28013G17KT 10SM OVC010 01/01 A3000 RMK AO2
8A0,1/10/16 15:35,33.8,33.8,100.0,280,11,0.0,30.01,M,10.0,17,OVC,M,M,M,1000,M,M,M,M,M,M,M,M,M,M,24.74,K8A0 101535Z AUTO 28011G17KT 10SM OVC010 01/01 A3001 RMK AO2
8A0,1/10/16 15:55,33.8,33.8,100.0,300,13,0.0,30.02,M,10.0,18,OVC,M,M,M,1000,M,M,M,M,M,M,M,M,M,M,23.87,K8A0 101555Z AUTO 30013G18KT 10SM OVC010 01/01 A3002 RMK AO2
8A0,1/10/16 16:15,33.8,33.8,100.0,300,8,0.0,30.02,M,10.0,M,OVC,M,M,M,1200,M,M,M,M,M,M,M,M,M,M,26.33,K8A0 101615Z AUTO 30008KT 10SM OVC012 01/01 A3002 RMK AO2
8A0,1/10/16 16:35,33.8,33.8,100.0,280,13,0.0,30.03,M,10.0,M,OVC,M,M,M,1000,M,M,M,M,M,M,M,M,M,M,23.87,K8A0 101635Z AUTO 28013KT 10SM OVC010 01/01 A3003 RMK AO2
8A0,1/10/16 16:55,33.8,33.8,100.0,290,9,0.0,30.02,M,10.0,15,OVC,M,M,M,1000,M,M,M,M,M,M,M,M,M,M,25.75,K8A0 101655Z AUTO 29009G15KT 10SM OVC010 01/01 A3002 RMK AO2
8A0,1/10/16 17:15,33.8,33.8,100.0,290,9,0.0,30.03,M,10.0,17,OVC,M,M,M,1200,M,M,M,M,M,M,M,M,M,M,25.75,K8A0 101715Z AUTO 29009G17KT 10SM OVC012 01/01 A3003 RMK AO2
8A0,1/10/16 17:35,33.8,33.8,100.0,270,11,0.0,30.03,M,10.0,16,OVC,M,M,M,1200,M,M,M,M,M,M,M,M,M,M,24.74,K8A0 101735Z AUTO 27011G16KT 10SM OVC012 01/01 A3003 RMK AO2
8A0,1/10/16 17:55,33.8,32.0,93.03,290,14,0.0,30.03,M,10.0,18,OVC,M,M,M,1200,M,M,M,M,M,M,M,M,M,M,23.48,K8A0 101755Z AUTO 29014G18KT 10SM OVC012 01/00 A3003 RMK AO2
8A0,1/10/16 18:15,32.0,32.0,100.0,310,8,0.0,30.03,M,10.0,14,OVC,M,M,M,1200,M,M,M,M,M,M,M,M,M,M,24.11,K8A0 101815Z AUTO 31008G14KT 10SM OVC012 00/00 A3003 RMK AO2
8A0,1/10/16 18:35,33.8,32.0,93.03,310,9,0.0,30.03,M,10.0,15,OVC,M,M,M,1200,M,M,M,M,M,M,M,M,M,M,25.75,K8A0 101835Z AUTO 31009G15KT 10SM OVC012 01/00 A3003 RMK AO2
8A0,1/10/16 18:55,33.8,32.0,93.03,290,12,0.0,30.03,M,10.0,16,OVC,M,M,M,1200,M,M,M,M,M,M,M,M,M,M,24.29,K8A0 101855Z AUTO 29012G16KT 10SM OVC012 01/00 A3003 RMK AO2
8A0,1/10/16 19:15,33.8,32.0,93.03,300,8,0.0,30.03,M,10.0,16,OVC,M,M,M,1400,M,M,M,M,M,M,M,M,M,M,26.33,K8A0 101915Z AUTO 30008G16KT 10SM OVC014 01/00 A3003 RMK AO2
8A0,1/10/16 19:35,33.8,32.0,93.03,290,10,0.0,30.04,M,10.0,15,OVC,M,M,M,1600,M,M,M,M,M,M,M,M,M,M,25.23,K8A0 101935Z AUTO 29010G15KT 10SM OVC016 01/00 A3004 RMK AO2
8A0,1/10/16 19:55,33.8,32.0,93.03,290,10,0.0,30.05,M,10.0,17,OVC,M,M,M,1600,M,M,M,M,M,M,M,M,M,M,25.23,K8A0 101955Z AUTO 29010G17KT 10SM OVC016 01/00 A3005 RMK AO2
8A0,1/10/16 20:15,33.8,32.0,93.03,300,11,0.0,30.06,M,10.0,M,OVC,M,M,M,1600,M,M,M,M,M,M,M,M,M,M,24.74,K8A0 102015Z AUTO 30011KT 269V339 10SM OVC016 01/00 A3006 RMK AO2
8A0,1/10/16 20:35,33.8,32.0,93.03,300,12,0.0,30.07,M,10.0,M,BKN,OVC,M,M,1800,2300,M,M,M,M,M,M,M,M,M,24.29,K8A0 102035Z AUTO 30012KT 10SM BKN018 OVC023 01/00 A3007 RMK AO2
8A0,1/10/16 20:55,33.8,30.2,86.49,290,8,0.0,30.07,M,10.0,M,BKN,OVC,M,M,2200,2800,M,M,M,M,M,M,M,M,M,26.33,K8A0 102055Z AUTO 29008KT 10SM BKN022 OVC028 01/M01 A3007 RMK AO2
8A0,1/10/16 21:15,33.8,32.0,93.03,340,7,0.0,30.08,M,10.0,M,OVC,M,M,M,2400,M,M,M,M,M,M,M,M,M,M,26.97,K8A0 102115Z AUTO 34007KT 10SM OVC024 01/00 A3008 RMK AO2
8A0,1/10/16 21:35,33.8,30.2,86.49,320,6,0.0,30.09,M,10.0,M,BKN,OVC,M,M,2400,3000,M,M,M,M,M,M,M,M,M,27.7,K8A0 102135Z AUTO 32006KT 10SM BKN024 OVC030 01/M01 A3009 RMK AO2
8A0,1/10/16 21:55,33.8,30.2,86.49,290,9,0.0,30.09,M,10.0,M,SCT,M,M,M,3400,M,M,M,M,M,M,M,M,M,M,25.75,K8A0 102155Z AUTO 29009KT 10SM SCT034 01/M01 A3009 RMK AO2
8A0,1/10/16 22:15,33.8,28.4,80.36,310,7,0.0,30.1,M,10.0,M,BKN,M,M,M,3400,M,M,M,M,M,M,M,M,M,M,26.97,K8A0 102215Z AUTO 31007KT 10SM BKN034 01/M02 A3010 RMK AO2
8A0,1/10/16 22:35,33.8,28.4,80.36,320,10,0.0,30.11,M,10.0,M,SCT,M,M,M,3200,M,M,M,M,M,M,M,M,M,M,25.23,K8A0 102235Z AUTO 32010KT 10SM SCT032 01/M02 A3011 RMK AO2
8A0,1/10/16 22:55,32.0,28.4,86.39,310,6,0.0,30.11,M,10.0,M,SCT,M,M,M,3400,M,M,M,M,M,M,M,M,M,M,25.53,K8A0 102255Z AUTO 31006KT 10SM SCT034 00/M02 A3011 RMK AO2
8A0,1/10/16 23:15,32.0,26.6,80.22,310,8,0.0,30.12,M,10.0,M,SCT,M,M,M,3400,M,M,M,M,M,M,M,M,M,M,24.11,K8A0 102315Z AUTO 31008KT 10SM SCT034 00/M03 A3012 RMK AO2
8A0,1/10/16 23:35,32.0,26.6,80.22,310,8,0.0,30.13,M,10.0,M,SCT,M,M,M,3400,M,M,M,M,M,M,M,M,M,M,24.11,K8A0 102335Z AUTO 31008KT 10SM SCT034 00/M03 A3013 RMK AO2
8A0,1/10/16 23:55,32.0,26.6,80.22,300,7,0.0,30.13,M,10.0,M,SCT,M,M,M,3400,M,M,M,M,M,M,M,M,M,M,24.78,K8A0 102355Z AUTO 30007KT 10SM SCT034 00/M03 A3013 RMK AO2
8A0,1/11/16 0:15,32.0,26.6,80.22,300,6,0.0,30.14,M,10.0,M,CLR,M,M,M,M,M,M,M,M,M,M,M,M,M,M,25.53,K8A0 110015Z AUTO 30006KT 10SM CLR 00/M03 A3014 RMK AO2
8A0,1/11/16 0:35,32.0,26.6,80.22,310,5,0.0,30.15,M,10.0,M,CLR,M,M,M,M,M,M,M,M,M,M,M,M,M,M,26.4,K8A0 110035Z AUTO 31005KT 10SM CLR 00/M03 A3015 RMK AO2
8A0,1/11/16 0:55,32.0,24.8,74.44,300,5,0.0,30.15,M,10.0,M,CLR,M,M,M,M,M,M,M,M,M,M,M,M,M,M,26.4,K8A0 110055Z AUTO 30005KT 10SM CLR 00/M04 A3015 RMK AO2
8A0,1/11/16 1:15,30.2,24.8,80.07,300,5,0.0,30.15,M,10.0,M,CLR,M,M,M,M,M,M,M,M,M,M,M,M,M,M,24.26,K8A0 110115Z AUTO 30005KT 10SM CLR M01/M04 A3015 RMK AO2
8A0,1/11/16 1:35,30.2,23.0,74.26,300,4,0.0,30.16,M,10.0,M,CLR,M,M,M,M,M,M,M,M,M,M,M,M,M,M,25.32,K8A0 110135Z AUTO 30004KT 10SM CLR M01/M05 A3016 RMK AO2
8A0,1/11/16 1:55,30.2,24.8,80.07,300,5,0.0,30.16,M,10.0,M,CLR,M,M,M,M,M,M,M,M,M,M,M,M,M,M,24.26,K8A0 110155Z AUTO 30005KT 10SM CLR M01/M04 A3016 RMK AO2
8A0,1/11/16 2:15,30.2,23.0,74.26,310,6,0.0,30.16,M,10.0,M,CLR,M,M,M,M,M,M,M,M,M,M,M,M,M,M,23.36,K8A0 110215Z AUTO 31006KT 10SM CLR M01/M05 A3016 RMK AO2
8A0,1/11/16 2:35,28.4,23.0,79.92,20,3,0.0,30.16,M,10.0,M,CLR,M,M,M,M,M,M,M,M,M,M,M,M,M,M,24.57,K8A0 110235Z AUTO 02003KT 10SM CLR M02/M05 A3016 RMK AO2
8A0,1/11/16 2:55,28.4,23.0,79.92,320,4,0.0,30.16,M,10.0,M,CLR,M,M,M,M,M,M,M,M,M,M,M,M,M,M,23.22,K8A0 110255Z AUTO 32004KT 10SM CLR M02/M05 A3016 RMK AO2
8A0,1/11/16 3:15,28.4,23.0,79.92,320,5,0.0,30.18,M,10.0,M,CLR,M,M,M,M,M,M,M,M,M,M,M,M,M,M,22.12,K8A0 110315Z AUTO 32005KT 10SM CLR M02/M05 A3018 RMK AO2
8A0,1/11/16 3:35,28.4,23.0,79.92,330,6,0.0,30.18,M,10.0,M,CLR,M,M,M,M,M,M,M,M,M,M,M,M,M,M,21.19,K8A0 110335Z AUTO 33006KT 10SM CLR M02/M05 A3018 RMK AO2
8A0,1/11/16 3:55,28.4,23.0,79.92,340,6,0.0,30.18,M,10.0,M,CLR,M,M,M,M,M,M,M,M,M,M,M,M,M,M,21.19,K8A0 110355Z AUTO 34006KT 10SM CLR M02/M05 A3018 RMK AO2
8A0,1/11/16 4:15,28.4,23.0,79.92,340,8,0.0,30.18,M,10.0,M,CLR,M,M,M,M,M,M,M,M,M,M,M,M,M,M,19.68,K8A0 110415Z AUTO 34008KT 10SM CLR M02/M05 A3018 RMK AO2
8A0,1/11/16 4:35,26.6,23.0,86.07,330,6,0.0,30.19,M,10.0,M,CLR,M,M,M,M,M,M,M,M,M,M,M,M,M,M,19.03,K8A0 110435Z AUTO 33006KT 10SM CLR M03/M05 A3019 RMK AO2
8A0,1/11/16 4:55,26.6,21.2,79.77,340,8,0.0,30.19,M,10.0,M,CLR,M,M,M,M,M,M,M,M,M,M,M,M,M,M,17.46,K8A0 110455Z AUTO 34008KT 10SM CLR M03/M06 A3019 RMK AO2
8A0,1/11/16 5:15,26.6,21.2,79.77,340,8,0.0,30.18,M,10.0,M,CLR,M,M,M,M,M,M,M,M,M,M,M,M,M,M,17.46,K8A0 110515Z AUTO 34008KT 10SM CLR M03/M06 A3018 RMK AO2
8A0,1/11/16 5:35,26.6,21.2,79.77,330,7,0.0,30.18,M,10.0,M,CLR,M,M,M,M,M,M,M,M,M,M,M,M,M,M,18.2,K8A0 110535Z AUTO 33007KT 10SM CLR M03/M06 A3018 RMK AO2
8A0,1/11/16 5:55,26.6,21.2,79.77,340,5,0.0,30.19,M,10.0,M,CLR,M,M,M,M,M,M,M,M,M,M,M,M,M,M,19.98,K8A0 110555Z AUTO 34005KT 10SM CLR M03/M06 A3019 RMK AO2
8A0,1/11/16 6:15,24.8,21.2,85.96,340,8,0.0,30.18,M,10.0,M,CLR,M,M,M,M,M,M,M,M,M,M,M,M,M,M,15.24,K8A0 110615Z AUTO 34008KT 10SM CLR M04/M06 A3018 RMK AO2
8A0,1/11/16 6:35,24.8,21.2,85.96,340,5,0.0,30.18,M,10.0,M,CLR,M,M,M,M,M,M,M,M,M,M,M,M,M,M,17.84,K8A0 110635Z AUTO 34005KT 10SM CLR M04/M06 A3018 RMK AO2
8A0,1/11/16 6:55,23.0,21.2,92.69,350,5,0.0,30.18,M,10.0,M,CLR,M,M,M,M,M,M,M,M,M,M,M,M,M,M,15.71,K8A0 110655Z AUTO 35005KT 10SM CLR M05/M06 A3018 RMK AO2
8A0,1/11/16 7:15,23.0,21.2,92.69,350,7,0.0,30.18,M,10.0,M,CLR,M,M,M,M,M,M,M,M,M,M,M,M,M,M,13.81,K8A0 110715Z AUTO 35007KT 10SM CLR M05/M06 A3018 RMK AO2
8A0,1/11/16 7:35,23.0,21.2,92.69,340,4,0.0,30.19,M,10.0,M,CLR,M,M,M,M,M,M,M,M,M,M,M,M,M,M,16.91,K8A0 110735Z AUTO 34004KT 10SM CLR M05/M06 A3019 RMK AO2
8A0,1/11/16 7:55,23.0,21.2,92.69,330,4,0.0,30.2,M,10.0,M,CLR,M,M,M,M,M,M,M,M,M,M,M,M,M,M,16.91,K8A0 110755Z AUTO 33004KT 10SM CLR M05/M06 A3020 RMK AO2
8A0,1/11/16 8:15,23.0,21.2,92.69,0,0,0.0,30.22,M,10.0,M,CLR,M,M,M,M,M,M,M,M,M,M,M,M,M,M,23.0,K8A0 110815Z AUTO 00000KT 10SM CLR M05/M06 A3022 RMK AO2
8A0,1/11/16 8:35,21.2,21.2,100.0,330,3,0.0,30.22,M,10.0,M,CLR,M,M,M,M,M,M,M,M,M,M,M,M,M,M,16.34,K8A0 110835Z AUTO 33003KT 10SM CLR M06/M06 A3022 RMK AO2
8A0,1/11/16 8:55,21.2,21.2,100.0,0,0,0.0,30.21,M,10.0,M,CLR,M,M,M,M,M,M,M,M,M,M,M,M,M,M,21.2,K8A0 110855Z AUTO 00000KT 10SM CLR M06/M06 A3021 RMK AO2
8A0,1/11/16 9:15,21.2,21.2,100.0,0,0,0.0,30.21,M,10.0,M,CLR,M,M,M,M,M,M,M,M,M,M,M,M,M,M,21.2,K8A0 110915Z AUTO 00000KT 10SM CLR M06/M06 A3021 RMK AO2
8A0,1/11/16 9:35,21.2,21.2,100.0,0,0,0.0,30.2,M,10.0,M,CLR,M,M,M,M,M,M,M,M,M,M,M,M,M,M,21.2,K8A0 110935Z AUTO 00000KT 10SM CLR M06/M06 A3020 RMK AO2
8A0,1/11/16 9:55,21.2,21.2,100.0,20,4,0.0,30.19,M,10.0,M,CLR,M,M,M,M,M,M,M,M,M,M,M,M,M,M,14.81,K8A0 110955Z AUTO 02004KT 10SM CLR M06/M06 A3019 RMK AO2
8A0,1/11/16 10:15,19.4,19.4,100.0,10,3,0.0,30.19,M,10.0,M,CLR,M,M,M,M,M,M,M,M,M,M,M,M,M,M,14.28,K8A0 111015Z AUTO 01003KT 10SM CLR M07/M07 A3019 RMK AO2
8A0,1/11/16 10:35,21.2,21.2,100.0,350,4,0.0,30.19,M,10.0,M,CLR,M,M,M,M,M,M,M,M,M,M,M,M,M,M,14.81,K8A0 111035Z AUTO 35004KT 10SM CLR M06/M06 A3019 RMK AO2
8A0,1/11/16 10:55,21.2,21.2,100.0,360,5,0.0,30.19,M,10.0,M,CLR,M,M,M,M,M,M,M,M,M,M,M,M,M,M,13.57,K8A0 111055Z AUTO 36005KT 10SM CLR M06/M06 A3019 RMK AO2
8A0,1/11/16 11:15,19.4,19.4,100.0,10,4,0.0,30.2,M,10.0,M,CLR,M,M,M,M,M,M,M,M,M,M,M,M,M,M,12.71,K8A0 111115Z AUTO 01004KT 10SM CLR M07/M07 A3020 RMK AO2
8A0,1/11/16 11:35,19.4,19.4,100.0,0,0,0.0,30.21,M,10.0,M,CLR,M,M,M,M,M,M,M,M,M,M,M,M,M,M,19.4,K8A0 111135Z AUTO 00000KT 10SM CLR M07/M07 A3021 RMK AO2
8A0,1/11/16 11:55,19.4,19.4,100.0,0,0,0.0,30.22,M,10.0,M,CLR,M,M,M,M,M,M,M,M,M,M,M,M,M,M,19.4,K8A0 111155Z AUTO 00000KT 10SM CLR M07/M07 A3022 RMK AO2
8A0,1/11/16 12:15,19.4,19.4,100.0,0,0,0.0,30.23,M,10.0,M,CLR,M,M,M,M,M,M,M,M,M,M,M,M,M,M,19.4,K8A0 111215Z AUTO 00000KT 10SM CLR M07/M07 A3023 RMK AO2
8A0,1/11/16 12:35,19.4,19.4,100.0,0,0,0.0,30.23,M,10.0,M,CLR,M,M,M,M,M,M,M,M,M,M,M,M,M,M,19.4,K8A0 111235Z AUTO 00000KT 10SM CLR M07/M07 A3023 RMK AO2
8A0,1/11/16 12:55,19.4,19.4,100.0,10,4,0.0,30.23,M,10.0,M,CLR,M,M,M,M,M,M,M,M,M,M,M,M,M,M,12.71,K8A0 111255Z AUTO 01004KT 10SM CLR M07/M07 A3023 RMK AO2
8A0,1/11/16 13:15,19.4,19.4,100.0,10,3,0.0,30.23,M,10.0,M,CLR,M,M,M,M,M,M,M,M,M,M,M,M,M,M,14.28,K8A0 111315Z AUTO 01003KT 10SM CLR M07/M07 A3023 RMK AO2
8A0,1/11/16 13:35,21.2,21.2,100.0,50,3,0.0,30.23,M,10.0,M,CLR,M,M,M,M,M,M,M,M,M,M,M,M,M,M,16.34,K8A0 111335Z AUTO 05003KT 10SM CLR M06/M06 A3023 RMK AO2
8A0,1/11/16 13:55,23.0,23.0,100.0,40,6,0.0,30.23,M,10.0,M,CLR,M,M,M,M,M,M,M,M,M,M,M,M,M,M,14.69,K8A0 111355Z AUTO 04006KT 10SM CLR M05/M05 A3023 RMK AO2
8A0,1/11/16 14:15,23.0,23.0,100.0,70,3,0.0,30.24,M,10.0,M,CLR,M,M,M,M,M,M,M,M,M,M,M,M,M,M,18.4,K8A0 111415Z AUTO 07003KT 10SM CLR M05/M05 A3024 RMK AO2
8A0,1/11/16 14:35,23.0,23.0,100.0,0,0,0.0,30.24,M,10.0,M,CLR,M,M,M,M,M,M,M,M,M,M,M,M,M,M,23.0,K8A0 111435Z AUTO 00000KT 10SM CLR M05/M05 A3024 RMK AO2
8A0,1/11/16 14:55,23.0,23.0,100.0,80,3,0.0,30.25,M,10.0,M,CLR,M,M,M,M,M,M,M,M,M,M,M,M,M,M,18.4,K8A0 111455Z AUTO 08003KT 10SM CLR M05/M05 A3025 RMK AO2
8A0,1/11/16 15:15,24.8,23.0,92.74,0,0,0.0,30.26,M,10.0,M,CLR,M,M,M,M,M,M,M,M,M,M,M,M,M,M,24.8,K8A0 111515Z AUTO 00000KT 10SM CLR M04/M05 A3026 RMK AO2
8A0,1/11/16 15:35,24.8,23.0,92.74,0,0,0.0,30.27,M,10.0,M,CLR,M,M,M,M,M,M,M,M,M,M,M,M,M,M,24.8,K8A0 111535Z AUTO 00000KT 10SM CLR M04/M05 A3027 RMK AO2
8A0,1/11/16 15:55,26.6,24.8,92.8,0,0,0.0,30.27,M,10.0,M,CLR,M,M,M,M,M,M,M,M,M,M,M,M,M,M,26.6,K8A0 111555Z AUTO 00000KT 10SM CLR M03/M04 A3027 RMK AO2
8A0,1/11/16 16:15,28.4,23.0,79.92,0,0,0.0,30.28,M,10.0,M,CLR,M,M,M,M,M,M,M,M,M,M,M,M,M,M,28.4,K8A0 111615Z AUTO 00000KT 10SM CLR M02/M05 A3028 RMK AO2
8A0,1/11/16 16:35,28.4,23.0,79.92,0,0,0.0,30.28,M,10.0,M,CLR,M,M,M,M,M,M,M,M,M,M,M,M,M,M,28.4,K8A0 111635Z AUTO 00000KT 10SM CLR M02/M05 A3028 RMK AO2
8A0,1/11/16 16:55,30.2,23.0,74.26,0,0,0.0,30.26,M,10.0,M,CLR,M,M,M,M,M,M,M,M,M,M,M,M,M,M,30.2,K8A0 111655Z AUTO 00000KT 10SM CLR M01/M05 A3026 RMK AO2
8A0,1/11/16 17:15,32.0,23.0,69.04,0,0,0.0,30.24,M,10.0,M,CLR,M,M,M,M,M,M,M,M,M,M,M,M,M,M,32.0,K8A0 111715Z AUTO 00000KT 10SM CLR 00/M05 A3024 RMK AO2
8A0,1/11/16 17:35,32.0,23.0,69.04,0,0,0.0,30.23,M,10.0,M,CLR,M,M,M,M,M,M,M,M,M,M,M,M,M,M,32.0,K8A0 111735Z AUTO 00000KT 10SM CLR 00/M05 A3023 RMK AO2
8A0,1/11/16 17:55,33.8,21.2,59.53,0,0,0.0,30.23,M,10.0,M,CLR,M,M,M,M,M,M,M,M,M,M,M,M,M,M,33.8,K8A0 111755Z AUTO 00000KT 10SM CLR 01/M06 A3023 RMK AO2
8A0,1/11/16 18:15,33.8,23.0,64.23,70,3,0.0,30.21,M,10.0,M,CLR,M,M,M,M,M,M,M,M,M,M,M,M,M,M,30.75,K8A0 111815Z AUTO 07003KT 10SM CLR 01/M05 A3021 RMK AO2
8A0,1/11/16 18:35,35.6,21.2,55.41,0,0,0.0,30.21,M,10.0,M,CLR,M,M,M,M,M,M,M,M,M,M,M,M,M,M,35.6,K8A0 111835Z AUTO 00000KT 10SM CLR 02/M06 A3021 RMK AO2
8A0,1/11/16 18:55,35.6,23.0,59.79,0,0,0.0,30.19,M,10.0,M,CLR,M,M,M,M,M,M,M,M,M,M,M,M,M,M,35.6,K8A0 111855Z AUTO 00000KT 10SM CLR 02/M05 A3019 RMK AO2
8A0,1/11/16 19:15,35.6,21.2,55.41,0,0,0.0,30.19,M,10.0,M,CLR,M,M,M,M,M,M,M,M,M,M,M,M,M,M,35.6,K8A0 111915Z AUTO 00000KT 10SM CLR 02/M06 A3019 RMK AO2
8A0,1/11/16 19:35,35.6,21.2,55.41,0,0,0.0,30.17,M,10.0,M,CLR,M,M,M,M,M,M,M,M,M,M,M,M,M,M,35.6,K8A0 111935Z AUTO 00000KT 10SM CLR 02/M06 A3017 RMK AO2
8A0,1/11/16 19:55,37.4,21.2,51.61,260,4,0.0,30.17,M,10.0,M,CLR,M,M,M,M,M,M,M,M,M,M,M,M,M,M,33.73,K8A0 111955Z AUTO 26004KT 10SM CLR 03/M06 A3017 RMK AO2
8A0,1/11/16 20:15,37.4,21.2,51.61,0,0,0.0,30.17,M,10.0,M,CLR,M,M,M,M,M,M,M,M,M,M,M,M,M,M,37.4,K8A0 112015Z AUTO 00000KT 10SM CLR 03/M06 A3017 RMK AO2
8A0,1/11/16 20:35,37.4,19.4,47.8,0,0,0.0,30.16,M,10.0,M,CLR,M,M,M,M,M,M,M,M,M,M,M,M,M,M,37.4,K8A0 112035Z AUTO 00000KT 10SM CLR 03/M07 A3016 RMK AO2
8A0,1/11/16 20:55,39.2,21.2,48.1,0,0,0.0,30.15,M,10.0,M,CLR,M,M,M,M,M,M,M,M,M,M,M,M,M,M,39.2,K8A0 112055Z AUTO 00000KT 10SM CLR 04/M06 A3015 RMK AO2
8A0,1/11/16 21:15,39.2,19.4,44.55,190,4,0.0,30.17,M,10.0,M,CLR,M,M,M,M,M,M,M,M,M,M,M,M,M,M,35.83,K8A0 112115Z AUTO 19004KT 10SM CLR 04/M07 A3017 RMK AO2
8A0,1/11/16 21:35,37.4,21.2,51.61,210,5,0.0,30.17,M,10.0,M,CLR,M,M,M,M,M,M,M,M,M,M,M,M,M,M,32.81,K8A0 112135Z AUTO 21005KT 10SM CLR 03/M06 A3017 RMK AO2
8A0,1/11/16 21:55,37.4,21.2,51.61,230,4,0.0,30.17,M,10.0,M,CLR,M,M,M,M,M,M,M,M,M,M,M,M,M,M,33.73,K8A0 112155Z AUTO 23004KT 10SM CLR 03/M06 A3017 RMK AO2
8A0,1/11/16 22:15,37.4,21.2,51.61,210,3,0.0,30.16,M,10.0,M,CLR,M,M,M,M,M,M,M,M,M,M,M,M,M,M,34.86,K8A0 112215Z AUTO 21003KT 10SM CLR 03/M06 A3016 RMK AO2
8A0,1/11/16 22:35,37.4,21.2,51.61,0,0,0.0,30.16,M,10.0,M,CLR,M,M,M,M,M,M,M,M,M,M,M,M,M,M,37.4,K8A0 112235Z AUTO 00000KT 10SM CLR 03/M06 A3016 RMK AO2
8A0,1/11/16 22:55,35.6,21.2,55.41,0,0,0.0,30.16,M,10.0,M,CLR,M,M,M,M,M,M,M,M,M,M,M,M,M,M,35.6,K8A0 112255Z AUTO 00000KT 10SM CLR 02/M06 A3016 RMK AO2
8A0,1/11/16 23:15,33.8,21.2,59.53,0,0,0.0,30.15,M,10.0,M,CLR,M,M,M,M,M,M,M,M,M,M,M,M,M,M,33.8,K8A0 112315Z AUTO 00000KT 10SM CLR 01/M06 A3015 RMK AO2
8A0,1/11/16 23:35,33.8,21.2,59.53,190,3,0.0,30.16,M,10.0,M,CLR,M,M,M,M,M,M,M,M,M,M,M,M,M,M,30.75,K8A0 112335Z AUTO 19003KT 10SM CLR 01/M06 A3016 RMK AO2
8A0,1/11/16 23:55,32.0,21.2,63.99,190,4,0.0,30.16,M,10.0,M,CLR,M,M,M,M,M,M,M,M,M,M,M,M,M,M,27.42,K8A0 112355Z AUTO 19004KT 10SM CLR 00/M06 A3016 RMK AO2
8A0,1/12/16 0:15,33.8,21.2,59.53,200,4,0.0,30.17,M,10.0,M,CLR,M,M,M,M,M,M,M,M,M,M,M,M,M,M,29.52,K8A0 120015Z AUTO 20004KT 10SM CLR 01/M06 A3017 RMK AO2
8A0,1/12/16 0:35,32.0,23.0,69.04,170,3,0.0,30.18,M,10.0,M,CLR,M,M,M,M,M,M,M,M,M,M,M,M,M,M,28.69,K8A0 120035Z AUTO 17003KT 10SM CLR 00/M05 A3018 RMK AO2
8A0,1/12/16 0:55,32.0,21.2,63.99,200,4,0.0,30.17,M,10.0,M,CLR,M,M,M,M,M,M,M,M,M,M,M,M,M,M,27.42,K8A0 120055Z AUTO 20004KT 10SM CLR 00/M06 A3017 RMK AO2
8A0,1/12/16 1:15,32.0,21.2,63.99,210,4,0.0,30.17,M,10.0,M,CLR,M,M,M,M,M,M,M,M,M,M,M,M,M,M,27.42,K8A0 120115Z AUTO 21004KT 10SM CLR 00/M06 A3017 RMK AO2
8A0,1/12/16 1:35,32.0,21.2,63.99,190,4,0.0,30.17,M,10.0,M,CLR,M,M,M,M,M,M,M,M,M,M,M,M,M,M,27.42,K8A0 120135Z AUTO 19004KT 10SM CLR 00/M06 A3017 RMK AO2
8A0,1/12/16 1:55,32.0,21.2,63.99,210,5,0.0,30.18,M,10.0,M,CLR,M,M,M,M,M,M,M,M,M,M,M,M,M,M,26.4,K8A0 120155Z AUTO 21005KT 10SM CLR 00/M06 A3018 RMK AO2
8A0,1/12/16 2:15,32.0,21.2,63.99,220,3,0.0,30.18,M,10.0,M,CLR,M,M,M,M,M,M,M,M,M,M,M,M,M,M,28.69,K8A0 120215Z AUTO 22003KT 10SM CLR 00/M06 A3018 RMK AO2
8A0,1/12/16 2:35,32.0,21.2,63.99,220,3,0.0,30.18,M,10.0,M,CLR,M,M,M,M,M,M,M,M,M,M,M,M,M,M,28.69,K8A0 120235Z AUTO 22003KT 10SM CLR 00/M06 A3018 RMK AO2
8A0,1/12/16 2:55,32.0,21.2,63.99,220,4,0.0,30.19,M,10.0,M,SCT,M,M,M,9500,M,M,M,M,M,M,M,M,M,M,27.42,K8A0 120255Z AUTO 22004KT 10SM SCT095 00/M06 A3019 RMK AO2
8A0,1/12/16 3:15,28.4,23.0,79.92,200,6,0.0,30.18,M,10.0,M,SCT,M,M,M,9500,M,M,M,M,M,M,M,M,M,M,21.19,K8A0 120315Z AUTO 20006KT 10SM SCT095 M02/M05 A3018 RMK AO2
8A0,1/12/16 3:35,30.2,21.2,68.83,210,6,0.0,30.18,M,10.0,M,BKN,M,M,M,9500,M,M,M,M,M,M,M,M,M,M,23.36,K8A0 120335Z AUTO 21006KT 10SM BKN095 M01/M06 A3018 RMK AO2
8A0,1/12/16 3:55,32.0,19.4,59.27,210,6,0.0,30.17,M,10.0,M,OVC,M,M,M,9500,M,M,M,M,M,M,M,M,M,M,25.53,K8A0 120355Z AUTO 21006KT 10SM OVC095 00/M07 A3017 RMK AO2
8A0,1/12/16 4:15,32.0,21.2,63.99,200,5,0.0,30.16,M,10.0,M,OVC,M,M,M,9500,M,M,M,M,M,M,M,M,M,M,26.4,K8A0 120415Z AUTO 20005KT 10SM OVC095 00/M06 A3016 RMK AO2
8A0,1/12/16 4:35,32.0,21.2,63.99,200,6,0.0,30.16,M,10.0,M,BKN,M,M,M,9500,M,M,M,M,M,M,M,M,M,M,25.53,K8A0 120435Z AUTO 20006KT 10SM BKN095 00/M06 A3016 RMK AO2
8A0,1/12/16 4:55,32.0,19.4,59.27,220,4,0.0,30.16,M,10.0,M,CLR,M,M,M,M,M,M,M,M,M,M,M,M,M,M,27.42,K8A0 120455Z AUTO 22004KT 10SM CLR 00/M07 A3016 RMK AO2
8A0,1/12/16 5:15,32.0,19.4,59.27,240,4,0.0,30.15,M,10.0,M,CLR,M,M,M,M,M,M,M,M,M,M,M,M,M,M,27.42,K8A0 120515Z AUTO 24004KT 10SM CLR 00/M07 A3015 RMK AO2
8A0,1/12/16 5:35,32.0,19.4,59.27,220,4,0.0,30.15,M,10.0,M,CLR,M,M,M,M,M,M,M,M,M,M,M,M,M,M,27.42,K8A0 120535Z AUTO 22004KT 10SM CLR 00/M07 A3015 RMK AO2
8A0,1/12/16 5:55,30.2,21.2,68.83,220,4,0.0,30.15,M,10.0,M,CLR,M,M,M,M,M,M,M,M,M,M,M,M,M,M,25.32,K8A0 120555Z AUTO 22004KT 10SM CLR M01/M06 A3015 RMK AO2
8A0,1/12/16 6:15,32.0,19.4,59.27,220,5,0.0,30.14,M,10.0,M,CLR,M,M,M,M,M,M,M,M,M,M,M,M,M,M,26.4,K8A0 120615Z AUTO 22005KT 10SM CLR 00/M07 A3014 RMK AO2
8A0,1/12/16 6:35,30.2,21.2,68.83,210,6,0.0,30.14,M,10.0,M,CLR,M,M,M,M,M,M,M,M,M,M,M,M,M,M,23.36,K8A0 120635Z AUTO 21006KT 10SM CLR M01/M06 A3014 RMK AO2
8A0,1/12/16 6:55,32.0,21.2,63.99,220,6,0.0,30.14,M,10.0,M,CLR,M,M,M,M,M,M,M,M,M,M,M,M,M,M,25.53,K8A0 120655Z AUTO 22006KT 10SM CLR 00/M06 A3014 RMK AO2
8A0,1/12/16 7:15,32.0,19.4,59.27,220,5,0.0,30.14,M,10.0,M,CLR,M,M,M,M,M,M,M,M,M,M,M,M,M,M,26.4,K8A0 120715Z AUTO 22005KT 10SM CLR 00/M07 A3014 RMK AO2
8A0,1/12/16 7:35,30.2,21.2,68.83,200,6,0.0,30.13,M,10.0,M,CLR,M,M,M,M,M,M,M,M,M,M,M,M,M,M,23.36,K8A0 120735Z AUTO 20006KT 10SM CLR M01/M06 A3013 RMK AO2
8A0,1/12/16 7:55,32.0,21.2,63.99,210,8,0.0,30.12,M,10.0,M,CLR,M,M,M,M,M,M,M,M,M,M,M,M,M,M,24.11,K8A0 120755Z AUTO 21008KT 10SM CLR 00/M06 A3012 RMK AO2
8A0,1/12/16 8:15,32.0,21.2,63.99,220,8,0.0,30.12,M,10.0,M,CLR,M,M,M,M,M,M,M,M,M,M,M,M,M,M,24.11,K8A0 120815Z AUTO 22008KT 10SM CLR 00/M06 A3012 RMK AO2
8A0,1/12/16 8:35,32.0,21.2,63.99,230,8,0.0,30.12,M,10.0,M,CLR,M,M,M,M,M,M,M,M,M,M,M,M,M,M,24.11,K8A0 120835Z AUTO 23008KT 10SM CLR 00/M06 A3012 RMK AO2
8A0,1/12/16 8:55,32.0,21.2,63.99,240,8,0.0,30.12,M,10.0,M,CLR,M,M,M,M,M,M,M,M,M,M,M,M,M,M,24.11,K8A0 120855Z AUTO 24008KT 10SM CLR 00/M06 A3012 RMK AO2
8A0,1/12/16 9:15,32.0,21.2,63.99,240,7,0.0,30.12,M,10.0,M,SCT,M,M,M,5500,M,M,M,M,M,M,M,M,M,M,24.78,K8A0 120915Z AUTO 24007KT 10SM SCT055 00/M06 A3012 RMK AO2
8A0,1/12/16 9:35,32.0,21.2,63.99,240,7,0.0,30.12,M,10.0,M,BKN,M,M,M,5500,M,M,M,M,M,M,M,M,M,M,24.78,K8A0 120935Z AUTO 24007KT 10SM BKN055 00/M06 A3012 RMK AO2
8A0,1/12/16 9:55,32.0,21.2,63.99,230,7,0.0,30.11,M,10.0,M,SCT,M,M,M,5500,M,M,M,M,M,M,M,M,M,M,24.78,K8A0 120955Z AUTO 23007KT 10SM SCT055 00/M06 A3011 RMK AO2
8A0,1/12/16 10:15,32.0,21.2,63.99,220,8,0.0,30.11,M,10.0,M,CLR,M,M,M,M,M,M,M,M,M,M,M,M,M,M,24.11,K8A0 121015Z AUTO 22008KT 10SM CLR 00/M06 A3011 RMK AO2
8A0,1/12/16 10:35,32.0,21.2,63.99,220,7,0.0,30.11,M,10.0,M,CLR,M,M,M,M,M,M,M,M,M,M,M,M,M,M,24.78,K8A0 121035Z AUTO 22007KT 10SM CLR 00/M06 A3011 RMK AO2
8A0,1/12/16 10:55,30.2,21.2,68.83,230,6,0.0,30.12,M,10.0,M,CLR,M,M,M,M,M,M,M,M,M,M,M,M,M,M,23.36,K8A0 121055Z AUTO 23006KT 10SM CLR M01/M06 A3012 RMK AO2
8A0,1/12/16 11:15,30.2,21.2,68.83,220,7,0.0,30.11,M,10.0,M,CLR,M,M,M,M,M,M,M,M,M,M,M,M,M,M,22.59,K8A0 121115Z AUTO 22007KT 10SM CLR M01/M06 A3011 RMK AO2
8A0,1/12/16 11:35,30.2,21.2,68.83,230,7,0.0,30.12,M,10.0,M,CLR,M,M,M,M,M,M,M,M,M,M,M,M,M,M,22.59,K8A0 121135Z AUTO 23007KT 10SM CLR M01/M06 A3012 RMK AO2
8A0,1/12/16 11:55,30.2,21.2,68.83,230,6,0.0,30.12,M,10.0,M,CLR,M,M,M,M,M,M,M,M,M,M,M,M,M,M,23.36,K8A0 121155Z AUTO 23006KT 10SM CLR M01/M06 A3012 RMK AO2
8A0,1/12/16 12:15,30.2,21.2,68.83,240,5,0.0,30.13,M,10.0,M,CLR,M,M,M,M,M,M,M,M,M,M,M,M,M,M,24.26,K8A0 121215Z AUTO 24005KT 10SM CLR M01/M06 A3013 RMK AO2
8A0,1/12/16 12:35,30.2,21.2,68.83,240,5,0.0,30.13,M,10.0,M,BKN,M,M,M,4400,M,M,M,M,M,M,M,M,M,M,24.26,K8A0 121235Z AUTO 24005KT 10SM BKN044 M01/M06 A3013 RMK AO2
8A0,1/12/16 12:55,30.2,21.2,68.83,220,4,0.0,30.13,M,10.0,M,SCT,M,M,M,4600,M,M,M,M,M,M,M,M,M,M,25.32,K8A0 121255Z AUTO 22004KT 10SM SCT046 M01/M06 A3013 RMK AO2
8A0,1/12/16 13:15,30.2,21.2,68.83,220,6,0.0,30.13,M,10.0,M,CLR,M,M,M,M,M,M,M,M,M,M,M,M,M,M,23.36,K8A0 121315Z AUTO 22006KT 10SM CLR M01/M06 A3013 RMK AO2
8A0,1/12/16 13:35,30.2,21.2,68.83,220,5,0.0,30.14,M,10.0,M,CLR,M,M,M,M,M,M,M,M,M,M,M,M,M,M,24.26,K8A0 121335Z AUTO 22005KT 10SM CLR M01/M06 A3014 RMK AO2
8A0,1/12/16 13:55,32.0,23.0,69.04,230,4,0.0,30.15,M,10.0,M,CLR,M,M,M,M,M,M,M,M,M,M,M,M,M,M,27.42,K8A0 121355Z AUTO 23004KT 10SM CLR 00/M05 A3015 RMK AO2
8A0,1/12/16 14:15,32.0,23.0,69.04,240,6,0.0,30.16,M,10.0,M,CLR,M,M,M,M,M,M,M,M,M,M,M,M,M,M,25.53,K8A0 121415Z AUTO 24006KT 10SM CLR 00/M05 A3016 RMK AO2
8A0,1/12/16 14:35,33.8,24.8,69.25,240,8,0.0,30.16,M,10.0,M,CLR,M,M,M,M,M,M,M,M,M,M,M,M,M,M,26.33,K8A0 121435Z AUTO 24008KT 10SM CLR 01/M04 A3016 RMK AO2
8A0,1/12/16 14:55,33.8,26.6,74.63,250,9,0.0,30.17,M,10.0,M,CLR,M,M,M,M,M,M,M,M,M,M,M,M,M,M,25.75,K8A0 121455Z AUTO 25009KT 10SM CLR 01/M03 A3017 RMK AO2
8A0,1/12/16 15:15,35.6,26.6,69.46,250,9,0.0,30.17,M,10.0,14,CLR,M,M,M,M,M,M,M,M,M,M,M,M,M,M,27.99,K8A0 121515Z AUTO 25009G14KT 10SM CLR 02/M03 A3017 RMK AO2
8A0,1/12/16 15:35,37.4,28.4,69.67,250,8,0.0,30.18,M,10.0,M,CLR,M,M,M,M,M,M,M,M,M,M,M,M,M,M,30.76,K8A0 121535Z AUTO 25008KT 10SM CLR 03/M02 A3018 RMK AO2
8A0,1/12/16 15:55,39.2,28.4,64.93,250,8,0.0,30.17,M,10.0,M,CLR,M,M,M,M,M,M,M,M,M,M,M,M,M,M,32.98,K8A0 121555Z AUTO 25008KT 10SM CLR 04/M02 A3017 RMK AO2
8A0,1/12/16 16:15,41.0,30.2,65.16,230,9,0.0,30.17,M,10.0,M,CLR,M,M,M,M,M,M,M,M,M,M,M,M,M,M,34.7,K8A0 121615Z AUTO 23009KT 10SM CLR 05/M01 A3017 RMK AO2
8A0,1/12/16 16:35,41.0,30.2,65.16,260,10,0.0,30.17,M,10.0,14,CLR,M,M,M,M,M,M,M,M,M,M,M,M,M,M,34.25,K8A0 121635Z AUTO 26010G14KT 10SM CLR 05/M01 A3017 RMK AO2
8A0,1/12/16 16:55,42.8,32.0,65.38,260,13,0.0,30.16,M,10.0,16,CLR,M,M,M,M,M,M,M,M,M,M,M,M,M,M,35.4,K8A0 121655Z AUTO 26013G16KT 10SM CLR 06/00 A3016 RMK AO2
8A0,1/12/16 17:15,44.6,32.0,61.03,250,9,0.0,30.15,M,10.0,M,CLR,M,M,M,M,M,M,M,M,M,M,M,M,M,M,39.18,K8A0 121715Z AUTO 25009KT 199V259 10SM CLR 07/00 A3015 RMK AO2
8A0,1/12/16 17:35,44.6,32.0,61.03,240,12,0.0,30.14,M,10.0,17,CLR,M,M,M,M,M,M,M,M,M,M,M,M,M,M,38.04,K8A0 121735Z AUTO 24012G17KT 10SM CLR 07/00 A3014 RMK AO2
8A0,1/12/16 17:55,46.4,32.0,57.0,250,15,0.0,30.13,M,10.0,18,CLR,M,M,M,M,M,M,M,M,M,M,M,M,M,M,39.45,K8A0 121755Z AUTO 25015G18KT 10SM CLR 08/00 A3013 RMK AO2
8A0,1/12/16 18:15,46.4,32.0,57.0,240,16,0.0,30.12,M,10.0,21,CLR,M,M,M,M,M,M,M,M,M,M,M,M,M,M,39.19,K8A0 121815Z AUTO 24016G21KT 10SM CLR 08/00 A3012 RMK AO2
8A0,1/12/16 18:35,46.4,32.0,57.0,250,13,0.0,30.11,M,10.0,18,CLR,M,M,M,M,M,M,M,M,M,M,M,M,M,M,40.02,K8A0 121835Z AUTO 25013G18KT 10SM CLR 08/00 A3011 RMK AO2
8A0,1/12/16 18:55,50.0,32.0,49.81,250,12,0.0,30.1,M,10.0,22,CLR,M,M,M,M,M,M,M,M,M,M,M,M,M,M,44.91,K8A0 121855Z AUTO 25012G22KT 10SM CLR 10/00 A3010 RMK AO2
8A0,1/12/16 19:15,50.0,33.8,53.54,260,13,0.0,30.09,M,10.0,25,CLR,M,M,M,M,M,M,M,M,M,M,M,M,M,M,44.63,K8A0 121915Z AUTO 26013G25KT 10SM CLR 10/01 A3009 RMK AO2
8A0,1/12/16 19:35,50.0,32.0,49.81,250,16,0.0,30.09,M,10.0,21,CLR,M,M,M,M,M,M,M,M,M,M,M,M,M,M,43.88,K8A0 121935Z AUTO 25016G21KT 10SM CLR 10/00 A3009 RMK AO2
8A0,1/12/16 19:55,51.8,32.0,46.59,260,15,0.0,30.08,M,10.0,20,CLR,M,M,M,M,M,M,M,M,M,M,M,M,M,M,51.8,K8A0 121955Z AUTO 26015G20KT 10SM CLR 11/00 A3008 RMK AO2
8A0,1/12/16 20:15,51.8,32.0,46.59,240,18,0.0,30.07,M,10.0,23,CLR,M,M,M,M,M,M,M,M,M,M,M,M,M,M,51.8,K8A0 122015Z AUTO 24018G23KT 10SM CLR 11/00 A3007 RMK AO2
8A0,1/12/16 20:35,51.8,33.8,50.08,250,12,0.0,30.08,M,10.0,22,CLR,M,M,M,M,M,M,M,M,M,M,M,M,M,M,51.8,K8A0 122035Z AUTO 25012G22KT 10SM CLR 11/01 A3008 RMK AO2
8A0,1/12/16 20:55,51.8,33.8,50.08,280,14,0.0,30.08,M,10.0,20,CLR,M,M,M,M,M,M,M,M,M,M,M,M,M,M,51.8,K8A0 122055Z AUTO 28014G20KT 10SM CLR 11/01 A3008 RMK AO2
8A0,1/12/16 21:15,51.8,32.0,46.59,280,12,0.0,30.08,M,10.0,19,CLR,M,M,M,M,M,M,M,M,M,M,M,M,M,M,51.8,K8A0 122115Z AUTO 28012G19KT 10SM CLR 11/00 A3008 RMK AO2
8A0,1/12/16 21:35,51.8,32.0,46.59,270,12,0.0,30.08,M,10.0,18,CLR,M,M,M,M,M,M,M,M,M,M,M,M,M,M,51.8,K8A0 122135Z AUTO 27012G18KT 10SM CLR 11/00 A3008 RMK AO2
8A0,1/12/16 21:55,51.8,32.0,46.59,290,12,0.0,30.09,M,10.0,M,CLR,M,M,M,M,M,M,M,M,M,M,M,M,M,M,51.8,K8A0 122155Z AUTO 29012KT 10SM CLR 11/00 A3009 RMK AO2
8A0,1/12/16 22:15,50.0,33.8,53.54,280,9,0.0,30.09,M,10.0,M,CLR,M,M,M,M,M,M,M,M,M,M,M,M,M,M,45.9,K8A0 122215Z AUTO 28009KT 10SM CLR 10/01 A3009 RMK AO2
8A0,1/12/16 22:35,50.0,33.8,53.54,290,9,0.0,30.09,M,10.0,M,CLR,M,M,M,M,M,M,M,M,M,M,M,M,M,M,45.9,K8A0 122235Z AUTO 29009KT 10SM CLR 10/01 A3009 RMK AO2
8A0,1/12/16 22:55,48.2,33.8,57.26,300,7,0.0,30.09,M,10.0,M,CLR,M,M,M,M,M,M,M,M,M,M,M,M,M,M,44.53,K8A0 122255Z AUTO 30007KT 10SM CLR 09/01 A3009 RMK AO2
8A0,1/12/16 23:15,46.4,33.8,61.28,290,5,0.0,30.1,M,10.0,M,CLR,M,M,M,M,M,M,M,M,M,M,M,M,M,M,43.5,K8A0 122315Z AUTO 29005KT 10SM CLR 08/01 A3010 RMK AO2
8A0,1/12/16 23:35,46.4,33.8,61.28,300,6,0.0,30.12,M,10.0,M,CLR,M,M,M,M,M,M,M,M,M,M,M,M,M,M,42.87,K8A0 122335Z AUTO 30006KT 10SM CLR 08/01 A3012 RMK AO2
8A0,1/12/16 23:55,44.6,33.8,65.61,310,5,0.0,30.12,M,10.0,M,CLR,M,M,M,M,M,M,M,M,M,M,M,M,M,M,41.36,K8A0 122355Z AUTO 31005KT 10SM CLR 07/01 A3012 RMK AO2
8A0,1/13/16 0:15,44.6,33.8,65.61,310,3,0.0,30.13,M,10.0,M,CLR,M,M,M,M,M,M,M,M,M,M,M,M,M,M,43.09,K8A0 130015Z AUTO 31003KT 10SM CLR 07/01 A3013 RMK AO2
8A0,1/13/16 0:35,42.8,33.8,70.28,300,4,0.0,30.14,M,10.0,M,CLR,M,M,M,M,M,M,M,M,M,M,M,M,M,M,40.03,K8A0 130035Z AUTO 30004KT 10SM CLR 06/01 A3014 RMK AO2
8A0,1/13/16 0:55,42.8,33.8,70.28,290,4,0.0,30.14,M,10.0,M,CLR,M,M,M,M,M,M,M,M,M,M,M,M,M,M,40.03,K8A0 130055Z AUTO 29004KT 10SM CLR 06/01 A3014 RMK AO2
8A0,1/13/16 1:15,42.8,32.0,65.38,280,5,0.0,30.14,M,10.0,M,CLR,M,M,M,M,M,M,M,M,M,M,M,M,M,M,39.22,K8A0 130115Z AUTO 28005KT 10SM CLR 06/00 A3014 RMK AO2
8A0,1/13/16 1:35,42.8,32.0,65.38,290,6,0.0,30.14,M,10.0,M,CLR,M,M,M,M,M,M,M,M,M,M,M,M,M,M,38.54,K8A0 130135Z AUTO 29006KT 10SM CLR 06/00 A3014 RMK AO2
8A0,1/13/16 1:55,42.8,32.0,65.38,290,5,0.0,30.15,M,10.0,M,CLR,M,M,M,M,M,M,M,M,M,M,M,M,M,M,39.22,K8A0 130155Z AUTO 29005KT 10SM CLR 06/00 A3015 RMK AO2
8A0,1/13/16 2:15,42.8,32.0,65.38,300,5,0.0,30.15,M,10.0,M,CLR,M,M,M,M,M,M,M,M,M,M,M,M,M,M,39.22,K8A0 130215Z AUTO 30005KT 10SM CLR 06/00 A3015 RMK AO2
8A0,1/13/16 2:35,42.8,32.0,65.38,320,8,0.0,30.16,M,10.0,M,CLR,M,M,M,M,M,M,M,M,M,M,M,M,M,M,37.42,K8A0 130235Z AUTO 32008KT 10SM CLR 06/00 A3016 RMK AO2
8A0,1/13/16 2:55,41.0,32.0,70.08,320,5,0.0,30.17,M,10.0,M,CLR,M,M,M,M,M,M,M,M,M,M,M,M,M,M,37.08,K8A0 130255Z AUTO 32005KT 10SM CLR 05/00 A3017 RMK AO2
8A0,1/13/16 3:15,41.0,32.0,70.08,310,6,0.0,30.18,M,10.0,M,CLR,M,M,M,M,M,M,M,M,M,M,M,M,M,M,36.37,K8A0 130315Z AUTO 31006KT 10SM CLR 05/00 A3018 RMK AO2
8A0,1/13/16 3:35,39.2,32.0,75.16,320,6,0.0,30.19,M,10.0,M,CLR,M,M,M,M,M,M,M,M,M,M,M,M,M,M,34.2,K8A0 130335Z AUTO 32006KT 10SM CLR 04/00 A3019 RMK AO2
8A0,1/13/16 3:55,39.2,32.0,75.16,330,7,0.0,30.19,M,10.0,M,CLR,M,M,M,M,M,M,M,M,M,M,M,M,M,M,33.56,K8A0 130355Z AUTO 33007KT 10SM CLR 04/00 A3019 RMK AO2
8A0,1/13/16 4:15,37.4,32.0,80.65,340,8,0.0,30.19,M,10.0,M,CLR,M,M,M,M,M,M,M,M,M,M,M,M,M,M,30.76,K8A0 130415Z AUTO 34008KT 10SM CLR 03/00 A3019 RMK AO2
8A0,1/13/16 4:35,37.4,30.2,74.98,330,5,0.0,30.2,M,10.0,M,CLR,M,M,M,M,M,M,M,M,M,M,M,M,M,M,32.81,K8A0 130435Z AUTO 33005KT 10SM CLR 03/M01 A3020 RMK AO2
8A0,1/13/16 4:55,37.4,30.2,74.98,0,0,0.0,30.2,M,10.0,M,CLR,M,M,M,M,M,M,M,M,M,M,M,M,M,M,37.4,K8A0 130455Z AUTO 00000KT 10SM CLR 03/M01 A3020 RMK AO2
8A0,1/13/16 5:15,35.6,30.2,80.51,0,0,0.0,30.2,M,10.0,M,CLR,M,M,M,M,M,M,M,M,M,M,M,M,M,M,35.6,K8A0 130515Z AUTO 00000KT 10SM CLR 02/M01 A3020 RMK AO2
8A0,1/13/16 5:35,35.6,28.4,74.8,320,3,0.0,30.2,M,10.0,M,CLR,M,M,M,M,M,M,M,M,M,M,M,M,M,M,32.8,K8A0 130535Z AUTO 32003KT 10SM CLR 02/M02 A3020 RMK AO2
8A0,1/13/16 5:55,35.6,28.4,74.8,330,4,0.0,30.2,M,10.0,M,CLR,M,M,M,M,M,M,M,M,M,M,M,M,M,M,31.62,K8A0 130555Z AUTO 33004KT 10SM CLR 02/M02 A3020 RMK AO2
8A0,1/13/16 6:15,32.0,30.2,92.97,350,5,0.0,30.2,M,10.0,M,CLR,M,M,M,M,M,M,M,M,M,M,M,M,M,M,26.4,K8A0 130615Z AUTO 35005KT 10SM CLR 00/M01 A3020 RMK AO2
8A0,1/13/16 6:35,33.8,30.2,86.49,360,4,0.0,30.2,M,10.0,M,CLR,M,M,M,M,M,M,M,M,M,M,M,M,M,M,29.52,K8A0 130635Z AUTO 36004KT 10SM CLR 01/M01 A3020 RMK AO2
8A0,1/13/16 6:55,33.8,30.2,86.49,350,4,0.0,30.2,M,10.0,M,CLR,M,M,M,M,M,M,M,M,M,M,M,M,M,M,29.52,K8A0 130655Z AUTO 35004KT 10SM CLR 01/M01 A3020 RMK AO2
8A0,1/13/16 7:15,32.0,30.2,92.97,0,0,0.0,30.2,M,10.0,M,CLR,M,M,M,M,M,M,M,M,M,M,M,M,M,M,32.0,K8A0 130715Z AUTO 00000KT 10SM CLR 00/M01 A3020 RMK AO2
8A0,1/13/16 7:35,32.0,28.4,86.39,360,3,0.0,30.2,M,10.0,M,CLR,M,M,M,M,M,M,M,M,M,M,M,M,M,M,28.69,K8A0 130735Z AUTO 36003KT 10SM CLR 00/M02 A3020 RMK AO2
8A0,1/13/16 7:55,30.2,30.2,100.0,10,5,0.0,30.2,M,10.0,M,CLR,M,M,M,M,M,M,M,M,M,M,M,M,M,M,24.26,K8A0 130755Z AUTO 01005KT 10SM CLR M01/M01 A3020 RMK AO2
8A0,1/13/16 8:15,32.0,28.4,86.39,20,6,0.0,30.2,M,10.0,M,CLR,M,M,M,M,M,M,M,M,M,M,M,M,M,M,25.53,K8A0 130815Z AUTO 02006KT 10SM CLR 00/M02 A3020 RMK AO2
8A0,1/13/16 8:35,32.0,28.4,86.39,20,5,0.0,30.2,M,10.0,M,CLR,M,M,M,M,M,M,M,M,M,M,M,M,M,M,26.4,K8A0 130835Z AUTO 02005KT 10SM CLR 00/M02 A3020 RMK AO2
8A0,1/13/16 8:55,32.0,28.4,86.39,40,4,0.0,30.2,M,10.0,M,CLR,M,M,M,M,M,M,M,M,M,M,M,M,M,M,27.42,K8A0 130855Z AUTO 04004KT 10SM CLR 00/M02 A3020 RMK AO2
8A0,1/13/16 9:15,30.2,28.4,92.92,30,6,0.0,30.19,M,10.0,M,CLR,M,M,M,M,M,M,M,M,M,M,M,M,M,M,23.36,K8A0 130915Z AUTO 03006KT 10SM CLR M01/M02 A3019 RMK AO2
8A0,1/13/16 9:35,30.2,28.4,92.92,20,8,0.0,30.19,M,10.0,M,CLR,M,M,M,M,M,M,M,M,M,M,M,M,M,M,21.9,K8A0 130935Z AUTO 02008KT 10SM CLR M01/M02 A3019 RMK AO2
8A0,1/13/16 9:55,30.2,26.6,86.28,20,5,0.0,30.19,M,10.0,M,CLR,M,M,M,M,M,M,M,M,M,M,M,M,M,M,24.26,K8A0 130955Z AUTO 02005KT 10SM CLR M01/M03 A3019 RMK AO2
8A0,1/13/16 10:15,30.2,26.6,86.28,10,3,0.0,30.19,M,10.0,M,CLR,M,M,M,M,M,M,M,M,M,M,M,M,M,M,26.63,K8A0 131015Z AUTO 01003KT 10SM CLR M01/M03 A3019 RMK AO2
8A0,1/13/16 10:35,30.2,26.6,86.28,0,0,0.0,30.2,M,10.0,M,CLR,M,M,M,M,M,M,M,M,M,M,M,M,M,M,30.2,K8A0 131035Z AUTO 00000KT 10SM CLR M01/M03 A3020 RMK AO2
8A0,1/13/16 10:55,28.4,26.6,92.86,0,0,0.0,30.21,M,10.0,M,CLR,M,M,M,M,M,M,M,M,M,M,M,M,M,M,28.4,K8A0 131055Z AUTO 00000KT 10SM CLR M02/M03 A3021 RMK AO2
8A0,1/13/16 11:15,28.4,24.8,86.18,0,0,0.0,30.21,M,10.0,M,CLR,M,M,M,M,M,M,M,M,M,M,M,M,M,M,28.4,K8A0 131115Z AUTO 00000KT 10SM CLR M02/M04 A3021 RMK AO2
8A0,1/13/16 11:35,28.4,24.8,86.18,0,0,0.0,30.21,M,10.0,M,CLR,M,M,M,M,M,M,M,M,M,M,M,M,M,M,28.4,K8A0 131135Z AUTO 00000KT 10SM CLR M02/M04 A3021 RMK AO2
8A0,1/13/16 11:55,28.4,26.6,92.86,30,3,0.0,30.21,M,10.0,M,CLR,M,M,M,M,M,M,M,M,M,M,M,M,M,M,24.57,K8A0 131155Z AUTO 03003KT 10SM CLR M02/M03 A3021 RMK AO2
8A0,1/13/16 12:15,28.4,23.0,79.92,0,0,0.0,30.23,M,10.0,M,CLR,M,M,M,M,M,M,M,M,M,M,M,M,M,M,28.4,K8A0 131215Z AUTO 00000KT 10SM CLR M02/M05 A3023 RMK AO2
8A0,1/13/16 12:35,28.4,23.0,79.92,0,0,0.0,30.24,M,10.0,M,CLR,M,M,M,M,M,M,M,M,M,M,M,M,M,M,28.4,K8A0 131235Z AUTO 00000KT 10SM CLR M02/M05 A3024 RMK AO2
8A0,1/13/16 12:55,26.6,24.8,92.8,0,0,0.0,30.24,M,10.0,M,CLR,M,M,M,M,M,M,M,M,M,M,M,M,M,M,26.6,K8A0 131255Z AUTO 00000KT 10SM CLR M03/M04 A3024 RMK AO2
8A0,1/13/16 13:15,26.6,24.8,92.8,90,3,0.0,30.24,M,10.0,M,CLR,M,M,M,M,M,M,M,M,M,M,M,M,M,M,22.52,K8A0 131315Z AUTO 09003KT 10SM CLR M03/M04 A3024 RMK AO2
8A0,1/13/16 13:35,26.6,26.6,100.0,0,0,0.0,30.24,M,10.0,M,CLR,M,M,M,M,M,M,M,M,M,M,M,M,M,M,26.6,K8A0 131335Z AUTO 00000KT 10SM CLR M03/M03 A3024 RMK AO2
8A0,1/13/16 13:55,28.4,23.0,79.92,0,0,0.0,30.25,M,10.0,M,CLR,M,M,M,M,M,M,M,M,M,M,M,M,M,M,28.4,K8A0 131355Z AUTO 00000KT 10SM CLR M02/M05 A3025 RMK AO2
8A0,1/13/16 14:15,32.0,24.8,74.44,0,0,0.0,30.26,M,10.0,M,CLR,M,M,M,M,M,M,M,M,M,M,M,M,M,M,32.0,K8A0 131415Z AUTO 00000KT 10SM CLR 00/M04 A3026 RMK AO2
8A0,1/13/16 14:35,32.0,23.0,69.04,80,3,0.0,30.26,M,10.0,M,CLR,M,M,M,M,M,M,M,M,M,M,M,M,M,M,28.69,K8A0 131435Z AUTO 08003KT 10SM CLR 00/M05 A3026 RMK AO2
8A0,1/13/16 14:55,32.0,23.0,69.04,0,0,0.0,30.26,M,10.0,M,CLR,M,M,M,M,M,M,M,M,M,M,M,M,M,M,32.0,K8A0 131455Z AUTO 00000KT 10SM CLR 00/M05 A3026 RMK AO2
8A0,1/13/16 15:15,33.8,19.4,55.14,50,5,0.0,30.26,M,10.0,M,CLR,M,M,M,M,M,M,M,M,M,M,M,M,M,M,28.53,K8A0 131515Z AUTO 05005KT 10SM CLR 01/M07 A3026 RMK AO2
8A0,1/13/16 15:35,35.6,21.2,55.41,90,4,0.0,30.26,M,10.0,M,CLR,M,M,M,M,M,M,M,M,M,M,M,M,M,M,31.62,K8A0 131535Z AUTO 09004KT 10SM CLR 02/M06 A3026 RMK AO2
8A0,1/13/16 15:55,35.6,21.2,55.41,0,0,0.0,30.26,M,10.0,M,CLR,M,M,M,M,M,M,M,M,M,M,M,M,M,M,35.6,K8A0 131555Z AUTO 00000KT 10SM CLR 02/M06 A3026 RMK AO2
8A0,1/13/16 16:15,37.4,23.0,55.68,0,0,0.0,30.26,M,10.0,M,CLR,M,M,M,M,M,M,M,M,M,M,M,M,M,M,37.4,K8A0 131615Z AUTO 00000KT 10SM CLR 03/M05 A3026 RMK AO2
8A0,1/13/16 16:35,37.4,23.0,55.68,300,3,0.0,30.26,M,10.0,M,CLR,M,M,M,M,M,M,M,M,M,M,M,M,M,M,34.86,K8A0 131635Z AUTO 30003KT 10SM CLR 03/M05 A3026 RMK AO2
8A0,1/13/16 16:55,37.4,24.8,60.04,280,3,0.0,30.26,M,10.0,M,CLR,M,M,M,M,M,M,M,M,M,M,M,M,M,M,34.86,K8A0 131655Z AUTO 28003KT 10SM CLR 03/M04 A3026 RMK AO2
8A0,1/13/16 17:15,39.2,26.6,60.29,270,3,0.0,30.25,M,10.0,M,CLR,M,M,M,M,M,M,M,M,M,M,M,M,M,M,36.92,K8A0 131715Z AUTO 27003KT 10SM CLR 04/M03 A3025 RMK AO2
8A0,1/13/16 17:35,41.0,26.6,56.22,360,4,0.0,30.24,M,10.0,M,CLR,M,M,M,M,M,M,M,M,M,M,M,M,M,M,37.93,K8A0 131735Z AUTO 36004KT 10SM CLR 05/M03 A3024 RMK AO2
8A0,1/13/16 17:55,42.8,28.4,56.48,230,4,0.0,30.24,M,10.0,M,CLR,M,M,M,M,M,M,M,M,M,M,M,M,M,M,40.03,K8A0 131755Z AUTO 23004KT 10SM CLR 06/M02 A3024 RMK AO2
8A0,1/13/16 18:15,42.8,28.4,56.48,290,5,0.0,30.22,M,10.0,M,CLR,M,M,M,M,M,M,M,M,M,M,M,M,M,M,39.22,K8A0 131815Z AUTO 29005KT 10SM CLR 06/M02 A3022 RMK AO2
8A0,1/13/16 18:35,42.8,28.4,56.48,270,5,0.0,30.21,M,10.0,M,CLR,M,M,M,M,M,M,M,M,M,M,M,M,M,M,39.22,K8A0 131835Z AUTO 27005KT 10SM CLR 06/M02 A3021 RMK AO2
8A0,1/13/16 18:55,42.8,28.4,56.48,280,4,0.0,30.21,M,10.0,M,CLR,M,M,M,M,M,M,M,M,M,M,M,M,M,M,40.03,K8A0 131855Z AUTO 28004KT 10SM CLR 06/M02 A3021 RMK AO2
8A0,1/13/16 19:15,44.6,28.4,52.72,260,4,0.0,30.2,M,10.0,M,CLR,M,M,M,M,M,M,M,M,M,M,M,M,M,M,42.13,K8A0 131915Z AUTO 26004KT 10SM CLR 07/M02 A3020 RMK AO2
8A0,1/13/16 19:35,44.6,30.2,56.74,240,6,0.0,30.19,M,10.0,M,CLR,M,M,M,M,M,M,M,M,M,M,M,M,M,M,40.71,K8A0 131935Z AUTO 24006KT 10SM CLR 07/M01 A3019 RMK AO2
8A0,1/13/16 19:55,44.6,30.2,56.74,230,7,0.0,30.19,M,10.0,M,CLR,M,M,M,M,M,M,M,M,M,M,M,M,M,M,40.14,K8A0 131955Z AUTO 23007KT 10SM CLR 07/M01 A3019 RMK AO2
8A0,1/13/16 20:15,46.4,30.2,53.0,280,7,0.0,30.18,M,10.0,M,CLR,M,M,M,M,M,M,M,M,M,M,M,M,M,M,42.33,K8A0 132015Z AUTO 28007KT 10SM CLR 08/M01 A3018 RMK AO2
8A0,1/13/16 20:35,46.4,30.2,53.0,270,3,0.0,30.18,M,10.0,M,CLR,M,M,M,M,M,M,M,M,M,M,M,M,M,M,45.15,K8A0 132035Z AUTO 27003KT 10SM CLR 08/M01 A3018 RMK AO2
8A0,1/13/16 20:55,46.4,30.2,53.0,240,5,0.0,30.18,M,10.0,M,CLR,M,M,M,M,M,M,M,M,M,M,M,M,M,M,43.5,K8A0 132055Z AUTO 24005KT 10SM CLR 08/M01 A3018 RMK AO2
8A0,1/13/16 21:15,46.4,30.2,53.0,250,5,0.0,30.17,M,10.0,M,CLR,M,M,M,M,M,M,M,M,M,M,M,M,M,M,43.5,K8A0 132115Z AUTO 25005KT 10SM CLR 08/M01 A3017 RMK AO2
8A0,1/13/16 21:35,46.4,32.0,57.0,170,6,0.0,30.16,M,10.0,M,CLR,M,M,M,M,M,M,M,M,M,M,M,M,M,M,42.87,K8A0 132135Z AUTO 17006KT 10SM CLR 08/00 A3016 RMK AO2
8A0,1/13/16 21:55,44.6,32.0,61.03,190,5,0.0,30.16,M,10.0,M,CLR,M,M,M,M,M,M,M,M,M,M,M,M,M,M,41.36,K8A0 132155Z AUTO 19005KT 10SM CLR 07/00 A3016 RMK AO2
8A0,1/13/16 22:15,44.6,32.0,61.03,220,5,0.0,30.16,M,10.0,M,CLR,M,M,M,M,M,M,M,M,M,M,M,M,M,M,41.36,K8A0 132215Z AUTO 22005KT 10SM CLR 07/00 A3016 RMK AO2
8A0,1/13/16 22:35,44.6,30.2,56.74,240,3,0.0,30.16,M,10.0,M,CLR,M,M,M,M,M,M,M,M,M,M,M,M,M,M,43.09,K8A0 132235Z AUTO 24003KT 10SM CLR 07/M01 A3016 RMK AO2
8A0,1/13/16 22:55,42.8,32.0,65.38,210,3,0.0,30.15,M,10.0,M,CLR,M,M,M,M,M,M,M,M,M,M,M,M,M,M,41.03,K8A0 132255Z AUTO 21003KT 10SM CLR 06/00 A3015 RMK AO2
8A0,1/13/16 23:15,42.8,30.2,60.79,0,0,0.0,30.15,M,10.0,M,CLR,M,M,M,M,M,M,M,M,M,M,M,M,M,M,42.8,K8A0 132315Z AUTO 00000KT 10SM CLR 06/M01 A3015 RMK AO2
8A0,1/13/16 23:35,41.0,30.2,65.16,0,0,0.0,30.16,M,10.0,M,CLR,M,M,M,M,M,M,M,M,M,M,M,M,M,M,41.0,K8A0 132335Z AUTO 00000KT 10SM CLR 05/M01 A3016 RMK AO2
8A0,1/13/16 23:55,39.2,30.2,69.88,0,0,0.0,30.16,M,10.0,M,CLR,M,M,M,M,M,M,M,M,M,M,M,M,M,M,39.2,K8A0 132355Z AUTO 00000KT 10SM CLR 04/M01 A3016 RMK AO2
8A0,1/14/16 0:15,39.2,30.2,69.88,160,3,0.0,30.16,M,10.0,M,CLR,M,M,M,M,M,M,M,M,M,M,M,M,M,M,36.92,K8A0 140015Z AUTO 16003KT 10SM CLR 04/M01 A3016 RMK AO2
8A0,1/14/16 0:35,39.2,30.2,69.88,160,5,0.0,30.16,M,10.0,M,CLR,M,M,M,M,M,M,M,M,M,M,M,M,M,M,34.95,K8A0 140035Z AUTO 16005KT 10SM CLR 04/M01 A3016 RMK AO2
8A0,1/14/16 0:55,39.2,30.2,69.88,160,5,0.0,30.15,M,10.0,M,CLR,M,M,M,M,M,M,M,M,M,M,M,M,M,M,34.95,K8A0 140055Z AUTO 16005KT 10SM CLR 04/M01 A3015 RMK AO2
8A0,1/14/16 1:15,37.4,30.2,74.98,160,5,0.0,30.16,M,10.0,M,CLR,M,M,M,M,M,M,M,M,M,M,M,M,M,M,32.81,K8A0 140115Z AUTO 16005KT 10SM CLR 03/M01 A3016 RMK AO2
8A0,1/14/16 1:35,37.4,30.2,74.98,150,5,0.0,30.15,M,10.0,M,CLR,M,M,M,M,M,M,M,M,M,M,M,M,M,M,32.81,K8A0 140135Z AUTO 15005KT 10SM CLR 03/M01 A3015 RMK AO2
8A0,1/14/16 1:55,39.2,30.2,69.88,160,5,0.0,30.15,M,10.0,M,CLR,M,M,M,M,M,M,M,M,M,M,M,M,M,M,34.95,K8A0 140155Z AUTO 16005KT 10SM CLR 04/M01 A3015 RMK AO2
8A0,1/14/16 2:15,39.2,30.2,69.88,170,5,0.0,30.15,M,10.0,M,CLR,M,M,M,M,M,M,M,M,M,M,M,M,M,M,34.95,K8A0 140215Z AUTO 17005KT 10SM CLR 04/M01 A3015 RMK AO2
8A0,1/14/16 2:35,35.6,30.2,80.51,160,4,0.0,30.15,M,10.0,M,CLR,M,M,M,M,M,M,M,M,M,M,M,M,M,M,31.62,K8A0 140235Z AUTO 16004KT 10SM CLR 02/M01 A3015 RMK AO2
8A0,1/14/16 2:55,35.6,30.2,80.51,170,5,0.0,30.14,M,10.0,M,CLR,M,M,M,M,M,M,M,M,M,M,M,M,M,M,30.67,K8A0 140255Z AUTO 17005KT 10SM CLR 02/M01 A3014 RMK AO2
8A0,1/14/16 3:15,37.4,30.2,74.98,160,5,0.0,30.14,M,10.0,M,CLR,M,M,M,M,M,M,M,M,M,M,M,M,M,M,32.81,K8A0 140315Z AUTO 16005KT 10SM CLR 03/M01 A3014 RMK AO2
8A0,1/14/16 3:35,35.6,30.2,80.51,170,4,0.0,30.14,M,10.0,M,CLR,M,M,M,M,M,M,M,M,M,M,M,M,M,M,31.62,K8A0 140335Z AUTO 17004KT 10SM CLR 02/M01 A3014 RMK AO2
8A0,1/14/16 3:55,37.4,32.0,80.65,170,6,0.0,30.13,M,10.0,M,CLR,M,M,M,M,M,M,M,M,M,M,M,M,M,M,32.03,K8A0 140355Z AUTO 17006KT 10SM CLR 03/00 A3013 RMK AO2
8A0,1/14/16 4:15,35.6,30.2,80.51,170,5,0.0,30.12,M,10.0,M,CLR,M,M,M,M,M,M,M,M,M,M,M,M,M,M,30.67,K8A0 140415Z AUTO 17005KT 10SM CLR 02/M01 A3012 RMK AO2
8A0,1/14/16 4:35,32.0,30.2,92.97,170,3,0.0,30.12,M,10.0,M,CLR,M,M,M,M,M,M,M,M,M,M,M,M,M,M,28.69,K8A0 140435Z AUTO 17003KT 10SM CLR 00/M01 A3012 RMK AO2
8A0,1/14/16 4:55,35.6,32.0,86.59,160,3,0.0,30.12,M,10.0,M,CLR,M,M,M,M,M,M,M,M,M,M,M,M,M,M,32.8,K8A0 140455Z AUTO 16003KT 10SM CLR 02/00 A3012 RMK AO2
8A0,1/14/16 5:15,32.0,30.2,92.97,0,0,0.0,30.12,M,10.0,M,CLR,M,M,M,M,M,M,M,M,M,M,M,M,M,M,32.0,K8A0 140515Z AUTO 00000KT 10SM CLR 00/M01 A3012 RMK AO2
8A0,1/14/16 5:35,35.6,32.0,86.59,180,4,0.0,30.12,M,10.0,M,CLR,M,M,M,M,M,M,M,M,M,M,M,M,M,M,31.62,K8A0 140535Z AUTO 18004KT 10SM CLR 02/00 A3012 RMK AO2
8A0,1/14/16 5:55,33.8,32.0,93.03,180,6,0.0,30.11,M,10.0,M,CLR,M,M,M,M,M,M,M,M,M,M,M,M,M,M,27.7,K8A0 140555Z AUTO 18006KT 10SM CLR 01/00 A3011 RMK AO2
8A0,1/14/16 6:15,37.4,32.0,80.65,190,4,0.0,30.11,M,10.0,M,CLR,M,M,M,M,M,M,M,M,M,M,M,M,M,M,33.73,K8A0 140615Z AUTO 19004KT 10SM CLR 03/00 A3011 RMK AO2
8A0,1/14/16 6:35,37.4,32.0,80.65,200,5,0.0,30.1,M,10.0,M,CLR,M,M,M,M,M,M,M,M,M,M,M,M,M,M,32.81,K8A0 140635Z AUTO 20005KT 10SM CLR 03/00 A3010 RMK AO2
8A0,1/14/16 6:55,37.4,32.0,80.65,200,3,0.0,30.1,M,10.0,M,CLR,M,M,M,M,M,M,M,M,M,M,M,M,M,M,34.86,K8A0 140655Z AUTO 20003KT 10SM CLR 03/00 A3010 RMK AO2
8A0,1/14/16 7:15,35.6,32.0,86.59,0,0,0.0,30.1,M,10.0,M,CLR,M,M,M,M,M,M,M,M,M,M,M,M,M,M,35.6,K8A0 140715Z AUTO 00000KT 10SM CLR 02/00 A3010 RMK AO2
8A0,1/14/16 7:35,33.8,30.2,86.49,0,0,0.0,30.11,M,10.0,M,CLR,M,M,M,M,M,M,M,M,M,M,M,M,M,M,33.8,K8A0 140735Z AUTO 00000KT 10SM CLR 01/M01 A3011 RMK AO2
8A0,1/14/16 7:55,33.8,32.0,93.03,0,0,0.0,30.11,M,10.0,M,CLR,M,M,M,M,M,M,M,M,M,M,M,M,M,M,33.8,K8A0 140755Z AUTO 00000KT 10SM CLR 01/00 A3011 RMK AO2
8A0,1/14/16 8:15,33.8,32.0,93.03,0,0,0.0,30.11,M,10.0,M,CLR,M,M,M,M,M,M,M,M,M,M,M,M,M,M,33.8,K8A0 140815Z AUTO 00000KT 10SM CLR 01/00 A3011 RMK AO2
8A0,1/14/16 8:35,32.0,32.0,100.0,0,0,0.0,30.11,M,10.0,M,CLR,M,M,M,M,M,M,M,M,M,M,M,M,M,M,32.0,K8A0 140835Z AUTO 00000KT 10SM CLR 00/00 A3011 RMK AO2
8A0,1/14/16 8:55,33.8,32.0,93.03,0,0,0.0,30.11,M,10.0,M,CLR,M,M,M,M,M,M,M,M,M,M,M,M,M,M,33.8,K8A0 140855Z AUTO 00000KT 10SM CLR 01/00 A3011 RMK AO2
8A0,1/14/16 9:15,33.8,32.0,93.03,0,0,0.0,30.11,M,10.0,M,CLR,M,M,M,M,M,M,M,M,M,M,M,M,M,M,33.8,K8A0 140915Z AUTO 00000KT 10SM CLR 01/00 A3011 RMK AO2
8A0,1/14/16 9:35,33.8,32.0,93.03,0,0,0.0,30.1,M,10.0,M,CLR,M,M,M,M,M,M,M,M,M,M,M,M,M,M,33.8,K8A0 140935Z AUTO 00000KT 10SM CLR 01/00 A3010 RMK AO2
8A0,1/14/16 9:55,32.0,32.0,100.0,0,0,0.0,30.1,M,10.0,M,CLR,M,M,M,M,M,M,M,M,M,M,M,M,M,M,32.0,K8A0 140955Z AUTO 00000KT 10SM CLR 00/00 A3010 RMK AO2
8A0,1/14/16 10:15,32.0,32.0,100.0,0,0,0.0,30.1,M,10.0,M,CLR,M,M,M,M,M,M,M,M,M,M,M,M,M,M,32.0,K8A0 141015Z AUTO 00000KT 10SM CLR 00/00 A3010 RMK AO2
8A0,1/14/16 10:35,32.0,32.0,100.0,0,0,0.0,30.09,M,10.0,M,CLR,M,M,M,M,M,M,M,M,M,M,M,M,M,M,32.0,K8A0 141035Z AUTO 00000KT 10SM CLR 00/00 A3009 RMK AO2
8A0,1/14/16 10:55,35.6,32.0,86.59,250,3,0.0,30.09,M,10.0,M,CLR,M,M,M,M,M,M,M,M,M,M,M,M,M,M,32.8,K8A0 141055Z AUTO 25003KT 10SM CLR 02/00 A3009 RMK AO2
8A0,1/14/16 11:15,32.0,32.0,100.0,240,3,0.0,30.09,M,10.0,M,CLR,M,M,M,M,M,M,M,M,M,M,M,M,M,M,28.69,K8A0 141115Z AUTO 24003KT 10SM CLR 00/00 A3009 RMK AO2
8A0,1/14/16 11:35,32.0,32.0,100.0,200,3,0.0,30.09,M,10.0,M,CLR,M,M,M,M,M,M,M,M,M,M,M,M,M,M,28.69,K8A0 141135Z AUTO 20003KT 10SM CLR 00/00 A3009 RMK AO2
8A0,1/14/16 11:55,32.0,32.0,100.0,170,4,0.0,30.1,M,10.0,M,CLR,M,M,M,M,M,M,M,M,M,M,M,M,M,M,27.42,K8A0 141155Z AUTO 17004KT 10SM CLR 00/00 A3010 RMK AO2
8A0,1/14/16 12:15,33.8,32.0,93.03,180,4,0.0,30.1,M,10.0,M,CLR,M,M,M,M,M,M,M,M,M,M,M,M,M,M,29.52,K8A0 141215Z AUTO 18004KT 10SM CLR 01/00 A3010 RMK AO2
8A0,1/14/16 12:35,35.6,32.0,86.59,170,3,0.0,30.1,M,10.0,M,CLR,M,M,M,M,M,M,M,M,M,M,M,M,M,M,32.8,K8A0 141235Z AUTO 17003KT 10SM CLR 02/00 A3010 RMK AO2
8A0,1/14/16 12:55,33.8,32.0,93.03,170,4,0.0,30.11,M,10.0,M,CLR,M,M,M,M,M,M,M,M,M,M,M,M,M,M,29.52,K8A0 141255Z AUTO 17004KT 10SM CLR 01/00 A3011 RMK AO2
8A0,1/14/16 13:15,35.6,32.0,86.59,160,3,0.0,30.11,M,10.0,M,CLR,M,M,M,M,M,M,M,M,M,M,M,M,M,M,32.8,K8A0 141315Z AUTO 16003KT 10SM CLR 02/00 A3011 RMK AO2
8A0,1/14/16 13:35,35.6,32.0,86.59,180,3,0.0,30.12,M,10.0,M,CLR,M,M,M,M,M,M,M,M,M,M,M,M,M,M,32.8,K8A0 141335Z AUTO 18003KT 10SM CLR 02/00 A3012 RMK AO2
8A0,1/14/16 13:55,39.2,33.8,80.79,0,0,0.0,30.12,M,10.0,M,CLR,M,M,M,M,M,M,M,M,M,M,M,M,M,M,39.2,K8A0 141355Z AUTO 00000KT 10SM CLR 04/01 A3012 RMK AO2
8A0,1/14/16 14:15,41.0,33.8,75.33,0,0,0.0,30.13,M,10.0,M,CLR,M,M,M,M,M,M,M,M,M,M,M,M,M,M,41.0,K8A0 141415Z AUTO 00000KT 10SM CLR 05/01 A3013 RMK AO2
8A0,1/14/16 14:35,42.8,35.6,75.5,210,3,0.0,30.13,M,10.0,M,CLR,M,M,M,M,M,M,M,M,M,M,M,M,M,M,41.03,K8A0 141435Z AUTO 21003KT 10SM CLR 06/02 A3013 RMK AO2
8A0,1/14/16 14:55,44.6,33.8,65.61,210,5,0.0,30.14,M,10.0,M,CLR,M,M,M,M,M,M,M,M,M,M,M,M,M,M,41.36,K8A0 141455Z AUTO 21005KT 10SM CLR 07/01 A3014 RMK AO2
8A0,1/14/16 15:15,46.4,33.8,61.28,210,5,0.0,30.15,M,10.0,M,CLR,M,M,M,M,M,M,M,M,M,M,M,M,M,M,43.5,K8A0 141515Z AUTO 21005KT 10SM CLR 08/01 A3015 RMK AO2
8A0,1/14/16 15:35,46.4,33.8,61.28,230,4,0.0,30.14,M,10.0,M,CLR,M,M,M,M,M,M,M,M,M,M,M,M,M,M,44.24,K8A0 141535Z AUTO 23004KT 10SM CLR 08/01 A3014 RMK AO2
8A0,1/14/16 15:55,50.0,35.6,57.52,210,7,0.0,30.14,M,10.0,M,CLR,M,M,M,M,M,M,M,M,M,M,M,M,M,M,46.72,K8A0 141555Z AUTO 21007KT 10SM CLR 10/02 A3014 RMK AO2
8A0,1/14/16 16:15,51.8,35.6,53.81,200,8,0.0,30.13,M,10.0,M,CLR,M,M,M,M,M,M,M,M,M,M,M,M,M,M,51.8,K8A0 141615Z AUTO 20008KT 10SM CLR 11/02 A3013 RMK AO2
8A0,1/14/16 16:35,51.8,35.6,53.81,230,11,0.0,30.14,M,10.0,M,CLR,M,M,M,M,M,M,M,M,M,M,M,M,M,M,51.8,K8A0 141635Z AUTO 23011KT 10SM CLR 11/02 A3014 RMK AO2
8A0,1/14/16 16:55,51.8,35.6,53.81,210,9,0.0,30.12,M,10.0,M,CLR,M,M,M,M,M,M,M,M,M,M,M,M,M,M,51.8,K8A0 141655Z AUTO 21009KT 10SM CLR 11/02 A3012 RMK AO2
8A0,1/14/16 17:15,55.4,35.6,47.16,230,14,0.0,30.11,M,10.0,18,CLR,M,M,M,M,M,M,M,M,M,M,M,M,M,M,55.4,K8A0 141715Z AUTO 23014G18KT 10SM CLR 13/02 A3011 RMK AO2
8A0,1/14/16 17:35,55.4,35.6,47.16,240,15,0.0,30.1,M,10.0,20,CLR,M,M,M,M,M,M,M,M,M,M,M,M,M,M,55.4,K8A0 141735Z AUTO 24015G20KT 10SM CLR 13/02 A3010 RMK AO2
8A0,1/14/16 17:55,55.4,35.6,47.16,230,11,0.0,30.08,M,10.0,15,CLR,M,M,M,M,M,M,M,M,M,M,M,M,M,M,55.4,K8A0 141755Z AUTO 23011G15KT 10SM CLR 13/02 A3008 RMK AO2
8A0,1/14/16 18:15,55.4,35.6,47.16,240,9,0.0,30.06,M,10.0,14,CLR,M,M,M,M,M,M,M,M,M,M,M,M,M,M,55.4,K8A0 141815Z AUTO 24009G14KT 10SM CLR 13/02 A3006 RMK AO2
8A0,1/14/16 18:35,55.4,35.6,47.16,240,10,0.0,30.05,M,10.0,M,CLR,M,M,M,M,M,M,M,M,M,M,M,M,M,M,55.4,K8A0 141835Z AUTO 24010KT 199V259 10SM CLR 13/02 A3005 RMK AO2
8A0,1/14/16 18:55,57.2,37.4,47.44,240,7,0.0,30.04,M,10.0,M,CLR,M,M,M,M,M,M,M,M,M,M,M,M,M,M,57.2,K8A0 141855Z AUTO 24007KT 209V269 10SM CLR 14/03 A3004 RMK AO2
8A0,1/14/16 19:15,57.2,35.6,44.19,230,10,0.0,30.03,M,10.0,M,CLR,M,M,M,M,M,M,M,M,M,M,M,M,M,M,57.2,K8A0 141915Z AUTO 23010KT 10SM CLR 14/02 A3003 RMK AO2
8A0,1/14/16 19:35,59.0,37.4,44.47,250,4,0.0,30.02,M,10.0,M,CLR,M,M,M,M,M,M,M,M,M,M,M,M,M,M,59.0,K8A0 141935Z AUTO 25004KT 10SM CLR 15/03 A3002 RMK AO2
8A0,1/14/16 19:55,57.2,35.6,44.19,210,7,0.0,30.01,M,10.0,M,CLR,M,M,M,M,M,M,M,M,M,M,M,M,M,M,57.2,K8A0 141955Z AUTO 21007KT 10SM CLR 14/02 A3001 RMK AO2
8A0,1/14/16 20:15,59.0,35.6,41.42,240,9,0.0,30.01,M,10.0,M,CLR,M,M,M,M,M,M,M,M,M,M,M,M,M,M,59.0,K8A0 142015Z AUTO 24009KT 10SM CLR 15/02 A3001 RMK AO2
8A0,1/14/16 20:35,57.2,35.6,44.19,220,5,0.0,30.0,M,10.0,M,CLR,M,M,M,M,M,M,M,M,M,M,M,M,M,M,57.2,K8A0 142035Z AUTO 22005KT 10SM CLR 14/02 A3000 RMK AO2
8A0,1/14/16 20:55,57.2,35.6,44.19,170,4,0.0,30.0,M,10.0,M,CLR,M,M,M,M,M,M,M,M,M,M,M,M,M,M,57.2,K8A0 142055Z AUTO 17004KT 10SM CLR 14/02 A3000 RMK AO2
8A0,1/14/16 21:15,59.0,35.6,41.42,150,6,0.0,29.99,M,10.0,M,CLR,M,M,M,M,M,M,M,M,M,M,M,M,M,M,59.0,K8A0 142115Z AUTO 15006KT 10SM CLR 15/02 A2999 RMK AO2
8A0,1/14/16 21:35,57.2,35.6,44.19,170,7,0.0,29.99,M,10.0,M,CLR,M,M,M,M,M,M,M,M,M,M,M,M,M,M,57.2,K8A0 142135Z AUTO 17007KT 10SM CLR 14/02 A2999 RMK AO2
8A0,1/14/16 21:55,57.2,35.6,44.19,150,8,0.0,29.99,M,10.0,14,CLR,M,M,M,M,M,M,M,M,M,M,M,M,M,M,57.2,K8A0 142155Z AUTO 15008G14KT 10SM CLR 14/02 A2999 RMK AO2
8A0,1/14/16 22:15,55.4,37.4,50.64,170,6,0.0,30.0,M,10.0,M,CLR,M,M,M,M,M,M,M,M,M,M,M,M,M,M,55.4,K8A0 142215Z AUTO 17006KT 10SM CLR 13/03 A3000 RMK AO2
8A0,1/14/16 22:35,53.6,37.4,54.07,170,5,0.0,30.0,M,10.0,M,CLR,M,M,M,M,M,M,M,M,M,M,M,M,M,M,53.6,K8A0 142235Z AUTO 17005KT 10SM CLR 12/03 A3000 RMK AO2
8A0,1/14/16 22:55,53.6,37.4,54.07,170,6,0.0,29.99,M,10.0,M,CLR,M,M,M,M,M,M,M,M,M,M,M,M,M,M,53.6,K8A0 142255Z AUTO 17006KT 10SM CLR 12/03 A2999 RMK AO2
8A0,1/14/16 23:15,51.8,35.6,53.81,160,5,0.0,29.99,M,10.0,M,CLR,M,M,M,M,M,M,M,M,M,M,M,M,M,M,51.8,K8A0 142315Z AUTO 16005KT 10SM CLR 11/02 A2999 RMK AO2
8A0,1/14/16 23:35,51.8,35.6,53.81,160,5,0.0,29.99,M,10.0,M,CLR,M,M,M,M,M,M,M,M,M,M,M,M,M,M,51.8,K8A0 142335Z AUTO 16005KT 10SM CLR 11/02 A2999 RMK AO2
8A0,1/14/16 23:55,50.0,35.6,57.52,160,5,0.0,29.99,M,10.0,M,CLR,M,M,M,M,M,M,M,M,M,M,M,M,M,M,47.77,K8A0 142355Z AUTO 16005KT 10SM CLR 10/02 A2999 RMK AO2
8A0,1/15/16 0:15,50.0,35.6,57.52,180,8,0.0,29.98,M,10.0,M,CLR,M,M,M,M,M,M,M,M,M,M,M,M,M,M,46.29,K8A0 150015Z AUTO 18008KT 10SM CLR 10/02 A2998 RMK AO2
8A0,1/15/16 0:35,50.0,35.6,57.52,170,6,0.0,29.99,M,10.0,M,CLR,M,M,M,M,M,M,M,M,M,M,M,M,M,M,47.21,K8A0 150035Z AUTO 17006KT 10SM CLR 10/02 A2999 RMK AO2
8A0,1/15/16 0:55,50.0,35.6,57.52,170,7,0.0,29.99,M,10.0,M,CLR,M,M,M,M,M,M,M,M,M,M,M,M,M,M,46.72,K8A0 150055Z AUTO 17007KT 10SM CLR 10/02 A2999 RMK AO2
8A0,1/15/16 1:15,50.0,33.8,53.54,150,4,0.0,29.98,M,10.0,M,CLR,M,M,M,M,M,M,M,M,M,M,M,M,M,M,48.44,K8A0 150115Z AUTO 15004KT 10SM CLR 10/01 A2998 RMK AO2
8A0,1/15/16 1:35,48.2,33.8,57.26,140,4,0.0,29.98,M,10.0,M,CLR,M,M,M,M,M,M,M,M,M,M,M,M,M,M,46.34,K8A0 150135Z AUTO 14004KT 10SM CLR 09/01 A2998 RMK AO2
8A0,1/15/16 1:55,46.4,33.8,61.28,170,4,0.0,29.98,M,10.0,M,CLR,M,M,M,M,M,M,M,M,M,M,M,M,M,M,44.24,K8A0 150155Z AUTO 17004KT 10SM CLR 08/01 A2998 RMK AO2
8A0,1/15/16 2:15,46.4,33.8,61.28,140,4,0.0,29.97,M,10.0,M,CLR,M,M,M,M,M,M,M,M,M,M,M,M,M,M,44.24,K8A0 150215Z AUTO 14004KT 10SM CLR 08/01 A2997 RMK AO2
8A0,1/15/16 2:35,46.4,33.8,61.28,140,3,0.0,29.97,M,10.0,M,CLR,M,M,M,M,M,M,M,M,M,M,M,M,M,M,45.15,K8A0 150235Z AUTO 14003KT 10SM CLR 08/01 A2997 RMK AO2
8A0,1/15/16 2:55,46.4,33.8,61.28,170,4,0.0,29.97,M,10.0,M,CLR,M,M,M,M,M,M,M,M,M,M,M,M,M,M,44.24,K8A0 150255Z AUTO 17004KT 10SM CLR 08/01 A2997 RMK AO2
8A0,1/15/16 3:15,46.4,35.6,65.83,170,5,0.0,29.97,M,10.0,M,CLR,M,M,M,M,M,M,M,M,M,M,M,M,M,M,43.5,K8A0 150315Z AUTO 17005KT 10SM CLR 08/02 A2997 RMK AO2
8A0,1/15/16 3:35,44.6,35.6,70.48,170,5,0.0,29.97,M,10.0,M,CLR,M,M,M,M,M,M,M,M,M,M,M,M,M,M,41.36,K8A0 150335Z AUTO 17005KT 10SM CLR 07/02 A2997 RMK AO2
8A0,1/15/16 3:55,44.6,33.8,65.61,150,6,0.0,29.95,M,10.0,M,CLR,M,M,M,M,M,M,M,M,M,M,M,M,M,M,40.71,K8A0 150355Z AUTO 15006KT 10SM CLR 07/01 A2995 RMK AO2
8A0,1/15/16 4:15,46.4,33.8,61.28,150,5,0.0,29.94,M,10.0,M,CLR,M,M,M,M,M,M,M,M,M,M,M,M,M,M,43.5,K8A0 150415Z AUTO 15005KT 10SM CLR 08/01 A2994 RMK AO2
8A0,1/15/16 4:35,44.6,33.8,65.61,160,6,0.0,29.94,M,10.0,M,CLR,M,M,M,M,M,M,M,M,M,M,M,M,M,M,40.71,K8A0 150435Z AUTO 16006KT 10SM CLR 07/01 A2994 RMK AO2
8A0,1/15/16 4:55,44.6,33.8,65.61,160,5,0.0,29.93,M,10.0,M,CLR,M,M,M,M,M,M,M,M,M,M,M,M,M,M,41.36,K8A0 150455Z AUTO 16005KT 10SM CLR 07/01 A2993 RMK AO2
8A0,1/15/16 5:15,44.6,33.8,65.61,140,4,0.0,29.92,M,10.0,M,CLR,M,M,M,M,M,M,M,M,M,M,M,M,M,M,42.13,K8A0 150515Z AUTO 14004KT 10SM CLR 07/01 A2992 RMK AO2
8A0,1/15/16 5:35,44.6,33.8,65.61,140,4,0.0,29.9,M,10.0,M,CLR,M,M,M,M,M,M,M,M,M,M,M,M,M,M,42.13,K8A0 150535Z AUTO 14004KT 10SM CLR 07/01 A2990 RMK AO2
8A0,1/15/16 5:55,42.8,33.8,70.28,130,5,0.0,29.88,M,10.0,M,CLR,M,M,M,M,M,M,M,M,M,M,M,M,M,M,39.22,K8A0 150555Z AUTO 13005KT 10SM CLR 06/01 A2988 RMK AO2
8A0,1/15/16 6:15,42.8,33.8,70.28,140,6,0.0,29.87,M,10.0,M,CLR,M,M,M,M,M,M,M,M,M,M,M,M,M,M,38.54,K8A0 150615Z AUTO 14006KT 10SM CLR 06/01 A2987 RMK AO2
8A0,1/15/16 6:35,44.6,33.8,65.61,140,6,0.0,29.86,M,10.0,M,CLR,M,M,M,M,M,M,M,M,M,M,M,M,M,M,40.71,K8A0 150635Z AUTO 14006KT 10SM CLR 07/01 A2986 RMK AO2
8A0,1/15/16 6:55,44.6,33.8,65.61,130,4,0.0,29.85,M,10.0,M,CLR,M,M,M,M,M,M,M,M,M,M,M,M,M,M,42.13,K8A0 150655Z AUTO 13004KT 10SM CLR 07/01 A2985 RMK AO2
8A0,1/15/16 7:15,42.8,33.8,70.28,0,0,0.0,29.84,M,10.0,M,CLR,M,M,M,M,M,M,M,M,M,M,M,M,M,M,42.8,K8A0 150715Z AUTO 00000KT 10SM CLR 06/01 A2984 RMK AO2
8A0,1/15/16 7:35,42.8,33.8,70.28,130,4,0.0,29.84,M,10.0,M,CLR,M,M,M,M,M,M,M,M,M,M,M,M,M,M,40.03,K8A0 150735Z AUTO 13004KT 10SM CLR 06/01 A2984 RMK AO2
8A0,1/15/16 7:55,42.8,33.8,70.28,130,5,0.0,29.83,M,10.0,M,CLR,M,M,M,M,M,M,M,M,M,M,M,M,M,M,39.22,K8A0 150755Z AUTO 13005KT 10SM CLR 06/01 A2983 RMK AO2
8A0,1/15/16 8:15,42.8,33.8,70.28,110,3,0.0,29.82,M,10.0,M,CLR,M,M,M,M,M,M,M,M,M,M,M,M,M,M,41.03,K8A0 150815Z AUTO 11003KT 10SM CLR 06/01 A2982 RMK AO2
8A0,1/15/16 8:35,42.8,33.8,70.28,90,3,0.0,29.81,M,10.0,M,CLR,M,M,M,M,M,M,M,M,M,M,M,M,M,M,41.03,K8A0 150835Z AUTO 09003KT 10SM CLR 06/01 A2981 RMK AO2
8A0,1/15/16 8:55,42.8,33.8,70.28,0,0,0.0,29.8,M,10.0,M,CLR,M,M,M,M,M,M,M,M,M,M,M,M,M,M,42.8,K8A0 150855Z AUTO 00000KT 10SM CLR 06/01 A2980 RMK AO2
8A0,1/15/16 9:15,42.8,33.8,70.28,90,4,0.0,29.8,M,10.0,M,CLR,M,M,M,M,M,M,M,M,M,M,M,M,M,M,40.03,K8A0 150915Z AUTO 09004KT 10SM CLR 06/01 A2980 RMK AO2
8A0,1/15/16 9:35,42.8,33.8,70.28,120,4,0.0,29.79,M,10.0,M,SCT,M,M,M,12000,M,M,M,M,M,M,M,M,M,M,40.03,K8A0 150935Z AUTO 12004KT 10SM SCT120 06/01 A2979 RMK AO2
8A0,1/15/16 9:55,42.8,33.8,70.28,130,4,0.0,29.79,M,10.0,M,BKN,M,M,M,11000,M,M,M,M,M,M,M,M,M,M,40.03,K8A0 150955Z AUTO 13004KT 10SM BKN110 06/01 A2979 RMK AO2
8A0,1/15/16 10:15,42.8,33.8,70.28,100,4,0.0,29.77,M,10.0,M,BKN,OVC,M,M,10000,11000,M,M,M,M,M,M,M,M,M,40.03,K8A0 151015Z AUTO 10004KT 10SM BKN100 OVC110 06/01 A2977 RMK AO2
8A0,1/15/16 10:35,42.8,33.8,70.28,130,5,0.0,29.76,M,10.0,M,SCT,OVC,M,M,7500,9000,M,M,M,M,M,M,M,M,M,39.22,K8A0 151035Z AUTO 13005KT 10SM SCT075 OVC090 06/01 A2976 RMK AO2
8A0,1/15/16 10:55,42.8,35.6,75.5,130,6,0.0,29.76,M,10.0,M,SCT,BKN,OVC,M,6000,7500,8500,M,#NAME?,M,M,M,M,M,M,38.54,K8A0 151055Z AUTO 13006KT 10SM -RA SCT060 BKN075 OVC085 06/02 A2976 RMK AO2
8A0,1/15/16 11:15,41.0,37.4,86.89,120,4,0.0,29.76,M,7.0,M,BKN,OVC,M,M,6000,7000,M,M,RA,M,M,M,M,M,M,37.93,K8A0 151115Z AUTO 12004KT 7SM RA BKN060 OVC070 05/03 A2976 RMK AO2
8A0,1/15/16 11:35,39.2,39.2,100.0,120,4,0.01,29.73,M,7.0,M,BKN,OVC,M,M,5000,6000,M,M,RA,M,M,M,M,M,M,35.83,K8A0 151135Z AUTO 12004KT 7SM RA BKN050 OVC060 04/04 A2973 RMK AO2 P0001
8A0,1/15/16 11:55,39.2,39.2,100.0,130,5,0.02,29.73,M,7.0,M,SCT,OVC,M,M,4800,6000,M,M,RA,M,M,M,M,M,M,34.95,K8A0 151155Z AUTO 13005KT 7SM RA SCT048 OVC060 04/04 A2973 RMK AO2 P0002
8A0,1/15/16 12:15,39.2,39.2,100.0,130,5,0.01,29.72,M,7.0,M,OVC,M,M,M,5000,M,M,M,RA,M,M,M,M,M,M,34.95,K8A0 151215Z AUTO 13005KT 7SM RA OVC050 04/04 A2972 RMK AO2 P0001
8A0,1/15/16 12:35,39.2,39.2,100.0,120,5,0.03,29.72,M,5.0,M,OVC,M,M,M,5000,M,M,M,RA,M,M,M,M,M,M,34.95,K8A0 151235Z AUTO 12005KT 5SM RA OVC050 04/04 A2972 RMK AO2 P0003
8A0,1/15/16 12:55,39.2,39.2,100.0,120,5,0.05,29.7,M,5.0,M,BKN,OVC,M,M,5000,7000,M,M,RA,M,M,M,M,M,M,34.95,K8A0 151255Z AUTO 12005KT 5SM RA BKN050 OVC070 04/04 A2970 RMK AO2 P0005
8A0,1/15/16 13:15,39.2,39.2,100.0,120,6,0.01,29.67,M,7.0,M,SCT,OVC,M,M,6000,7000,M,M,#NAME?,M,M,M,M,M,M,34.2,K8A0 151315Z AUTO 12006KT 7SM -RA SCT060 OVC070 04/04 A2967 RMK AO2 P0001
8A0,1/15/16 13:35,39.2,39.2,100.0,110,6,0.04,29.64,M,5.0,M,SCT,OVC,M,M,6000,7000,M,M,#NAME?,M,M,M,M,M,M,34.2,K8A0 151335Z AUTO 11006KT 5SM -RA SCT060 OVC070 04/04 A2964 RMK AO2 P0004
8A0,1/15/16 13:55,41.0,41.0,100.0,110,4,0.05,29.66,M,7.0,M,OVC,M,M,M,7000,M,M,M,#NAME?,M,M,M,M,M,M,37.93,K8A0 151355Z AUTO 11004KT 7SM -RA OVC070 05/05 A2966 RMK AO2 P0005
8A0,1/15/16 14:15,41.0,41.0,100.0,130,3,0.01,29.67,M,5.0,M,OVC,M,M,M,7000,M,M,M,#NAME?,M,M,M,M,M,M,38.98,K8A0 151415Z AUTO 13003KT 5SM -RA OVC070 05/05 A2967 RMK AO2 P0001
8A0,1/15/16 14:35,41.0,41.0,100.0,340,3,0.03,29.68,M,3.0,M,SCT,SCT,OVC,M,400,1800,7000,M,RA,M,M,M,M,M,M,38.98,K8A0 151435Z AUTO 34003KT 3SM RA SCT004 SCT018 OVC070 05/05 A2968 RMK AO2 P0003
8A0,1/15/16 14:55,41.0,41.0,100.0,310,4,0.05,29.69,M,5.0,M,OVC,M,M,M,400,M,M,M,#NAME?,M,M,M,M,M,M,37.93,K8A0 151455Z AUTO 31004KT 5SM -RA OVC004 05/05 A2969 RMK AO2 P0005
8A0,1/15/16 15:15,41.0,41.0,100.0,0,0,0.01,29.7,M,4.0,M,OVC,M,M,M,600,M,M,M,#NAME?,M,M,M,M,M,M,41.0,K8A0 151515Z AUTO 00000KT 4SM -RA OVC006 05/05 A2970 RMK AO2 P0001
8A0,1/15/16 15:35,41.0,41.0,100.0,0,0,0.01,29.69,M,5.0,M,BKN,OVC,M,M,600,1100,M,M,#NAME?,M,M,M,M,M,M,41.0,K8A0 151535Z AUTO 00000KT 5SM -RA BKN006 OVC011 05/05 A2969 RMK AO2 P0001
8A0,1/15/16 15:55,41.0,41.0,100.0,80,3,0.02,29.68,M,4.0,M,BKN,OVC,M,M,400,1100,M,M,#NAME?,M,M,M,M,M,M,38.98,K8A0 151555Z AUTO 08003KT 4SM -RA BKN004 OVC011 05/05 A2968 RMK AO2 P0002
8A0,1/15/16 16:15,42.8,42.8,100.0,0,0,0.0,29.67,M,7.0,M,BKN,OVC,M,M,400,1100,M,M,M,M,M,M,M,M,M,42.8,K8A0 151615Z AUTO 00000KT 7SM BKN004 OVC011 06/06 A2967 RMK AO2
8A0,1/15/16 16:35,42.8,42.8,100.0,100,4,0.0,29.66,M,7.0,M,BKN,OVC,M,M,400,1100,M,M,M,M,M,M,M,M,M,40.03,K8A0 151635Z AUTO 10004KT 7SM BKN004 OVC011 06/06 A2966 RMK AO2
8A0,1/15/16 16:55,42.8,42.8,100.0,100,5,0.0,29.65,M,10.0,M,BKN,BKN,OVC,M,600,1100,6000,M,M,M,M,M,M,M,M,39.22,K8A0 151655Z AUTO 10005KT 10SM BKN006 BKN011 OVC060 06/06 A2965 RMK AO2
8A0,1/15/16 17:15,42.8,42.8,100.0,0,0,0.0,29.64,M,10.0,M,OVC,M,M,M,600,M,M,M,M,M,M,M,M,M,M,42.8,K8A0 151715Z AUTO 00000KT 10SM OVC006 06/06 A2964 RMK AO2
8A0,1/15/16 17:35,44.6,44.6,100.0,0,0,0.0,29.63,M,10.0,M,BKN,OVC,M,M,600,4500,M,M,M,M,M,M,M,M,M,44.6,K8A0 151735Z AUTO 00000KT 10SM BKN006 OVC045 07/07 A2963 RMK AO2
8A0,1/15/16 17:55,44.6,44.6,100.0,150,3,0.0,29.62,M,10.0,M,OVC,M,M,M,600,M,M,M,M,M,M,M,M,M,M,43.09,K8A0 151755Z AUTO 15003KT 10SM OVC006 07/07 A2962 RMK AO2
8A0,1/15/16 18:15,44.6,44.6,100.0,160,3,0.0,29.6,M,10.0,M,OVC,M,M,M,600,M,M,M,M,M,M,M,M,M,M,43.09,K8A0 151815Z AUTO 16003KT 10SM OVC006 07/07 A2960 RMK AO2
8A0,1/15/16 18:35,46.4,46.4,100.0,0,0,0.0,29.59,M,10.0,M,OVC,M,M,M,600,M,M,M,M,M,M,M,M,M,M,46.4,K8A0 151835Z AUTO 00000KT 10SM OVC006 08/08 A2959 RMK AO2
8A0,1/15/16 18:55,46.4,46.4,100.0,200,3,0.0,29.59,M,4.0,M,OVC,M,M,M,600,M,M,M,BR,M,M,M,M,M,M,45.15,K8A0 151855Z AUTO 20003KT 4SM BR OVC006 08/08 A2959 RMK AO2
8A0,1/15/16 19:15,46.4,46.4,100.0,190,4,0.0,29.58,M,3.0,M,OVC,M,M,M,600,M,M,M,BR,M,M,M,M,M,M,44.24,K8A0 151915Z AUTO 19004KT 3SM BR OVC006 08/08 A2958 RMK AO2
8A0,1/15/16 19:35,46.4,46.4,100.0,230,4,0.0,29.59,M,3.0,M,BKN,OVC,M,M,600,1300,M,M,RA,M,M,M,M,M,M,44.24,K8A0 151935Z AUTO 23004KT 3SM RA BKN006 OVC013 08/08 A2959 RMK AO2
8A0,1/15/16 19:55,46.4,46.4,100.0,220,6,0.01,29.59,M,1.5,M,OVC,M,M,M,600,M,M,M,DZ,M,M,M,M,M,M,42.87,K8A0 151955Z AUTO 22006KT 1 1/2SM DZ OVC006 08/08 A2959 RMK AO2 P0001
8A0,1/15/16 20:15,46.4,46.4,100.0,200,4,0.0,29.6,M,2.0,M,OVC,M,M,M,400,M,M,M,#NAME?,M,M,M,M,M,M,44.24,K8A0 152015Z AUTO 20004KT 2SM -DZ OVC004 08/08 A2960 RMK AO2
8A0,1/15/16 20:35,46.4,46.4,100.0,200,5,0.0,29.59,M,3.0,M,OVC,M,M,M,400,M,M,M,BR,M,M,M,M,M,M,43.5,K8A0 152035Z AUTO 20005KT 3SM BR OVC004 08/08 A2959 RMK AO2
8A0,1/15/16 20:55,46.4,46.4,100.0,200,5,0.0,29.6,M,3.0,M,OVC,M,M,M,400,M,M,M,BR,M,M,M,M,M,M,43.5,K8A0 152055Z AUTO 20005KT 3SM BR OVC004 08/08 A2960 RMK AO2
8A0,1/15/16 21:15,46.4,46.4,100.0,220,4,0.0,29.6,M,1.75,M,OVC,M,M,M,400,M,M,M,BR,M,M,M,M,M,M,44.24,K8A0 152115Z AUTO 22004KT 1 3/4SM BR OVC004 08/08 A2960 RMK AO2
8A0,1/15/16 21:35,46.4,46.4,100.0,230,6,0.0,29.6,M,1.0,M,OVC,M,M,M,200,M,M,M,BR,M,M,M,M,M,M,42.87,K8A0 152135Z AUTO 23006KT 1SM BR OVC002 08/08 A2960 RMK AO2
8A0,1/15/16 21:55,46.4,46.4,100.0,230,6,0.0,29.61,M,0.75,M,OVC,M,M,M,200,M,M,M,BR,M,M,M,M,M,M,42.87,K8A0 152155Z AUTO 23006KT 3/4SM BR OVC002 08/08 A2961 RMK AO2
8A0,1/15/16 22:15,46.4,46.4,100.0,220,7,0.0,29.62,M,0.75,M,OVC,M,M,M,200,M,M,M,BR,M,M,M,M,M,M,42.33,K8A0 152215Z AUTO 22007KT 3/4SM BR OVC002 08/08 A2962 RMK AO2
8A0,1/15/16 22:35,46.4,46.4,100.0,240,7,0.0,29.63,M,1.0,M,OVC,M,M,M,200,M,M,M,BR,M,M,M,M,M,M,42.33,K8A0 152235Z AUTO 24007KT 1SM BR OVC002 08/08 A2963 RMK AO2
8A0,1/15/16 22:55,46.4,46.4,100.0,240,6,0.0,29.64,M,1.0,M,OVC,M,M,M,200,M,M,M,BR,M,M,M,M,M,M,42.87,K8A0 152255Z AUTO 24006KT 1SM BR OVC002 08/08 A2964 RMK AO2
8A0,1/15/16 23:15,46.4,46.4,100.0,230,5,0.0,29.64,M,1.0,M,OVC,M,M,M,200,M,M,M,BR,M,M,M,M,M,M,43.5,K8A0 152315Z AUTO 23005KT 1SM BR OVC002 08/08 A2964 RMK AO2
8A0,1/15/16 23:35,46.4,46.4,100.0,240,4,0.0,29.64,M,0.75,M,OVC,M,M,M,200,M,M,M,BR,M,M,M,M,M,M,44.24,K8A0 152335Z AUTO 24004KT 3/4SM BR OVC002 08/08 A2964 RMK AO2
8A0,1/15/16 23:55,48.2,48.2,100.0,240,7,0.0,29.65,M,0.75,M,OVC,M,M,M,200,M,M,M,BR,M,M,M,M,M,M,44.53,K8A0 152355Z AUTO 24007KT 3/4SM BR OVC002 09/09 A2965 RMK AO2
8A0,1/16/16 0:15,48.2,48.2,100.0,260,7,0.0,29.66,M,0.75,M,OVC,M,M,M,200,M,M,M,BR,M,M,M,M,M,M,44.53,K8A0 160015Z AUTO 26007KT 3/4SM BR OVC002 09/09 A2966 RMK AO2
8A0,1/16/16 0:35,48.2,48.2,100.0,250,6,0.0,29.67,M,1.25,M,OVC,M,M,M,200,M,M,M,BR,M,M,M,M,M,M,45.04,K8A0 160035Z AUTO 25006KT 1 1/4SM BR OVC002 09/09 A2967 RMK AO2
8A0,1/16/16 0:55,48.2,48.2,100.0,260,4,0.0,29.67,M,3.0,M,OVC,M,M,M,200,M,M,M,BR,M,M,M,M,M,M,46.34,K8A0 160055Z AUTO 26004KT 3SM BR OVC002 09/09 A2967 RMK AO2
8A0,1/16/16 1:15,48.2,48.2,100.0,240,5,0.0,29.68,M,3.0,M,OVC,M,M,M,200,M,M,M,BR,M,M,M,M,M,M,45.63,K8A0 160115Z AUTO 24005KT 3SM BR OVC002 09/09 A2968 RMK AO2
8A0,1/16/16 1:35,48.2,48.2,100.0,250,7,0.0,29.69,M,3.0,M,OVC,M,M,M,200,M,M,M,BR,M,M,M,M,M,M,44.53,K8A0 160135Z AUTO 25007KT 3SM BR OVC002 09/09 A2969 RMK AO2
8A0,1/16/16 1:55,48.2,48.2,100.0,260,3,0.0,29.7,M,3.0,M,OVC,M,M,M,200,M,M,M,BR,M,M,M,M,M,M,47.21,K8A0 160155Z AUTO 26003KT 3SM BR OVC002 09/09 A2970 RMK AO2
8A0,1/16/16 2:15,48.2,48.2,100.0,250,5,0.0,29.7,M,2.5,M,OVC,M,M,M,200,M,M,M,BR,M,M,M,M,M,M,45.63,K8A0 160215Z AUTO 25005KT 2 1/2SM BR OVC002 09/09 A2970 RMK AO2
8A0,1/16/16 2:35,48.2,48.2,100.0,240,4,0.0,29.7,M,2.0,M,OVC,M,M,M,200,M,M,M,BR,M,M,M,M,M,M,46.34,K8A0 160235Z AUTO 24004KT 2SM BR OVC002 09/09 A2970 RMK AO2
8A0,1/16/16 2:55,50.0,50.0,100.0,220,4,0.0,29.7,M,2.0,M,OVC,M,M,M,200,M,M,M,BR,M,M,M,M,M,M,48.44,K8A0 160255Z AUTO 22004KT 2SM BR OVC002 10/10 A2970 RMK AO2
8A0,1/16/16 3:15,50.0,50.0,100.0,190,4,0.01,29.69,M,2.0,M,OVC,M,M,M,200,M,M,M,BR,M,M,M,M,M,M,48.44,K8A0 160315Z AUTO 19004KT 2SM BR OVC002 10/10 A2969 RMK AO2 P0001
8A0,1/16/16 3:35,50.0,50.0,100.0,240,3,0.01,29.7,M,1.5,M,OVC,M,M,M,200,M,M,M,BR,M,M,M,M,M,M,49.27,K8A0 160335Z AUTO 24003KT 1 1/2SM BR OVC002 10/10 A2970 RMK AO2 P0001
8A0,1/16/16 3:55,50.0,50.0,100.0,200,5,0.01,29.7,M,0.5,M,OVC,M,M,M,200,M,M,M,FG,M,M,M,M,M,M,47.77,K8A0 160355Z AUTO 20005KT 1/2SM FG OVC002 10/10 A2970 RMK AO2 P0001
8A0,1/16/16 4:15,50.0,50.0,100.0,220,3,0.0,29.7,M,0.75,M,OVC,M,M,M,200,M,M,M,BR,M,M,M,M,M,M,49.27,K8A0 160415Z AUTO 22003KT 3/4SM BR OVC002 10/10 A2970 RMK AO2
8A0,1/16/16 4:35,50.0,50.0,100.0,230,5,0.0,29.7,M,1.0,M,OVC,M,M,M,200,M,M,M,BR,M,M,M,M,M,M,47.77,K8A0 160435Z AUTO 23005KT 1SM BR OVC002 10/10 A2970 RMK AO2
8A0,1/16/16 4:55,50.0,50.0,100.0,240,7,0.0,29.7,M,0.5,M,OVC,M,M,M,200,M,M,M,FG,M,M,M,M,M,M,46.72,K8A0 160455Z AUTO 24007KT 1/2SM FG OVC002 10/10 A2970 RMK AO2
8A0,1/16/16 5:15,50.0,50.0,100.0,240,7,0.0,29.7,M,1.5,M,OVC,M,M,M,200,M,M,M,BR,M,M,M,M,M,M,46.72,K8A0 160515Z AUTO 24007KT 1 1/2SM BR OVC002 10/10 A2970 RMK AO2
8A0,1/16/16 5:35,50.0,50.0,100.0,240,7,0.0,29.7,M,4.0,M,BKN,OVC,M,M,200,700,M,M,BR,M,M,M,M,M,M,46.72,K8A0 160535Z AUTO 24007KT 4SM BR BKN002 OVC007 10/10 A2970 RMK AO2
8A0,1/16/16 5:55,50.0,50.0,100.0,260,8,0.0,29.71,M,4.0,M,BKN,OVC,M,M,200,700,M,M,BR,M,M,M,M,M,M,46.29,K8A0 160555Z AUTO 26008KT 4SM BR BKN002 OVC007 10/10 A2971 RMK AO2
8A0,1/16/16 6:15,50.0,50.0,100.0,280,6,0.01,29.71,M,2.5,M,OVC,M,M,M,200,M,M,M,#NAME?,M,M,M,M,M,M,47.21,K8A0 160615Z AUTO 28006KT 2 1/2SM -RA OVC002 10/10 A2971 RMK AO2 P0001
8A0,1/16/16 6:35,50.0,50.0,100.0,280,6,0.01,29.7,M,7.0,M,BKN,BKN,OVC,M,400,900,1200,M,M,M,M,M,M,M,M,47.21,K8A0 160635Z AUTO 28006KT 7SM BKN004 BKN009 OVC012 10/10 A2970 RMK AO2 P0001
8A0,1/16/16 6:55,50.0,50.0,100.0,270,6,0.01,29.7,M,7.0,M,SCT,SCT,BKN,M,500,1000,1400,M,M,M,M,M,M,M,M,47.21,K8A0 160655Z AUTO 27006KT 7SM SCT005 SCT010 BKN014 10/10 A2970 RMK AO2 P0001
8A0,1/16/16 7:15,48.2,48.2,100.0,280,6,0.0,29.72,M,7.0,M,BKN,M,M,M,1000,M,M,M,M,M,M,M,M,M,M,45.04,K8A0 160715Z AUTO 28006KT 7SM BKN010 09/09 A2972 RMK AO2
8A0,1/16/16 7:35,46.4,46.4,100.0,270,4,0.0,29.72,M,7.0,M,BKN,M,M,M,1000,M,M,M,M,M,M,M,M,M,M,44.24,K8A0 160735Z AUTO 27004KT 7SM BKN010 08/08 A2972 RMK AO2
8A0,1/16/16 7:55,46.4,46.4,100.0,290,4,0.0,29.73,M,7.0,M,BKN,M,M,M,1000,M,M,M,M,M,M,M,M,M,M,44.24,K8A0 160755Z AUTO 29004KT 7SM BKN010 08/08 A2973 RMK AO2
8A0,1/16/16 8:15,46.4,46.4,100.0,290,8,0.0,29.74,M,10.0,M,OVC,M,M,M,1000,M,M,M,M,M,M,M,M,M,M,41.85,K8A0 160815Z AUTO 29008KT 10SM OVC010 08/08 A2974 RMK AO2
8A0,1/16/16 8:35,46.4,46.4,100.0,290,4,0.0,29.74,M,10.0,M,OVC,M,M,M,1000,M,M,M,M,M,M,M,M,M,M,44.24,K8A0 160835Z AUTO 29004KT 10SM OVC010 08/08 A2974 RMK AO2
8A0,1/16/16 8:55,44.6,44.6,100.0,300,7,0.0,29.75,M,10.0,M,OVC,M,M,M,1200,M,M,M,M,M,M,M,M,M,M,40.14,K8A0 160855Z AUTO 30007KT 10SM OVC012 07/07 A2975 RMK AO2
8A0,1/16/16 9:15,42.8,42.8,100.0,300,8,0.0,29.77,M,10.0,15,BKN,BKN,M,M,1200,1800,M,M,M,M,M,M,M,M,M,37.42,K8A0 160915Z AUTO 30008G15KT 10SM BKN012 BKN018 06/06 A2977 RMK AO2
8A0,1/16/16 9:35,42.8,42.8,100.0,260,5,0.0,29.78,M,10.0,M,SCT,SCT,M,M,1200,2200,M,M,M,M,M,M,M,M,M,39.22,K8A0 160935Z AUTO 26005KT 10SM SCT012 SCT022 06/06 A2978 RMK AO2
8A0,1/16/16 9:55,41.0,41.0,100.0,270,4,0.0,29.78,M,10.0,M,SCT,M,M,M,1400,M,M,M,M,M,M,M,M,M,M,37.93,K8A0 160955Z AUTO 27004KT 10SM SCT014 05/05 A2978 RMK AO2
8A0,1/16/16 10:15,41.0,41.0,100.0,260,5,0.0,29.79,M,10.0,M,SCT,M,M,M,1400,M,M,M,M,M,M,M,M,M,M,37.08,K8A0 161015Z AUTO 26005KT 10SM SCT014 05/05 A2979 RMK AO2
8A0,1/16/16 10:35,39.2,39.2,100.0,280,8,0.0,29.79,M,10.0,M,SCT,M,M,M,1400,M,M,M,M,M,M,M,M,M,M,32.98,K8A0 161035Z AUTO 28008KT 10SM SCT014 04/04 A2979 RMK AO2
8A0,1/16/16 10:55,37.4,37.4,100.0,290,5,0.0,29.79,M,10.0,M,CLR,M,M,M,M,M,M,M,M,M,M,M,M,M,M,32.81,K8A0 161055Z AUTO 29005KT 10SM CLR 03/03 A2979 RMK AO2
8A0,1/16/16 11:15,37.4,37.4,100.0,320,5,0.0,29.8,M,10.0,M,CLR,M,M,M,M,M,M,M,M,M,M,M,M,M,M,32.81,K8A0 161115Z AUTO 32005KT 10SM CLR 03/03 A2980 RMK AO2
8A0,1/16/16 11:35,37.4,37.4,100.0,320,5,0.0,29.8,M,10.0,M,CLR,M,M,M,M,M,M,M,M,M,M,M,M,M,M,32.81,K8A0 161135Z AUTO 32005KT 10SM CLR 03/03 A2980 RMK AO2
8A0,1/16/16 11:55,35.6,35.6,100.0,320,5,0.0,29.81,M,10.0,M,SCT,M,M,M,11000,M,M,M,M,M,M,M,M,M,M,30.67,K8A0 161155Z AUTO 32005KT 10SM SCT110 02/02 A2981 RMK AO2
8A0,1/16/16 12:15,35.6,35.6,100.0,320,5,0.0,29.82,M,10.0,M,SCT,M,M,M,11000,M,M,M,M,M,M,M,M,M,M,30.67,K8A0 161215Z AUTO 32005KT 10SM SCT110 02/02 A2982 RMK AO2
8A0,1/16/16 12:35,35.6,35.6,100.0,330,5,0.0,29.82,M,10.0,M,CLR,M,M,M,M,M,M,M,M,M,M,M,M,M,M,30.67,K8A0 161235Z AUTO 33005KT 10SM CLR 02/02 A2982 RMK AO2
8A0,1/16/16 12:55,35.6,35.6,100.0,330,5,0.0,29.83,M,10.0,M,CLR,M,M,M,M,M,M,M,M,M,M,M,M,M,M,30.67,K8A0 161255Z AUTO 33005KT 10SM CLR 02/02 A2983 RMK AO2
8A0,1/16/16 13:15,35.6,35.6,100.0,330,4,0.0,29.83,M,10.0,M,CLR,M,M,M,M,M,M,M,M,M,M,M,M,M,M,31.62,K8A0 161315Z AUTO 33004KT 10SM CLR 02/02 A2983 RMK AO2
8A0,1/16/16 13:35,35.6,35.6,100.0,310,3,0.0,29.84,M,10.0,M,CLR,M,M,M,M,M,M,M,M,M,M,M,M,M,M,32.8,K8A0 161335Z AUTO 31003KT 10SM CLR 02/02 A2984 RMK AO2
8A0,1/16/16 13:55,37.4,37.4,100.0,320,4,0.0,29.84,M,10.0,M,CLR,M,M,M,M,M,M,M,M,M,M,M,M,M,M,33.73,K8A0 161355Z AUTO 32004KT 10SM CLR 03/03 A2984 RMK AO2
8A0,1/16/16 14:15,37.4,37.4,100.0,340,5,0.0,29.85,M,10.0,M,CLR,M,M,M,M,M,M,M,M,M,M,M,M,M,M,32.81,K8A0 161415Z AUTO 34005KT 10SM CLR 03/03 A2985 RMK AO2
8A0,1/16/16 14:35,41.0,37.4,86.89,340,6,0.0,29.86,M,10.0,9,CLR,M,M,M,M,M,M,M,M,M,M,M,M,M,M,36.37,K8A0 161435Z AUTO 34006G09KT 10SM CLR 05/03 A2986 RMK AO2
8A0,1/16/16 14:55,41.0,37.4,86.89,340,8,0.0,29.87,M,10.0,M,CLR,M,M,M,M,M,M,M,M,M,M,M,M,M,M,35.2,K8A0 161455Z AUTO 34008KT 10SM CLR 05/03 A2987 RMK AO2
8A0,1/16/16 15:15,42.8,37.4,81.07,360,9,0.0,29.89,M,10.0,M,CLR,M,M,M,M,M,M,M,M,M,M,M,M,M,M,36.94,K8A0 161515Z AUTO 36009KT 10SM CLR 06/03 A2989 RMK AO2
8A0,1/16/16 15:35,42.8,37.4,81.07,350,8,0.0,29.89,M,10.0,M,CLR,M,M,M,M,M,M,M,M,M,M,M,M,M,M,37.42,K8A0 161535Z AUTO 35008KT 10SM CLR 06/03 A2989 RMK AO2
8A0,1/16/16 15:55,42.8,37.4,81.07,340,6,0.0,29.89,M,10.0,M,CLR,M,M,M,M,M,M,M,M,M,M,M,M,M,M,38.54,K8A0 161555Z AUTO 34006KT 10SM CLR 06/03 A2989 RMK AO2
8A0,1/16/16 16:15,42.8,39.2,86.99,350,5,0.0,29.89,M,10.0,M,CLR,M,M,M,M,M,M,M,M,M,M,M,M,M,M,39.22,K8A0 161615Z AUTO 35005KT 10SM CLR 06/04 A2989 RMK AO2
8A0,1/16/16 16:35,44.6,39.2,81.2,10,4,0.0,29.89,M,10.0,M,CLR,M,M,M,M,M,M,M,M,M,M,M,M,M,M,42.13,K8A0 161635Z AUTO 01004KT 10SM CLR 07/04 A2989 RMK AO2
8A0,1/16/16 16:55,44.6,39.2,81.2,360,4,0.0,29.89,M,10.0,M,SCT,SCT,M,M,2200,10000,M,M,M,M,M,M,M,M,M,42.13,K8A0 161655Z AUTO 36004KT 10SM SCT022 SCT100 07/04 A2989 RMK AO2
8A0,1/16/16 17:15,44.6,39.2,81.2,330,4,0.0,29.88,M,10.0,M,CLR,M,M,M,M,M,M,M,M,M,M,M,M,M,M,42.13,K8A0 161715Z AUTO 33004KT 10SM CLR 07/04 A2988 RMK AO2
8A0,1/16/16 17:35,44.6,39.2,81.2,310,4,0.0,29.88,M,10.0,M,CLR,M,M,M,M,M,M,M,M,M,M,M,M,M,M,42.13,K8A0 161735Z AUTO 31004KT 10SM CLR 07/04 A2988 RMK AO2
8A0,1/16/16 17:55,44.6,39.2,81.2,260,3,0.0,29.87,M,10.0,M,CLR,M,M,M,M,M,M,M,M,M,M,M,M,M,M,43.09,K8A0 161755Z AUTO 26003KT 10SM CLR 07/04 A2987 RMK AO2
8A0,1/16/16 18:15,46.4,41.0,81.34,310,3,0.0,29.87,M,10.0,M,CLR,M,M,M,M,M,M,M,M,M,M,M,M,M,M,45.15,K8A0 161815Z AUTO 31003KT 10SM CLR 08/05 A2987 RMK AO2
8A0,1/16/16 18:35,46.4,39.2,75.84,320,3,0.0,29.86,M,10.0,M,CLR,M,M,M,M,M,M,M,M,M,M,M,M,M,M,45.15,K8A0 161835Z AUTO 32003KT 10SM CLR 08/04 A2986 RMK AO2
8A0,1/16/16 18:55,46.4,41.0,81.34,350,5,0.0,29.86,M,10.0,M,CLR,M,M,M,M,M,M,M,M,M,M,M,M,M,M,43.5,K8A0 161855Z AUTO 35005KT 10SM CLR 08/05 A2986 RMK AO2
8A0,1/16/16 19:15,46.4,41.0,81.34,330,6,0.0,29.86,M,10.0,M,CLR,M,M,M,M,M,M,M,M,M,M,M,M,M,M,42.87,K8A0 161915Z AUTO 33006KT 10SM CLR 08/05 A2986 RMK AO2
8A0,1/16/16 19:35,46.4,41.0,81.34,350,8,0.0,29.86,M,10.0,M,CLR,M,M,M,M,M,M,M,M,M,M,M,M,M,M,41.85,K8A0 161935Z AUTO 35008KT 10SM CLR 08/05 A2986 RMK AO2
8A0,1/16/16 19:55,46.4,41.0,81.34,340,8,0.0,29.86,M,10.0,M,CLR,M,M,M,M,M,M,M,M,M,M,M,M,M,M,41.85,K8A0 161955Z AUTO 34008KT 10SM CLR 08/05 A2986 RMK AO2
8A0,1/16/16 20:15,46.4,39.2,75.84,360,7,0.0,29.87,M,10.0,M,CLR,M,M,M,M,M,M,M,M,M,M,M,M,M,M,42.33,K8A0 162015Z AUTO 36007KT 10SM CLR 08/04 A2987 RMK AO2
8A0,1/16/16 20:35,46.4,39.2,75.84,300,6,0.0,29.87,M,10.0,M,CLR,M,M,M,M,M,M,M,M,M,M,M,M,M,M,42.87,K8A0 162035Z AUTO 30006KT 10SM CLR 08/04 A2987 RMK AO2
8A0,1/16/16 20:55,46.4,39.2,75.84,350,6,0.0,29.87,M,10.0,M,CLR,M,M,M,M,M,M,M,M,M,M,M,M,M,M,42.87,K8A0 162055Z AUTO 35006KT 10SM CLR 08/04 A2987 RMK AO2
8A0,1/16/16 21:15,46.4,39.2,75.84,320,6,0.0,29.87,M,10.0,M,CLR,M,M,M,M,M,M,M,M,M,M,M,M,M,M,42.87,K8A0 162115Z AUTO 32006KT 10SM CLR 08/04 A2987 RMK AO2
8A0,1/16/16 21:35,46.4,39.2,75.84,350,7,0.0,29.86,M,10.0,M,CLR,M,M,M,M,M,M,M,M,M,M,M,M,M,M,42.33,K8A0 162135Z AUTO 35007KT 10SM CLR 08/04 A2986 RMK AO2
8A0,1/16/16 21:55,46.4,39.2,75.84,350,7,0.0,29.86,M,10.0,M,CLR,M,M,M,M,M,M,M,M,M,M,M,M,M,M,42.33,K8A0 162155Z AUTO 35007KT 10SM CLR 08/04 A2986 RMK AO2
8A0,1/16/16 22:15,46.4,39.2,75.84,350,6,0.0,29.85,M,10.0,M,CLR,M,M,M,M,M,M,M,M,M,M,M,M,M,M,42.87,K8A0 162215Z AUTO 35006KT 10SM CLR 08/04 A2985 RMK AO2
8A0,1/16/16 22:35,44.6,39.2,81.2,350,9,0.0,29.86,M,10.0,M,CLR,M,M,M,M,M,M,M,M,M,M,M,M,M,M,39.18,K8A0 162235Z AUTO 35009KT 10SM CLR 07/04 A2986 RMK AO2
8A0,1/16/16 22:55,42.8,39.2,86.99,350,4,0.0,29.86,M,10.0,M,CLR,M,M,M,M,M,M,M,M,M,M,M,M,M,M,40.03,K8A0 162255Z AUTO 35004KT 10SM CLR 06/04 A2986 RMK AO2
8A0,1/16/16 23:15,42.8,39.2,86.99,360,5,0.0,29.87,M,10.0,M,CLR,M,M,M,M,M,M,M,M,M,M,M,M,M,M,39.22,K8A0 162315Z AUTO 36005KT 10SM CLR 06/04 A2987 RMK AO2
8A0,1/16/16 23:35,41.0,39.2,93.24,340,4,0.0,29.89,M,10.0,M,CLR,M,M,M,M,M,M,M,M,M,M,M,M,M,M,37.93,K8A0 162335Z AUTO 34004KT 10SM CLR 05/04 A2989 RMK AO2
8A0,1/16/16 23:55,41.0,37.4,86.89,350,6,0.0,29.89,M,10.0,M,CLR,M,M,M,M,M,M,M,M,M,M,M,M,M,M,36.37,K8A0 162355Z AUTO 35006KT 10SM CLR 05/03 A2989 RMK AO2
8A0,1/17/16 0:15,41.0,37.4,86.89,360,7,0.0,29.89,M,10.0,M,CLR,M,M,M,M,M,M,M,M,M,M,M,M,M,M,35.75,K8A0 170015Z AUTO 36007KT 10SM CLR 05/03 A2989 RMK AO2
8A0,1/17/16 0:35,41.0,37.4,86.89,360,8,0.0,29.9,M,10.0,M,CLR,M,M,M,M,M,M,M,M,M,M,M,M,M,M,35.2,K8A0 170035Z AUTO 36008KT 10SM CLR 05/03 A2990 RMK AO2
8A0,1/17/16 0:55,39.2,37.4,93.19,350,8,0.0,29.9,M,10.0,M,CLR,M,M,M,M,M,M,M,M,M,M,M,M,M,M,32.98,K8A0 170055Z AUTO 35008KT 10SM CLR 04/03 A2990 RMK AO2
8A0,1/17/16 1:15,39.2,37.4,93.19,350,7,0.0,29.89,M,10.0,M,CLR,M,M,M,M,M,M,M,M,M,M,M,M,M,M,33.56,K8A0 170115Z AUTO 35007KT 10SM CLR 04/03 A2989 RMK AO2
8A0,1/17/16 1:35,37.4,37.4,100.0,340,7,0.0,29.91,M,10.0,M,CLR,M,M,M,M,M,M,M,M,M,M,M,M,M,M,31.36,K8A0 170135Z AUTO 34007KT 10SM CLR 03/03 A2991 RMK AO2
8A0,1/17/16 1:55,37.4,37.4,100.0,340,7,0.0,29.92,M,10.0,M,CLR,M,M,M,M,M,M,M,M,M,M,M,M,M,M,31.36,K8A0 170155Z AUTO 34007KT 10SM CLR 03/03 A2992 RMK AO2
8A0,1/17/16 2:15,37.4,37.4,100.0,350,7,0.0,29.9,M,10.0,M,CLR,M,M,M,M,M,M,M,M,M,M,M,M,M,M,31.36,K8A0 170215Z AUTO 35007KT 10SM CLR 03/03 A2990 RMK AO2
8A0,1/17/16 2:35,37.4,35.6,93.14,350,8,0.0,29.9,M,7.0,M,CLR,M,M,M,M,M,M,M,M,M,M,M,M,M,M,30.76,K8A0 170235Z AUTO 35008KT 7SM CLR 03/02 A2990 RMK AO2
8A0,1/17/16 2:55,37.4,35.6,93.14,360,6,0.0,29.89,M,7.0,M,CLR,M,M,M,M,M,M,M,M,M,M,M,M,M,M,32.03,K8A0 170255Z AUTO 36006KT 7SM CLR 03/02 A2989 RMK AO2
8A0,1/17/16 3:15,35.6,35.6,100.0,360,7,0.0,29.9,M,7.0,M,BKN,M,M,M,12000,M,M,M,M,M,M,M,M,M,M,29.17,K8A0 170315Z AUTO 36007KT 7SM BKN120 02/02 A2990 RMK AO2
8A0,1/17/16 3:35,35.6,35.6,100.0,10,5,0.0,29.91,M,7.0,M,OVC,M,M,M,11000,M,M,M,M,M,M,M,M,M,M,30.67,K8A0 170335Z AUTO 01005KT 7SM OVC110 02/02 A2991 RMK AO2
8A0,1/17/16 3:55,35.6,35.6,100.0,360,4,0.0,29.9,M,7.0,M,OVC,M,M,M,11000,M,M,M,M,M,M,M,M,M,M,31.62,K8A0 170355Z AUTO 36004KT 7SM OVC110 02/02 A2990 RMK AO2
8A0,1/17/16 4:15,35.6,35.6,100.0,350,6,0.0,29.91,M,7.0,M,OVC,M,M,M,11000,M,M,M,M,M,M,M,M,M,M,29.87,K8A0 170415Z AUTO 35006KT 7SM OVC110 02/02 A2991 RMK AO2
8A0,1/17/16 4:35,35.6,35.6,100.0,10,5,0.0,29.89,M,7.0,M,OVC,M,M,M,11000,M,M,M,M,M,M,M,M,M,M,30.67,K8A0 170435Z AUTO 01005KT 7SM OVC110 02/02 A2989 RMK AO2
8A0,1/17/16 4:55,35.6,33.8,93.08,10,6,0.0,29.87,M,7.0,M,OVC,M,M,M,10000,M,M,M,M,M,M,M,M,M,M,29.87,K8A0 170455Z AUTO 01006KT 7SM OVC100 02/01 A2987 RMK AO2
8A0,1/17/16 5:15,35.6,33.8,93.08,10,4,0.0,29.87,M,7.0,M,BKN,BKN,M,M,10000,11000,M,M,M,M,M,M,M,M,M,31.62,K8A0 170515Z AUTO 01004KT 7SM BKN100 BKN110 02/01 A2987 RMK AO2
8A0,1/17/16 5:35,33.8,33.8,100.0,20,5,0.0,29.84,M,7.0,M,CLR,M,M,M,M,M,M,M,M,M,M,M,M,M,M,28.53,K8A0 170535Z AUTO 02005KT 7SM CLR 01/01 A2984 RMK AO2
8A0,1/17/16 5:55,33.8,33.8,100.0,20,7,0.0,29.83,M,7.0,M,CLR,M,M,M,M,M,M,M,M,M,M,M,M,M,M,26.97,K8A0 170555Z AUTO 02007KT 7SM CLR 01/01 A2983 RMK AO2
8A0,1/17/16 6:15,33.8,33.8,100.0,40,8,0.0,29.83,M,7.0,M,CLR,M,M,M,M,M,M,M,M,M,M,M,M,M,M,26.33,K8A0 170615Z AUTO 04008KT 7SM CLR 01/01 A2983 RMK AO2
8A0,1/17/16 6:35,33.8,33.8,100.0,10,6,0.0,29.84,M,7.0,M,BKN,M,M,M,10000,M,M,M,M,M,M,M,M,M,M,27.7,K8A0 170635Z AUTO 01006KT 7SM BKN100 01/01 A2984 RMK AO2
8A0,1/17/16 6:55,33.8,33.8,100.0,20,6,0.0,29.82,M,7.0,M,OVC,M,M,M,10000,M,M,M,M,M,M,M,M,M,M,27.7,K8A0 170655Z AUTO 02006KT 7SM OVC100 01/01 A2982 RMK AO2
8A0,1/17/16 7:15,33.8,33.8,100.0,10,7,0.0,29.8,M,7.0,M,OVC,M,M,M,9000,M,M,M,M,M,M,M,M,M,M,26.97,K8A0 170715Z AUTO 01007KT 7SM OVC090 01/01 A2980 RMK AO2
8A0,1/17/16 7:35,33.8,32.0,93.03,10,6,0.0,29.84,M,7.0,14,OVC,M,M,M,9000,M,M,M,M,M,M,M,M,M,M,27.7,K8A0 170735Z AUTO 01006G14KT 7SM OVC090 01/00 A2984 RMK AO2
8A0,1/17/16 7:55,33.8,33.8,100.0,20,6,0.0,29.83,M,7.0,M,BKN,BKN,OVC,M,1400,7000,9000,M,M,M,M,M,M,M,M,27.7,K8A0 170755Z AUTO 02006KT 7SM BKN014 BKN070 OVC090 01/01 A2983 RMK AO2 LTG DSNT SE
8A0,1/17/16 8:15,33.8,32.0,93.03,360,7,0.0,29.85,M,10.0,M,BKN,BKN,OVC,M,1400,7000,8500,M,M,M,M,M,M,M,M,26.97,K8A0 170815Z AUTO 36007KT 10SM BKN014 BKN070 OVC085 01/00 A2985 RMK AO2
8A0,1/17/16 8:35,33.8,32.0,93.03,330,8,0.0,29.86,M,10.0,M,BKN,BKN,OVC,M,1600,6000,7000,M,M,M,M,M,M,M,M,26.33,K8A0 170835Z AUTO 33008KT 10SM BKN016 BKN060 OVC070 01/00 A2986 RMK AO2
8A0,1/17/16 8:55,33.8,32.0,93.03,360,7,0.0,29.87,M,10.0,M,SCT,OVC,M,M,1600,7500,M,M,M,M,M,M,M,M,M,26.97,K8A0 170855Z AUTO 36007KT 10SM SCT016 OVC075 01/00 A2987 RMK AO2
8A0,1/17/16 9:15,33.8,32.0,93.03,360,8,0.0,29.87,M,10.0,M,SCT,OVC,M,M,1600,6500,M,M,M,M,M,M,M,M,M,26.33,K8A0 170915Z AUTO 36008KT 10SM SCT016 OVC065 01/00 A2987 RMK AO2
8A0,1/17/16 9:35,33.8,32.0,93.03,360,6,0.0,29.87,M,10.0,M,OVC,M,M,M,6500,M,M,M,M,M,M,M,M,M,M,27.7,K8A0 170935Z AUTO 36006KT 10SM OVC065 01/00 A2987 RMK AO2
8A0,1/17/16 9:55,33.8,32.0,93.03,350,7,0.0,29.89,M,10.0,M,OVC,M,M,M,6500,M,M,M,M,M,M,M,M,M,M,26.97,K8A0 170955Z AUTO 35007KT 10SM OVC065 01/00 A2989 RMK AO2
8A0,1/17/16 10:15,33.8,32.0,93.03,340,8,0.0,29.89,M,10.0,M,SCT,BKN,OVC,M,4000,4600,6500,M,M,M,M,M,M,M,M,26.33,K8A0 171015Z AUTO 34008KT 10SM SCT040 BKN046 OVC065 01/00 A2989 RMK AO2
8A0,1/17/16 10:35,33.8,32.0,93.03,350,7,0.0,29.9,M,10.0,M,BKN,OVC,M,M,4300,5000,M,M,M,M,M,M,M,M,M,26.97,K8A0 171035Z AUTO 35007KT 10SM BKN043 OVC050 01/00 A2990 RMK AO2
8A0,1/17/16 10:55,33.8,32.0,93.03,340,6,0.0,29.91,M,10.0,M,SCT,OVC,M,M,4500,6000,M,M,M,M,M,M,M,M,M,27.7,K8A0 171055Z AUTO 34006KT 10SM SCT045 OVC060 01/00 A2991 RMK AO2
8A0,1/17/16 11:15,32.0,32.0,100.0,330,7,0.0,29.91,M,10.0,M,SCT,BKN,OVC,M,4800,6500,11000,M,M,M,M,M,M,M,M,24.78,K8A0 171115Z AUTO 33007KT 10SM SCT048 BKN065 OVC110 00/00 A2991 RMK AO2
8A0,1/17/16 11:35,32.0,32.0,100.0,330,7,0.0,29.92,M,10.0,M,SCT,SCT,BKN,M,1600,6000,11000,M,M,M,M,M,M,M,M,24.78,K8A0 171135Z AUTO 33007KT 10SM SCT016 SCT060 BKN110 00/00 A2992 RMK AO2
8A0,1/17/16 11:55,32.0,32.0,100.0,330,6,0.0,29.93,M,10.0,M,BKN,BKN,M,M,1600,9000,M,M,M,M,M,M,M,M,M,25.53,K8A0 171155Z AUTO 33006KT 10SM BKN016 BKN090 00/00 A2993 RMK AO2
8A0,1/17/16 12:15,32.0,32.0,100.0,350,8,0.0,29.93,M,10.0,M,OVC,M,M,M,1600,M,M,M,M,M,M,M,M,M,M,24.11,K8A0 171215Z AUTO 35008KT 10SM OVC016 00/00 A2993 RMK AO2
8A0,1/17/16 12:35,32.0,32.0,100.0,350,10,0.0,29.94,M,10.0,M,OVC,M,M,M,1600,M,M,M,M,M,M,M,M,M,M,22.97,K8A0 171235Z AUTO 35010KT 10SM OVC016 00/00 A2994 RMK AO2
8A0,1/17/16 12:55,32.0,32.0,100.0,320,13,0.0,29.95,M,10.0,M,OVC,M,M,M,1400,M,M,M,M,M,M,M,M,M,M,21.57,K8A0 171255Z AUTO 32013KT 10SM OVC014 00/00 A2995 RMK AO2
8A0,1/17/16 13:15,32.0,32.0,100.0,350,11,0.0,29.96,M,10.0,16,OVC,M,M,M,1400,M,M,M,M,M,M,M,M,M,M,22.47,K8A0 171315Z AUTO 35011G16KT 10SM OVC014 00/00 A2996 RMK AO2
8A0,1/17/16 13:35,32.0,32.0,100.0,340,7,0.0,29.97,M,10.0,16,OVC,M,M,M,1600,M,M,M,M,M,M,M,M,M,M,24.78,K8A0 171335Z AUTO 34007G16KT 10SM OVC016 00/00 A2997 RMK AO2
8A0,1/17/16 13:55,32.0,30.2,92.97,340,12,0.0,29.97,M,10.0,20,BKN,M,M,M,1800,M,M,M,M,M,M,M,M,M,M,22.0,K8A0 171355Z AUTO 34012G20KT 10SM BKN018 00/M01 A2997 RMK AO2
8A0,1/17/16 14:15,32.0,30.2,92.97,350,12,0.0,29.98,M,10.0,22,SCT,M,M,M,1800,M,M,M,M,M,M,M,M,M,M,22.0,K8A0 171415Z AUTO 35012G22KT 10SM SCT018 00/M01 A2998 RMK AO2
8A0,1/17/16 14:35,32.0,32.0,100.0,330,11,0.0,30.01,M,10.0,17,SCT,M,M,M,1800,M,M,M,M,M,M,M,M,M,M,22.47,K8A0 171435Z AUTO 33011G17KT 10SM SCT018 00/00 A3001 RMK AO2
8A0,1/17/16 14:55,33.8,30.2,86.49,330,13,0.0,30.02,M,10.0,18,SCT,M,M,M,2000,M,M,M,M,M,M,M,M,M,M,23.87,K8A0 171455Z AUTO 33013G18KT 10SM SCT020 01/M01 A3002 RMK AO2
8A0,1/17/16 15:15,33.8,32.0,93.03,350,12,0.0,30.02,M,10.0,M,CLR,M,M,M,M,M,M,M,M,M,M,M,M,M,M,24.29,K8A0 171515Z AUTO 35012KT 10SM CLR 01/00 A3002 RMK AO2
8A0,1/17/16 15:35,35.6,32.0,86.59,340,11,0.0,30.02,M,10.0,M,CLR,M,M,M,M,M,M,M,M,M,M,M,M,M,M,27.02,K8A0 171535Z AUTO 34011KT 10SM CLR 02/00 A3002 RMK AO2
8A0,1/17/16 15:55,35.6,32.0,86.59,330,10,0.0,30.02,M,10.0,M,CLR,M,M,M,M,M,M,M,M,M,M,M,M,M,M,27.48,K8A0 171555Z AUTO 33010KT 10SM CLR 02/00 A3002 RMK AO2
8A0,1/17/16 16:15,37.4,32.0,80.65,320,12,0.0,30.02,M,10.0,18,CLR,M,M,M,M,M,M,M,M,M,M,M,M,M,M,28.87,K8A0 171615Z AUTO 32012G18KT 10SM CLR 03/00 A3002 RMK AO2
8A0,1/17/16 16:35,37.4,32.0,80.65,340,10,0.0,30.02,M,10.0,16,CLR,M,M,M,M,M,M,M,M,M,M,M,M,M,M,29.74,K8A0 171635Z AUTO 34010G16KT 10SM CLR 03/00 A3002 RMK AO2
8A0,1/17/16 16:55,37.4,32.0,80.65,330,11,0.0,30.02,M,10.0,16,CLR,M,M,M,M,M,M,M,M,M,M,M,M,M,M,29.29,K8A0 171655Z AUTO 33011G16KT 10SM CLR 03/00 A3002 RMK AO2
8A0,1/17/16 17:15,39.2,32.0,75.16,350,12,0.0,30.01,M,10.0,17,CLR,M,M,M,M,M,M,M,M,M,M,M,M,M,M,31.17,K8A0 171715Z AUTO 35012G17KT 10SM CLR 04/00 A3001 RMK AO2
8A0,1/17/16 17:35,41.0,30.2,65.16,330,11,0.0,30.01,M,10.0,18,CLR,M,M,M,M,M,M,M,M,M,M,M,M,M,M,33.84,K8A0 171735Z AUTO 33011G18KT 10SM CLR 05/M01 A3001 RMK AO2
8A0,1/17/16 17:55,41.0,30.2,65.16,320,11,0.0,30.0,M,10.0,18,CLR,M,M,M,M,M,M,M,M,M,M,M,M,M,M,33.84,K8A0 171755Z AUTO 32011G18KT 279V339 10SM CLR 05/M01 A3000 RMK AO2
8A0,1/17/16 18:15,41.0,32.0,70.08,350,9,0.0,29.99,M,10.0,17,CLR,M,M,M,M,M,M,M,M,M,M,M,M,M,M,34.7,K8A0 171815Z AUTO 35009G17KT 10SM CLR 05/00 A2999 RMK AO2
8A0,1/17/16 18:35,41.0,32.0,70.08,330,12,0.0,29.98,M,10.0,18,CLR,M,M,M,M,M,M,M,M,M,M,M,M,M,M,33.46,K8A0 171835Z AUTO 33012G18KT 10SM CLR 05/00 A2998 RMK AO2
8A0,1/17/16 18:55,41.0,32.0,70.08,330,12,0.0,29.98,M,10.0,M,CLR,M,M,M,M,M,M,M,M,M,M,M,M,M,M,33.46,K8A0 171855Z AUTO 33012KT 10SM CLR 05/00 A2998 RMK AO2
8A0,1/17/16 19:15,41.0,32.0,70.08,300,9,0.0,29.98,M,10.0,M,CLR,M,M,M,M,M,M,M,M,M,M,M,M,M,M,34.7,K8A0 171915Z AUTO 30009KT 10SM CLR 05/00 A2998 RMK AO2
8A0,1/17/16 19:35,41.0,32.0,70.08,330,10,0.0,29.99,M,10.0,19,CLR,M,M,M,M,M,M,M,M,M,M,M,M,M,M,34.25,K8A0 171935Z AUTO 33010G19KT 10SM CLR 05/00 A2999 RMK AO2
8A0,1/17/16 19:55,42.8,30.2,60.79,300,11,0.0,29.99,M,10.0,18,CLR,M,M,M,M,M,M,M,M,M,M,M,M,M,M,36.11,K8A0 171955Z AUTO 30011G18KT 269V339 10SM CLR 06/M01 A2999 RMK AO2
8A0,1/17/16 20:15,41.0,30.2,65.16,330,12,0.0,30.0,M,10.0,15,CLR,M,M,M,M,M,M,M,M,M,M,M,M,M,M,33.46,K8A0 172015Z AUTO 33012G15KT 10SM CLR 05/M01 A3000 RMK AO2
8A0,1/17/16 20:35,42.8,30.2,60.79,330,11,0.0,30.01,M,10.0,M,CLR,M,M,M,M,M,M,M,M,M,M,M,M,M,M,36.11,K8A0 172035Z AUTO 33011KT 10SM CLR 06/M01 A3001 RMK AO2
8A0,1/17/16 20:55,42.8,30.2,60.79,320,11,0.0,30.02,M,10.0,17,CLR,M,M,M,M,M,M,M,M,M,M,M,M,M,M,36.11,K8A0 172055Z AUTO 32011G17KT 10SM CLR 06/M01 A3002 RMK AO2
8A0,1/17/16 21:15,41.0,30.2,65.16,330,9,0.0,30.02,M,10.0,16,CLR,M,M,M,M,M,M,M,M,M,M,M,M,M,M,34.7,K8A0 172115Z AUTO 33009G16KT 10SM CLR 05/M01 A3002 RMK AO2
8A0,1/17/16 21:35,41.0,30.2,65.16,310,10,0.0,30.02,M,10.0,M,CLR,M,M,M,M,M,M,M,M,M,M,M,M,M,M,34.25,K8A0 172135Z AUTO 31010KT 10SM CLR 05/M01 A3002 RMK AO2
8A0,1/17/16 21:55,41.0,30.2,65.16,320,8,0.0,30.03,M,10.0,M,CLR,M,M,M,M,M,M,M,M,M,M,M,M,M,M,35.2,K8A0 172155Z AUTO 32008KT 10SM CLR 05/M01 A3003 RMK AO2
8A0,1/17/16 22:15,41.0,30.2,65.16,300,8,0.0,30.03,M,10.0,M,CLR,M,M,M,M,M,M,M,M,M,M,M,M,M,M,35.2,K8A0 172215Z AUTO 30008KT 10SM CLR 05/M01 A3003 RMK AO2
8A0,1/17/16 22:35,41.0,30.2,65.16,300,6,0.0,30.04,M,10.0,M,CLR,M,M,M,M,M,M,M,M,M,M,M,M,M,M,36.37,K8A0 172235Z AUTO 30006KT 10SM CLR 05/M01 A3004 RMK AO2
8A0,1/17/16 22:55,39.2,30.2,69.88,290,7,0.0,30.05,M,10.0,M,CLR,M,M,M,M,M,M,M,M,M,M,M,M,M,M,33.56,K8A0 172255Z AUTO 29007KT 10SM CLR 04/M01 A3005 RMK AO2
8A0,1/17/16 23:15,37.4,30.2,74.98,300,4,0.0,30.06,M,10.0,M,CLR,M,M,M,M,M,M,M,M,M,M,M,M,M,M,33.73,K8A0 172315Z AUTO 30004KT 10SM CLR 03/M01 A3006 RMK AO2
8A0,1/17/16 23:35,37.4,28.4,69.67,300,5,0.0,30.07,M,10.0,M,CLR,M,M,M,M,M,M,M,M,M,M,M,M,M,M,32.81,K8A0 172335Z AUTO 30005KT 10SM CLR 03/M02 A3007 RMK AO2
8A0,1/17/16 23:55,37.4,30.2,74.98,280,6,0.0,30.09,M,10.0,M,CLR,M,M,M,M,M,M,M,M,M,M,M,M,M,M,32.03,K8A0 172355Z AUTO 28006KT 10SM CLR 03/M01 A3009 RMK AO2
8A0,1/18/16 0:15,35.6,30.2,80.51,300,6,0.0,30.09,M,10.0,M,CLR,M,M,M,M,M,M,M,M,M,M,M,M,M,M,29.87,K8A0 180015Z AUTO 30006KT 10SM CLR 02/M01 A3009 RMK AO2
8A0,1/18/16 0:35,35.6,30.2,80.51,290,5,0.0,30.09,M,10.0,M,CLR,M,M,M,M,M,M,M,M,M,M,M,M,M,M,30.67,K8A0 180035Z AUTO 29005KT 10SM CLR 02/M01 A3009 RMK AO2
8A0,1/18/16 0:55,35.6,30.2,80.51,290,6,0.0,30.1,M,10.0,M,CLR,M,M,M,M,M,M,M,M,M,M,M,M,M,M,29.87,K8A0 180055Z AUTO 29006KT 10SM CLR 02/M01 A3010 RMK AO2
8A0,1/18/16 1:15,35.6,30.2,80.51,280,4,0.0,30.1,M,10.0,M,CLR,M,M,M,M,M,M,M,M,M,M,M,M,M,M,31.62,K8A0 180115Z AUTO 28004KT 10SM CLR 02/M01 A3010 RMK AO2
8A0,1/18/16 1:35,35.6,28.4,74.8,270,5,0.0,30.1,M,10.0,M,CLR,M,M,M,M,M,M,M,M,M,M,M,M,M,M,30.67,K8A0 180135Z AUTO 27005KT 10SM CLR 02/M02 A3010 RMK AO2
8A0,1/18/16 1:55,33.8,28.4,80.36,290,5,0.0,30.11,M,10.0,M,CLR,M,M,M,M,M,M,M,M,M,M,M,M,M,M,28.53,K8A0 180155Z AUTO 29005KT 10SM CLR 01/M02 A3011 RMK AO2
8A0,1/18/16 2:15,33.8,28.4,80.36,280,4,0.0,30.11,M,10.0,M,CLR,M,M,M,M,M,M,M,M,M,M,M,M,M,M,29.52,K8A0 180215Z AUTO 28004KT 10SM CLR 01/M02 A3011 RMK AO2
8A0,1/18/16 2:35,33.8,28.4,80.36,290,5,0.0,30.11,M,10.0,M,CLR,M,M,M,M,M,M,M,M,M,M,M,M,M,M,28.53,K8A0 180235Z AUTO 29005KT 10SM CLR 01/M02 A3011 RMK AO2
8A0,1/18/16 2:55,33.8,28.4,80.36,300,5,0.0,30.12,M,10.0,M,CLR,M,M,M,M,M,M,M,M,M,M,M,M,M,M,28.53,K8A0 180255Z AUTO 30005KT 10SM CLR 01/M02 A3012 RMK AO2
8A0,1/18/16 3:15,33.8,28.4,80.36,300,4,0.0,30.12,M,10.0,M,CLR,M,M,M,M,M,M,M,M,M,M,M,M,M,M,29.52,K8A0 180315Z AUTO 30004KT 10SM CLR 01/M02 A3012 RMK AO2
8A0,1/18/16 3:35,33.8,28.4,80.36,300,5,0.0,30.12,M,10.0,M,CLR,M,M,M,M,M,M,M,M,M,M,M,M,M,M,28.53,K8A0 180335Z AUTO 30005KT 10SM CLR 01/M02 A3012 RMK AO2
8A0,1/18/16 3:55,33.8,28.4,80.36,300,5,0.0,30.13,M,10.0,M,CLR,M,M,M,M,M,M,M,M,M,M,M,M,M,M,28.53,K8A0 180355Z AUTO 30005KT 10SM CLR 01/M02 A3013 RMK AO2
8A0,1/18/16 4:15,33.8,28.4,80.36,300,5,0.0,30.13,M,10.0,M,CLR,M,M,M,M,M,M,M,M,M,M,M,M,M,M,28.53,K8A0 180415Z AUTO 30005KT 10SM CLR 01/M02 A3013 RMK AO2
8A0,1/18/16 4:35,32.0,28.4,86.39,310,6,0.0,30.12,M,10.0,M,CLR,M,M,M,M,M,M,M,M,M,M,M,M,M,M,25.53,K8A0 180435Z AUTO 31006KT 10SM CLR 00/M02 A3012 RMK AO2
8A0,1/18/16 4:55,32.0,28.4,86.39,310,6,0.0,30.12,M,10.0,M,CLR,M,M,M,M,M,M,M,M,M,M,M,M,M,M,25.53,K8A0 180455Z AUTO 31006KT 10SM CLR 00/M02 A3012 RMK AO2
8A0,1/18/16 5:15,32.0,28.4,86.39,310,6,0.0,30.13,M,10.0,M,CLR,M,M,M,M,M,M,M,M,M,M,M,M,M,M,25.53,K8A0 180515Z AUTO 31006KT 10SM CLR 00/M02 A3013 RMK AO2
8A0,1/18/16 5:35,32.0,28.4,86.39,310,6,0.0,30.13,M,10.0,M,CLR,M,M,M,M,M,M,M,M,M,M,M,M,M,M,25.53,K8A0 180535Z AUTO 31006KT 10SM CLR 00/M02 A3013 RMK AO2
8A0,1/18/16 5:55,32.0,28.4,86.39,310,6,0.0,30.13,M,10.0,M,CLR,M,M,M,M,M,M,M,M,M,M,M,M,M,M,25.53,K8A0 180555Z AUTO 31006KT 10SM CLR 00/M02 A3013 RMK AO2
8A0,1/18/16 6:15,32.0,28.4,86.39,300,4,0.0,30.13,M,10.0,M,CLR,M,M,M,M,M,M,M,M,M,M,M,M,M,M,27.42,K8A0 180615Z AUTO 30004KT 10SM CLR 00/M02 A3013 RMK AO2
8A0,1/18/16 6:35,32.0,28.4,86.39,310,6,0.0,30.13,M,10.0,M,CLR,M,M,M,M,M,M,M,M,M,M,M,M,M,M,25.53,K8A0 180635Z AUTO 31006KT 10SM CLR 00/M02 A3013 RMK AO2
8A0,1/18/16 6:55,32.0,28.4,86.39,300,6,0.0,30.14,M,10.0,M,CLR,M,M,M,M,M,M,M,M,M,M,M,M,M,M,25.53,K8A0 180655Z AUTO 30006KT 10SM CLR 00/M02 A3014 RMK AO2
8A0,1/18/16 7:15,32.0,28.4,86.39,300,5,0.0,30.14,M,10.0,M,CLR,M,M,M,M,M,M,M,M,M,M,M,M,M,M,26.4,K8A0 180715Z AUTO 30005KT 10SM CLR 00/M02 A3014 RMK AO2
8A0,1/18/16 7:35,32.0,28.4,86.39,300,5,0.0,30.15,M,10.0,M,CLR,M,M,M,M,M,M,M,M,M,M,M,M,M,M,26.4,K8A0 180735Z AUTO 30005KT 10SM CLR 00/M02 A3015 RMK AO2
8A0,1/18/16 7:55,30.2,28.4,92.92,300,4,0.0,30.15,M,10.0,M,CLR,M,M,M,M,M,M,M,M,M,M,M,M,M,M,25.32,K8A0 180755Z AUTO 30004KT 10SM CLR M01/M02 A3015 RMK AO2
8A0,1/18/16 8:15,30.2,28.4,92.92,310,4,0.0,30.16,M,10.0,M,CLR,M,M,M,M,M,M,M,M,M,M,M,M,M,M,25.32,K8A0 180815Z AUTO 31004KT 10SM CLR M01/M02 A3016 RMK AO2
8A0,1/18/16 8:35,30.2,28.4,92.92,330,6,0.0,30.16,M,10.0,M,SCT,M,M,M,10000,M,M,M,M,M,M,M,M,M,M,23.36,K8A0 180835Z AUTO 33006KT 10SM SCT100 M01/M02 A3016 RMK AO2
8A0,1/18/16 8:55,30.2,28.4,92.92,350,7,0.0,30.17,M,10.0,M,CLR,M,M,M,M,M,M,M,M,M,M,M,M,M,M,22.59,K8A0 180855Z AUTO 35007KT 10SM CLR M01/M02 A3017 RMK AO2
8A0,1/18/16 9:15,28.4,28.4,100.0,340,9,0.0,30.17,M,10.0,M,SCT,SCT,M,M,1500,2000,M,M,M,M,M,M,M,M,M,19.04,K8A0 180915Z AUTO 34009KT 10SM SCT015 SCT020 M02/M02 A3017 RMK AO2
8A0,1/18/16 9:35,30.2,28.4,92.92,330,8,0.0,30.18,M,10.0,M,BKN,BKN,M,M,2200,11000,M,M,M,M,M,M,M,M,M,21.9,K8A0 180935Z AUTO 33008KT 10SM BKN022 BKN110 M01/M02 A3018 RMK AO2
8A0,1/18/16 9:55,30.2,28.4,92.92,330,7,0.0,30.19,M,10.0,M,SCT,BKN,OVC,M,1600,2100,11000,M,M,M,M,M,M,M,M,22.59,K8A0 180955Z AUTO 33007KT 10SM SCT016 BKN021 OVC110 M01/M02 A3019 RMK AO2
8A0,1/18/16 10:15,30.2,28.4,92.92,350,9,0.0,30.18,M,10.0,M,SCT,BKN,OVC,M,1700,2200,12000,M,M,M,M,M,M,M,M,21.28,K8A0 181015Z AUTO 35009KT 10SM SCT017 BKN022 OVC120 M01/M02 A3018 RMK AO2
8A0,1/18/16 10:35,30.2,28.4,92.92,350,8,0.0,30.18,M,10.0,M,BKN,BKN,OVC,M,2000,2500,12000,M,M,M,M,M,M,M,M,21.9,K8A0 181035Z AUTO 35008KT 10SM BKN020 BKN025 OVC120 M01/M02 A3018 RMK AO2
8A0,1/18/16 10:55,28.4,26.6,92.86,350,9,0.0,30.19,M,10.0,M,SCT,BKN,OVC,M,1600,4100,12000,M,M,M,M,M,M,M,M,19.04,K8A0 181055Z AUTO 35009KT 10SM SCT016 BKN041 OVC120 M02/M03 A3019 RMK AO2
8A0,1/18/16 11:15,28.4,26.6,92.86,360,10,0.0,30.19,M,10.0,M,SCT,SCT,OVC,M,1800,4100,12000,M,M,M,M,M,M,M,M,18.45,K8A0 181115Z AUTO 36010KT 10SM SCT018 SCT041 OVC120 M02/M03 A3019 RMK AO2
8A0,1/18/16 11:35,26.6,23.0,86.07,350,13,0.0,30.2,M,10.0,19,BKN,OVC,M,M,7000,12000,M,M,M,M,M,M,M,M,M,14.65,K8A0 181135Z AUTO 35013G19KT 10SM BKN070 OVC120 M03/M05 A3020 RMK AO2
8A0,1/18/16 11:55,26.6,21.2,79.77,350,9,0.0,30.21,M,10.0,15,OVC,M,M,M,7000,M,M,M,M,M,M,M,M,M,M,16.8,K8A0 181155Z AUTO 35009G15KT 10SM OVC070 M03/M06 A3021 RMK AO2
8A0,1/18/16 12:15,26.6,19.4,73.89,350,10,0.0,30.22,M,10.0,16,BKN,OVC,M,M,7000,12000,M,M,M,M,M,M,M,M,M,16.2,K8A0 181215Z AUTO 35010G16KT 10SM BKN070 OVC120 M03/M07 A3022 RMK AO2
8A0,1/18/16 12:35,24.8,19.4,79.62,340,7,0.0,30.24,M,10.0,M,OVC,M,M,M,12000,M,M,M,M,M,M,M,M,M,M,16.0,K8A0 181235Z AUTO 34007KT 10SM OVC120 M04/M07 A3024 RMK AO2
8A0,1/18/16 12:55,23.0,17.6,79.47,340,11,0.0,30.24,M,10.0,M,OVC,M,M,M,12000,M,M,M,M,M,M,M,M,M,M,11.09,K8A0 181255Z AUTO 34011KT 10SM OVC120 M05/M08 A3024 RMK AO2
8A0,1/18/16 13:15,23.0,17.6,79.47,330,8,0.0,30.25,M,10.0,M,OVC,M,M,M,11000,M,M,M,M,M,M,M,M,M,M,13.03,K8A0 181315Z AUTO 33008KT 10SM OVC110 M05/M08 A3025 RMK AO2
8A0,1/18/16 13:35,23.0,14.0,67.96,340,12,0.0,30.26,M,10.0,M,SCT,BKN,M,M,7000,11000,M,M,M,M,M,M,M,M,M,10.55,K8A0 181335Z AUTO 34012KT 10SM SCT070 BKN110 M05/M10 A3026 RMK AO2
8A0,1/18/16 13:55,23.0,14.0,67.96,330,10,0.0,30.27,M,10.0,M,SCT,M,M,M,7000,M,M,M,M,M,M,M,M,M,M,11.68,K8A0 181355Z AUTO 33010KT 10SM SCT070 M05/M10 A3027 RMK AO2
8A0,1/18/16 14:15,23.0,14.0,67.96,350,11,0.0,30.28,M,10.0,15,CLR,M,M,M,M,M,M,M,M,M,M,M,M,M,M,11.09,K8A0 181415Z AUTO 35011G15KT 329V029 10SM CLR M05/M10 A3028 RMK AO2
8A0,1/18/16 14:35,23.0,14.0,67.96,330,7,0.0,30.29,M,10.0,M,CLR,M,M,M,M,M,M,M,M,M,M,M,M,M,M,13.81,K8A0 181435Z AUTO 33007KT 10SM CLR M05/M10 A3029 RMK AO2
8A0,1/18/16 14:55,24.8,14.0,63.03,330,6,0.0,30.3,M,10.0,14,BKN,M,M,M,10000,M,M,M,M,M,M,M,M,M,M,16.86,K8A0 181455Z AUTO 33006G14KT 309V009 10SM BKN100 M04/M10 A3030 RMK AO2
8A0,1/18/16 15:15,24.8,14.0,63.03,350,11,0.0,30.31,M,10.0,15,BKN,M,M,M,10000,M,M,M,M,M,M,M,M,M,M,13.37,K8A0 181515Z AUTO 35011G15KT 10SM BKN100 M04/M10 A3031 RMK AO2
8A0,1/18/16 15:35,24.8,12.2,58.22,360,11,0.0,30.32,M,10.0,M,OVC,M,M,M,9000,M,M,M,M,M,M,M,M,M,M,13.37,K8A0 181535Z AUTO 36011KT 10SM OVC090 M04/M11 A3032 RMK AO2
8A0,1/18/16 15:55,24.8,14.0,63.03,350,12,0.0,30.32,M,10.0,15,OVC,M,M,M,9000,M,M,M,M,M,M,M,M,M,M,12.84,K8A0 181555Z AUTO 35012G15KT 10SM OVC090 M04/M10 A3032 RMK AO2
8A0,1/18/16 16:15,24.8,14.0,63.03,350,8,0.0,30.32,M,10.0,M,BKN,M,M,M,9000,M,M,M,M,M,M,M,M,M,M,15.24,K8A0 181615Z AUTO 35008KT 10SM BKN090 M04/M10 A3032 RMK AO2
8A0,1/18/16 16:35,26.6,14.0,58.49,350,8,0.0,30.32,M,10.0,M,BKN,M,M,M,9000,M,M,M,M,M,M,M,M,M,M,17.46,K8A0 181635Z AUTO 35008KT 10SM BKN090 M03/M10 A3032 RMK AO2
8A0,1/18/16 16:55,26.6,14.0,58.49,360,9,0.0,30.32,M,10.0,M,BKN,BKN,M,M,9000,12000,M,M,M,M,M,M,M,M,M,16.8,K8A0 181655Z AUTO 36009KT 10SM BKN090 BKN120 M03/M10 A3032 RMK AO2
8A0,1/18/16 17:15,26.6,14.0,58.49,360,6,0.0,30.32,M,10.0,M,SCT,SCT,M,M,9000,12000,M,M,M,M,M,M,M,M,M,19.03,K8A0 181715Z AUTO 36006KT 10SM SCT090 SCT120 M03/M10 A3032 RMK AO2
8A0,1/18/16 17:35,26.6,14.0,58.49,330,5,0.0,30.31,M,10.0,M,CLR,M,M,M,M,M,M,M,M,M,M,M,M,M,M,19.98,K8A0 181735Z AUTO 33005KT 10SM CLR M03/M10 A3031 RMK AO2
8A0,1/18/16 17:55,28.4,14.0,54.31,290,8,0.0,30.31,M,10.0,M,CLR,M,M,M,M,M,M,M,M,M,M,M,M,M,M,19.68,K8A0 181755Z AUTO 29008KT 10SM CLR M02/M10 A3031 RMK AO2
8A0,1/18/16 18:15,28.4,15.8,58.75,310,6,0.0,30.29,M,10.0,M,CLR,M,M,M,M,M,M,M,M,M,M,M,M,M,M,21.19,K8A0 181815Z AUTO 31006KT 10SM CLR M02/M09 A3029 RMK AO2
8A0,1/18/16 18:35,30.2,14.0,50.47,300,10,0.0,30.29,M,10.0,15,CLR,M,M,M,M,M,M,M,M,M,M,M,M,M,M,20.71,K8A0 181835Z AUTO 30010G15KT 10SM CLR M01/M10 A3029 RMK AO2
8A0,1/18/16 18:55,30.2,12.2,46.62,330,10,0.0,30.29,M,10.0,16,CLR,M,M,M,M,M,M,M,M,M,M,M,M,M,M,20.71,K8A0 181855Z AUTO 33010G16KT 10SM CLR M01/M11 A3029 RMK AO2
8A0,1/18/16 19:15,30.2,12.2,46.62,330,6,0.0,30.28,M,10.0,M,CLR,M,M,M,M,M,M,M,M,M,M,M,M,M,M,23.36,K8A0 181915Z AUTO 33006KT 10SM CLR M01/M11 A3028 RMK AO2
8A0,1/18/16 19:35,30.2,14.0,50.47,330,7,0.0,30.28,M,10.0,M,CLR,M,M,M,M,M,M,M,M,M,M,M,M,M,M,22.59,K8A0 181935Z AUTO 33007KT 10SM CLR M01/M10 A3028 RMK AO2
8A0,1/18/16 19:55,32.0,14.0,46.92,290,10,0.0,30.28,M,10.0,M,CLR,M,M,M,M,M,M,M,M,M,M,M,M,M,M,22.97,K8A0 181955Z AUTO 29010KT 10SM CLR 00/M10 A3028 RMK AO2
8A0,1/18/16 20:15,32.0,14.0,46.92,310,9,0.0,30.27,M,10.0,M,CLR,M,M,M,M,M,M,M,M,M,M,M,M,M,M,23.51,K8A0 182015Z AUTO 31009KT 10SM CLR 00/M10 A3027 RMK AO2
8A0,1/18/16 20:55,32.0,12.2,43.34,310,11,0.0,30.28,M,10.0,M,CLR,M,M,M,M,M,M,M,M,M,M,M,M,M,M,22.47,K8A0 182055Z AUTO 31011KT 10SM CLR 00/M11 A3028 RMK AO2
8A0,1/18/16 21:15,30.2,14.0,50.47,310,9,0.0,30.28,M,10.0,14,CLR,M,M,M,M,M,M,M,M,M,M,M,M,M,M,21.28,K8A0 182115Z AUTO 31009G14KT 10SM CLR M01/M10 A3028 RMK AO2
8A0,1/18/16 21:35,30.2,14.0,50.47,320,9,0.0,30.29,M,10.0,M,CLR,M,M,M,M,M,M,M,M,M,M,M,M,M,M,21.28,K8A0 182135Z AUTO 32009KT 10SM CLR M01/M10 A3029 RMK AO2
8A0,1/18/16 21:55,30.2,14.0,50.47,310,6,0.0,30.29,M,10.0,M,CLR,M,M,M,M,M,M,M,M,M,M,M,M,M,M,23.36,K8A0 182155Z AUTO 31006KT 10SM CLR M01/M10 A3029 RMK AO2
8A0,1/18/16 22:15,30.2,14.0,50.47,290,7,0.0,30.29,M,10.0,M,CLR,M,M,M,M,M,M,M,M,M,M,M,M,M,M,22.59,K8A0 182215Z AUTO 29007KT 10SM CLR M01/M10 A3029 RMK AO2
8A0,1/18/16 22:35,30.2,14.0,50.47,290,9,0.0,30.29,M,10.0,M,CLR,M,M,M,M,M,M,M,M,M,M,M,M,M,M,21.28,K8A0 182235Z AUTO 29009KT 10SM CLR M01/M10 A3029 RMK AO2
8A0,1/18/16 22:55,28.4,14.0,54.31,310,7,0.0,30.29,M,10.0,M,CLR,M,M,M,M,M,M,M,M,M,M,M,M,M,M,20.39,K8A0 182255Z AUTO 31007KT 10SM CLR M02/M10 A3029 RMK AO2
8A0,1/18/16 23:15,28.4,14.0,54.31,320,5,0.0,30.29,M,10.0,M,CLR,M,M,M,M,M,M,M,M,M,M,M,M,M,M,22.12,K8A0 182315Z AUTO 32005KT 10SM CLR M02/M10 A3029 RMK AO2
8A0,1/18/16 23:35,28.4,14.0,54.31,310,6,0.0,30.3,M,10.0,M,CLR,M,M,M,M,M,M,M,M,M,M,M,M,M,M,21.19,K8A0 182335Z AUTO 31006KT 10SM CLR M02/M10 A3030 RMK AO2
8A0,1/18/16 23:55,28.4,14.0,54.31,310,4,0.0,30.31,M,10.0,M,CLR,M,M,M,M,M,M,M,M,M,M,M,M,M,M,23.22,K8A0 182355Z AUTO 31004KT 10SM CLR M02/M10 A3031 RMK AO2
8A0,1/19/16 0:15,26.6,14.0,58.49,320,3,0.0,30.32,M,10.0,M,CLR,M,M,M,M,M,M,M,M,M,M,M,M,M,M,22.52,K8A0 190015Z AUTO 32003KT 10SM CLR M03/M10 A3032 RMK AO2
8A0,1/19/16 0:35,26.6,14.0,58.49,320,3,0.0,30.32,M,10.0,M,CLR,M,M,M,M,M,M,M,M,M,M,M,M,M,M,22.52,K8A0 190035Z AUTO 32003KT 10SM CLR M03/M10 A3032 RMK AO2
8A0,1/19/16 0:55,26.6,14.0,58.49,310,4,0.0,30.32,M,10.0,M,CLR,M,M,M,M,M,M,M,M,M,M,M,M,M,M,21.11,K8A0 190055Z AUTO 31004KT 10SM CLR M03/M10 A3032 RMK AO2
8A0,1/19/16 1:15,26.6,14.0,58.49,320,5,0.0,30.32,M,10.0,M,CLR,M,M,M,M,M,M,M,M,M,M,M,M,M,M,19.98,K8A0 190115Z AUTO 32005KT 10SM CLR M03/M10 A3032 RMK AO2
8A0,1/19/16 1:35,26.6,14.0,58.49,330,5,0.0,30.32,M,10.0,M,SCT,M,M,M,11000,M,M,M,M,M,M,M,M,M,M,19.98,K8A0 190135Z AUTO 33005KT 10SM SCT110 M03/M10 A3032 RMK AO2
8A0,1/19/16 1:55,26.6,14.0,58.49,310,5,0.0,30.32,M,10.0,M,CLR,M,M,M,M,M,M,M,M,M,M,M,M,M,M,19.98,K8A0 190155Z AUTO 31005KT 10SM CLR M03/M10 A3032 RMK AO2
8A0,1/19/16 2:15,26.6,14.0,58.49,320,4,0.0,30.33,M,10.0,M,CLR,M,M,M,M,M,M,M,M,M,M,M,M,M,M,21.11,K8A0 190215Z AUTO 32004KT 10SM CLR M03/M10 A3033 RMK AO2
8A0,1/19/16 2:35,24.8,15.8,68.18,310,4,0.0,30.33,M,10.0,M,CLR,M,M,M,M,M,M,M,M,M,M,M,M,M,M,19.01,K8A0 190235Z AUTO 31004KT 10SM CLR M04/M09 A3033 RMK AO2
8A0,1/19/16 2:55,24.8,14.0,63.03,310,5,0.0,30.33,M,10.0,M,CLR,M,M,M,M,M,M,M,M,M,M,M,M,M,M,17.84,K8A0 190255Z AUTO 31005KT 10SM CLR M04/M10 A3033 RMK AO2
8A0,1/19/16 3:15,24.8,15.8,68.18,310,5,0.0,30.34,M,10.0,M,SCT,M,M,M,12000,M,M,M,M,M,M,M,M,M,M,17.84,K8A0 190315Z AUTO 31005KT 10SM SCT120 M04/M09 A3034 RMK AO2
8A0,1/19/16 3:35,24.8,14.0,63.03,320,4,0.0,30.34,M,10.0,M,CLR,M,M,M,M,M,M,M,M,M,M,M,M,M,M,19.01,K8A0 190335Z AUTO 32004KT 10SM CLR M04/M10 A3034 RMK AO2
8A0,1/19/16 3:55,23.0,14.0,67.96,310,5,0.0,30.35,M,10.0,M,CLR,M,M,M,M,M,M,M,M,M,M,M,M,M,M,15.71,K8A0 190355Z AUTO 31005KT 10SM CLR M05/M10 A3035 RMK AO2
8A0,1/19/16 4:15,23.0,14.0,67.96,330,4,0.0,30.35,M,10.0,M,CLR,M,M,M,M,M,M,M,M,M,M,M,M,M,M,16.91,K8A0 190415Z AUTO 33004KT 10SM CLR M05/M10 A3035 RMK AO2
8A0,1/19/16 4:35,23.0,14.0,67.96,310,3,0.0,30.35,M,10.0,M,CLR,M,M,M,M,M,M,M,M,M,M,M,M,M,M,18.4,K8A0 190435Z AUTO 31003KT 10SM CLR M05/M10 A3035 RMK AO2
8A0,1/19/16 4:55,23.0,15.8,73.51,330,5,0.0,30.35,M,10.0,M,CLR,M,M,M,M,M,M,M,M,M,M,M,M,M,M,15.71,K8A0 190455Z AUTO 33005KT 10SM CLR M05/M09 A3035 RMK AO2
8A0,1/19/16 5:15,23.0,14.0,67.96,340,4,0.0,30.35,M,10.0,M,CLR,M,M,M,M,M,M,M,M,M,M,M,M,M,M,16.91,K8A0 190515Z AUTO 34004KT 10SM CLR M05/M10 A3035 RMK AO2
8A0,1/19/16 5:35,23.0,14.0,67.96,330,4,0.0,30.35,M,10.0,M,CLR,M,M,M,M,M,M,M,M,M,M,M,M,M,M,16.91,K8A0 190535Z AUTO 33004KT 10SM CLR M05/M10 A3035 RMK AO2
8A0,1/19/16 5:55,23.0,14.0,67.96,310,4,0.0,30.36,M,10.0,M,CLR,M,M,M,M,M,M,M,M,M,M,M,M,M,M,16.91,K8A0 190555Z AUTO 31004KT 10SM CLR M05/M10 A3036 RMK AO2
8A0,1/19/16 6:15,21.2,14.0,73.32,310,4,0.0,30.36,M,10.0,M,CLR,M,M,M,M,M,M,M,M,M,M,M,M,M,M,14.81,K8A0 190615Z AUTO 31004KT 10SM CLR M06/M10 A3036 RMK AO2
8A0,1/19/16 6:35,21.2,14.0,73.32,310,3,0.0,30.36,M,10.0,M,CLR,M,M,M,M,M,M,M,M,M,M,M,M,M,M,16.34,K8A0 190635Z AUTO 31003KT 10SM CLR M06/M10 A3036 RMK AO2
8A0,1/19/16 6:55,21.2,14.0,73.32,310,4,0.0,30.36,M,10.0,M,CLR,M,M,M,M,M,M,M,M,M,M,M,M,M,M,14.81,K8A0 190655Z AUTO 31004KT 10SM CLR M06/M10 A3036 RMK AO2
8A0,1/19/16 7:15,21.2,14.0,73.32,300,4,0.0,30.36,M,10.0,M,CLR,M,M,M,M,M,M,M,M,M,M,M,M,M,M,14.81,K8A0 190715Z AUTO 30004KT 10SM CLR M06/M10 A3036 RMK AO2
8A0,1/19/16 7:35,21.2,14.0,73.32,310,3,0.0,30.36,M,10.0,M,CLR,M,M,M,M,M,M,M,M,M,M,M,M,M,M,16.34,K8A0 190735Z AUTO 31003KT 10SM CLR M06/M10 A3036 RMK AO2
8A0,1/19/16 7:55,19.4,14.0,79.16,320,4,0.0,30.36,M,10.0,M,CLR,M,M,M,M,M,M,M,M,M,M,M,M,M,M,12.71,K8A0 190755Z AUTO 32004KT 10SM CLR M07/M10 A3036 RMK AO2
8A0,1/19/16 8:15,19.4,14.0,79.16,310,4,0.0,30.37,M,10.0,M,CLR,M,M,M,M,M,M,M,M,M,M,M,M,M,M,12.71,K8A0 190815Z AUTO 31004KT 10SM CLR M07/M10 A3037 RMK AO2
8A0,1/19/16 8:35,19.4,14.0,79.16,340,4,0.0,30.36,M,10.0,M,CLR,M,M,M,M,M,M,M,M,M,M,M,M,M,M,12.71,K8A0 190835Z AUTO 34004KT 10SM CLR M07/M10 A3036 RMK AO2
8A0,1/19/16 8:55,19.4,14.0,79.16,10,5,0.0,30.35,M,10.0,M,CLR,M,M,M,M,M,M,M,M,M,M,M,M,M,M,11.43,K8A0 190855Z AUTO 01005KT 10SM CLR M07/M10 A3035 RMK AO2
8A0,1/19/16 9:15,19.4,12.2,73.13,10,4,0.0,30.35,M,10.0,M,CLR,M,M,M,M,M,M,M,M,M,M,M,M,M,M,12.71,K8A0 190915Z AUTO 01004KT 10SM CLR M07/M11 A3035 RMK AO2
8A0,1/19/16 9:35,19.4,12.2,73.13,360,3,0.0,30.36,M,10.0,M,CLR,M,M,M,M,M,M,M,M,M,M,M,M,M,M,14.28,K8A0 190935Z AUTO 36003KT 10SM CLR M07/M11 A3036 RMK AO2
8A0,1/19/16 9:55,19.4,12.2,73.13,340,5,0.0,30.36,M,10.0,M,CLR,M,M,M,M,M,M,M,M,M,M,M,M,M,M,11.43,K8A0 190955Z AUTO 34005KT 10SM CLR M07/M11 A3036 RMK AO2
8A0,1/19/16 10:15,19.4,12.2,73.13,350,3,0.0,30.36,M,10.0,M,CLR,M,M,M,M,M,M,M,M,M,M,M,M,M,M,14.28,K8A0 191015Z AUTO 35003KT 10SM CLR M07/M11 A3036 RMK AO2
8A0,1/19/16 10:35,17.6,12.2,79.0,0,0,0.0,30.36,M,10.0,M,CLR,M,M,M,M,M,M,M,M,M,M,M,M,M,M,17.6,K8A0 191035Z AUTO 00000KT 10SM CLR M08/M11 A3036 RMK AO2
8A0,1/19/16 10:55,19.4,12.2,73.13,360,4,0.0,30.37,M,10.0,M,CLR,M,M,M,M,M,M,M,M,M,M,M,M,M,M,12.71,K8A0 191055Z AUTO 36004KT 10SM CLR M07/M11 A3037 RMK AO2
8A0,1/19/16 11:15,19.4,12.2,73.13,340,4,0.0,30.38,M,10.0,M,CLR,M,M,M,M,M,M,M,M,M,M,M,M,M,M,12.71,K8A0 191115Z AUTO 34004KT 10SM CLR M07/M11 A3038 RMK AO2
8A0,1/19/16 11:35,19.4,12.2,73.13,360,3,0.0,30.39,M,10.0,M,CLR,M,M,M,M,M,M,M,M,M,M,M,M,M,M,14.28,K8A0 191135Z AUTO 36003KT 10SM CLR M07/M11 A3039 RMK AO2
8A0,1/19/16 11:55,19.4,12.2,73.13,350,3,0.0,30.4,M,10.0,M,CLR,M,M,M,M,M,M,M,M,M,M,M,M,M,M,14.28,K8A0 191155Z AUTO 35003KT 10SM CLR M07/M11 A3040 RMK AO2
8A0,1/19/16 12:15,19.4,12.2,73.13,20,3,0.0,30.4,M,10.0,M,CLR,M,M,M,M,M,M,M,M,M,M,M,M,M,M,14.28,K8A0 191215Z AUTO 02003KT 10SM CLR M07/M11 A3040 RMK AO2
8A0,1/19/16 12:35,17.6,14.0,85.51,10,7,0.0,30.41,M,10.0,M,CLR,M,M,M,M,M,M,M,M,M,M,M,M,M,M,7.23,K8A0 191235Z AUTO 01007KT 10SM CLR M08/M10 A3041 RMK AO2
8A0,1/19/16 12:55,17.6,12.2,79.0,350,6,0.0,30.42,M,10.0,M,CLR,M,M,M,M,M,M,M,M,M,M,M,M,M,M,8.19,K8A0 191255Z AUTO 35006KT 10SM CLR M08/M11 A3042 RMK AO2
8A0,1/19/16 13:15,17.6,12.2,79.0,350,4,0.0,30.43,M,10.0,M,CLR,M,M,M,M,M,M,M,M,M,M,M,M,M,M,10.6,K8A0 191315Z AUTO 35004KT 10SM CLR M08/M11 A3043 RMK AO2
8A0,1/19/16 13:35,19.4,14.0,79.16,350,3,0.0,30.44,M,10.0,M,CLR,M,M,M,M,M,M,M,M,M,M,M,M,M,M,14.28,K8A0 191335Z AUTO 35003KT 10SM CLR M07/M10 A3044 RMK AO2
8A0,1/19/16 13:55,19.4,14.0,79.16,10,6,0.0,30.44,M,10.0,M,CLR,M,M,M,M,M,M,M,M,M,M,M,M,M,M,10.36,K8A0 191355Z AUTO 01006KT 10SM CLR M07/M10 A3044 RMK AO2
8A0,1/19/16 14:15,21.2,14.0,73.32,340,5,0.0,30.45,M,10.0,M,CLR,M,M,M,M,M,M,M,M,M,M,M,M,M,M,13.57,K8A0 191415Z AUTO 34005KT 10SM CLR M06/M10 A3045 RMK AO2
8A0,1/19/16 14:35,21.2,14.0,73.32,10,5,0.0,30.46,M,10.0,M,CLR,M,M,M,M,M,M,M,M,M,M,M,M,M,M,13.57,K8A0 191435Z AUTO 01005KT 10SM CLR M06/M10 A3046 RMK AO2
8A0,1/19/16 14:55,21.2,14.0,73.32,350,8,0.0,30.46,M,10.0,M,CLR,M,M,M,M,M,M,M,M,M,M,M,M,M,M,10.81,K8A0 191455Z AUTO 35008KT 10SM CLR M06/M10 A3046 RMK AO2
8A0,1/19/16 15:15,23.0,14.0,67.96,360,7,0.0,30.46,M,10.0,M,CLR,M,M,M,M,M,M,M,M,M,M,M,M,M,M,13.81,K8A0 191515Z AUTO 36007KT 10SM CLR M05/M10 A3046 RMK AO2
8A0,1/19/16 15:35,23.0,14.0,67.96,20,8,0.0,30.47,M,10.0,M,CLR,M,M,M,M,M,M,M,M,M,M,M,M,M,M,13.03,K8A0 191535Z AUTO 02008KT 10SM CLR M05/M10 A3047 RMK AO2
8A0,1/19/16 15:55,24.8,14.0,63.03,360,6,0.0,30.48,M,10.0,M,CLR,M,M,M,M,M,M,M,M,M,M,M,M,M,M,16.86,K8A0 191555Z AUTO 36006KT 10SM CLR M04/M10 A3048 RMK AO2
8A0,1/19/16 16:15,24.8,14.0,63.03,360,5,0.0,30.47,M,10.0,M,CLR,M,M,M,M,M,M,M,M,M,M,M,M,M,M,17.84,K8A0 191615Z AUTO 36005KT 10SM CLR M04/M10 A3047 RMK AO2
8A0,1/19/16 16:35,26.6,14.0,58.49,350,7,0.0,30.47,M,10.0,M,CLR,M,M,M,M,M,M,M,M,M,M,M,M,M,M,18.2,K8A0 191635Z AUTO 35007KT 10SM CLR M03/M10 A3047 RMK AO2
8A0,1/19/16 16:55,26.6,14.0,58.49,0,0,0.0,30.46,M,10.0,M,CLR,M,M,M,M,M,M,M,M,M,M,M,M,M,M,26.6,K8A0 191655Z AUTO 00000KT 10SM CLR M03/M10 A3046 RMK AO2
8A0,1/19/16 17:15,30.2,17.6,59.01,40,6,0.0,30.45,M,10.0,M,CLR,M,M,M,M,M,M,M,M,M,M,M,M,M,M,23.36,K8A0 191715Z AUTO 04006KT 10SM CLR M01/M08 A3045 RMK AO2
8A0,1/19/16 17:35,30.2,17.6,59.01,20,5,0.0,30.43,M,10.0,M,CLR,M,M,M,M,M,M,M,M,M,M,M,M,M,M,24.26,K8A0 191735Z AUTO 02005KT 10SM CLR M01/M08 A3043 RMK AO2
8A0,1/19/16 17:55,30.2,15.8,54.59,30,5,0.0,30.42,M,10.0,M,CLR,M,M,M,M,M,M,M,M,M,M,M,M,M,M,24.26,K8A0 191755Z AUTO 03005KT 10SM CLR M01/M09 A3042 RMK AO2
8A0,1/19/16 18:15,32.0,17.6,54.87,50,4,0.0,30.41,M,10.0,M,CLR,M,M,M,M,M,M,M,M,M,M,M,M,M,M,27.42,K8A0 191815Z AUTO 05004KT 10SM CLR 00/M08 A3041 RMK AO2
8A0,1/19/16 18:35,32.0,17.6,54.87,10,5,0.0,30.41,M,10.0,M,CLR,M,M,M,M,M,M,M,M,M,M,M,M,M,M,26.4,K8A0 191835Z AUTO 01005KT 10SM CLR 00/M08 A3041 RMK AO2
8A0,1/19/16 18:55,32.0,17.6,54.87,350,4,0.0,30.41,M,10.0,M,CLR,M,M,M,M,M,M,M,M,M,M,M,M,M,M,27.42,K8A0 191855Z AUTO 35004KT 10SM CLR 00/M08 A3041 RMK AO2
8A0,1/19/16 19:15,32.0,17.6,54.87,0,0,0.0,30.39,M,10.0,M,CLR,M,M,M,M,M,M,M,M,M,M,M,M,M,M,32.0,K8A0 191915Z AUTO 00000KT 10SM CLR 00/M08 A3039 RMK AO2
8A0,1/19/16 19:35,32.0,17.6,54.87,320,3,0.0,30.39,M,10.0,M,SCT,M,M,M,5000,M,M,M,M,M,M,M,M,M,M,28.69,K8A0 191935Z AUTO 32003KT 10SM SCT050 00/M08 A3039 RMK AO2
8A0,1/19/16 19:55,33.8,15.8,47.22,320,5,0.0,30.39,M,10.0,M,CLR,M,M,M,M,M,M,M,M,M,M,M,M,M,M,28.53,K8A0 191955Z AUTO 32005KT 10SM CLR 01/M09 A3039 RMK AO2
8A0,1/19/16 20:15,33.8,15.8,47.22,10,3,0.0,30.38,M,10.0,M,CLR,M,M,M,M,M,M,M,M,M,M,M,M,M,M,30.75,K8A0 192015Z AUTO 01003KT 10SM CLR 01/M09 A3038 RMK AO2
8A0,1/19/16 20:35,33.8,19.4,55.14,350,6,0.0,30.37,M,10.0,M,SCT,M,M,M,4300,M,M,M,M,M,M,M,M,M,M,27.7,K8A0 192035Z AUTO 35006KT 10SM SCT043 01/M07 A3037 RMK AO2
8A0,1/19/16 20:55,33.8,17.6,51.04,10,4,0.0,30.37,M,10.0,M,SCT,SCT,M,M,4300,5000,M,M,M,M,M,M,M,M,M,29.52,K8A0 192055Z AUTO 01004KT 10SM SCT043 SCT050 01/M08 A3037 RMK AO2
8A0,1/19/16 21:15,32.0,17.6,54.87,360,3,0.0,30.37,M,10.0,M,BKN,M,M,M,5000,M,M,M,M,M,M,M,M,M,M,28.69,K8A0 192115Z AUTO 36003KT 10SM BKN050 00/M08 A3037 RMK AO2
8A0,1/19/16 21:35,33.8,17.6,51.04,0,0,0.0,30.37,M,10.0,M,OVC,M,M,M,4600,M,M,M,M,M,M,M,M,M,M,33.8,K8A0 192135Z AUTO 00000KT 10SM OVC046 01/M08 A3037 RMK AO2
8A0,1/19/16 21:55,33.8,17.6,51.04,0,0,0.0,30.37,M,10.0,M,SCT,OVC,M,M,3800,4400,M,M,M,M,M,M,M,M,M,33.8,K8A0 192155Z AUTO 00000KT 10SM SCT038 OVC044 01/M08 A3037 RMK AO2
8A0,1/19/16 22:15,33.8,17.6,51.04,360,3,0.0,30.37,M,10.0,M,BKN,OVC,M,M,3800,4800,M,M,M,M,M,M,M,M,M,30.75,K8A0 192215Z AUTO 36003KT 10SM BKN038 OVC048 01/M08 A3037 RMK AO2
8A0,1/19/16 22:35,33.8,17.6,51.04,0,0,0.0,30.37,M,10.0,M,BKN,OVC,M,M,3800,4800,M,M,M,M,M,M,M,M,M,33.8,K8A0 192235Z AUTO 00000KT 10SM BKN038 OVC048 01/M08 A3037 RMK AO2
8A0,1/19/16 22:55,33.8,17.6,51.04,340,3,0.0,30.37,M,10.0,M,OVC,M,M,M,3800,M,M,M,M,M,M,M,M,M,M,30.75,K8A0 192255Z AUTO 34003KT 10SM OVC038 01/M08 A3037 RMK AO2
8A0,1/19/16 23:15,32.0,19.4,59.27,0,0,0.0,30.37,M,10.0,M,OVC,M,M,M,3600,M,M,M,M,M,M,M,M,M,M,32.0,K8A0 192315Z AUTO 00000KT 10SM OVC036 00/M07 A3037 RMK AO2
8A0,1/19/16 23:35,32.0,19.4,59.27,0,0,0.0,30.37,M,10.0,M,BKN,OVC,M,M,3600,5000,M,M,M,M,M,M,M,M,M,32.0,K8A0 192335Z AUTO 00000KT 10SM BKN036 OVC050 00/M07 A3037 RMK AO2
8A0,1/19/16 23:55,32.0,19.4,59.27,0,0,0.0,30.37,M,10.0,M,SCT,OVC,M,M,3900,5000,M,M,M,M,M,M,M,M,M,32.0,K8A0 192355Z AUTO 00000KT 10SM SCT039 OVC050 00/M07 A3037 RMK AO2
8A0,1/20/16 0:15,32.0,19.4,59.27,290,3,0.0,30.38,M,10.0,M,SCT,OVC,M,M,3900,5000,M,M,M,M,M,M,M,M,M,28.69,K8A0 200015Z AUTO 29003KT 10SM SCT039 OVC050 00/M07 A3038 RMK AO2
8A0,1/20/16 0:35,32.0,19.4,59.27,0,0,0.0,30.37,M,10.0,M,OVC,M,M,M,3900,M,M,M,M,M,M,M,M,M,M,32.0,K8A0 200035Z AUTO 00000KT 10SM OVC039 00/M07 A3037 RMK AO2
8A0,1/20/16 0:55,32.0,19.4,59.27,0,0,0.0,30.37,M,10.0,M,OVC,M,M,M,3700,M,M,M,M,M,M,M,M,M,M,32.0,K8A0 200055Z AUTO 00000KT 10SM OVC037 00/M07 A3037 RMK AO2
8A0,1/20/16 1:15,32.0,21.2,63.99,0,0,0.0,30.37,M,10.0,M,SCT,OVC,M,M,3500,4600,M,M,M,M,M,M,M,M,M,32.0,K8A0 200115Z AUTO 00000KT 10SM SCT035 OVC046 00/M06 A3037 RMK AO2
8A0,1/20/16 1:35,32.0,21.2,63.99,0,0,0.0,30.37,M,10.0,M,OVC,M,M,M,4600,M,M,M,M,M,M,M,M,M,M,32.0,K8A0 200135Z AUTO 00000KT 10SM OVC046 00/M06 A3037 RMK AO2
8A0,1/20/16 1:55,32.0,21.2,63.99,0,0,0.0,30.37,M,10.0,M,OVC,M,M,M,4400,M,M,M,M,M,M,M,M,M,M,32.0,K8A0 200155Z AUTO 00000KT 10SM OVC044 00/M06 A3037 RMK AO2
8A0,1/20/16 2:15,32.0,23.0,69.04,0,0,0.0,30.37,M,10.0,M,OVC,M,M,M,4400,M,M,M,M,M,M,M,M,M,M,32.0,K8A0 200215Z AUTO 00000KT 10SM OVC044 00/M05 A3037 RMK AO2
8A0,1/20/16 2:35,32.0,23.0,69.04,0,0,0.0,30.36,M,10.0,M,OVC,M,M,M,4400,M,M,M,M,M,M,M,M,M,M,32.0,K8A0 200235Z AUTO 00000KT 10SM OVC044 00/M05 A3036 RMK AO2
8A0,1/20/16 2:55,32.0,23.0,69.04,0,0,0.0,30.36,M,10.0,M,OVC,M,M,M,4400,M,M,M,M,M,M,M,M,M,M,32.0,K8A0 200255Z AUTO 00000KT 10SM OVC044 00/M05 A3036 RMK AO2
8A0,1/20/16 3:15,32.0,23.0,69.04,0,0,0.0,30.36,M,10.0,M,OVC,M,M,M,4400,M,M,M,M,M,M,M,M,M,M,32.0,K8A0 200315Z AUTO 00000KT 10SM OVC044 00/M05 A3036 RMK AO2
8A0,1/20/16 3:35,32.0,23.0,69.04,0,0,0.0,30.35,M,10.0,M,OVC,M,M,M,4600,M,M,M,M,M,M,M,M,M,M,32.0,K8A0 200335Z AUTO 00000KT 10SM OVC046 00/M05 A3035 RMK AO2
8A0,1/20/16 3:55,32.0,21.2,63.99,100,3,0.0,30.34,M,10.0,M,SCT,M,M,M,4600,M,M,M,M,M,M,M,M,M,M,28.69,K8A0 200355Z AUTO 10003KT 10SM SCT046 00/M06 A3034 RMK AO2
8A0,1/20/16 4:15,32.0,21.2,63.99,120,4,0.0,30.34,M,10.0,M,CLR,M,M,M,M,M,M,M,M,M,M,M,M,M,M,27.42,K8A0 200415Z AUTO 12004KT 10SM CLR 00/M06 A3034 RMK AO2
8A0,1/20/16 4:35,32.0,21.2,63.99,120,5,0.0,30.32,M,10.0,M,CLR,M,M,M,M,M,M,M,M,M,M,M,M,M,M,26.4,K8A0 200435Z AUTO 12005KT 10SM CLR 00/M06 A3032 RMK AO2
8A0,1/20/16 4:55,32.0,21.2,63.99,110,6,0.0,30.31,M,10.0,M,CLR,M,M,M,M,M,M,M,M,M,M,M,M,M,M,25.53,K8A0 200455Z AUTO 11006KT 10SM CLR 00/M06 A3031 RMK AO2
8A0,1/20/16 5:15,32.0,21.2,63.99,130,5,0.0,30.3,M,10.0,M,CLR,M,M,M,M,M,M,M,M,M,M,M,M,M,M,26.4,K8A0 200515Z AUTO 13005KT 10SM CLR 00/M06 A3030 RMK AO2
8A0,1/20/16 5:35,32.0,21.2,63.99,130,5,0.0,30.29,M,10.0,M,CLR,M,M,M,M,M,M,M,M,M,M,M,M,M,M,26.4,K8A0 200535Z AUTO 13005KT 10SM CLR 00/M06 A3029 RMK AO2
8A0,1/20/16 5:55,32.0,21.2,63.99,140,4,0.0,30.29,M,10.0,M,CLR,M,M,M,M,M,M,M,M,M,M,M,M,M,M,27.42,K8A0 200555Z AUTO 14004KT 10SM CLR 00/M06 A3029 RMK AO2
8A0,1/20/16 6:15,32.0,21.2,63.99,140,4,0.0,30.28,M,10.0,M,CLR,M,M,M,M,M,M,M,M,M,M,M,M,M,M,27.42,K8A0 200615Z AUTO 14004KT 10SM CLR 00/M06 A3028 RMK AO2
8A0,1/20/16 6:35,32.0,21.2,63.99,140,5,0.0,30.28,M,10.0,M,CLR,M,M,M,M,M,M,M,M,M,M,M,M,M,M,26.4,K8A0 200635Z AUTO 14005KT 10SM CLR 00/M06 A3028 RMK AO2
8A0,1/20/16 6:55,32.0,21.2,63.99,130,3,0.0,30.28,M,10.0,M,SCT,SCT,M,M,9500,11000,M,M,M,M,M,M,M,M,M,28.69,K8A0 200655Z AUTO 13003KT 10SM SCT095 SCT110 00/M06 A3028 RMK AO2
8A0,1/20/16 7:15,32.0,21.2,63.99,0,0,0.0,30.28,M,10.0,M,BKN,M,M,M,11000,M,M,M,M,M,M,M,M,M,M,32.0,K8A0 200715Z AUTO 00000KT 10SM BKN110 00/M06 A3028 RMK AO2
8A0,1/20/16 7:35,32.0,21.2,63.99,140,3,0.0,30.28,M,10.0,M,OVC,M,M,M,10000,M,M,M,M,M,M,M,M,M,M,28.69,K8A0 200735Z AUTO 14003KT 10SM OVC100 00/M06 A3028 RMK AO2
8A0,1/20/16 7:55,32.0,21.2,63.99,120,4,0.0,30.26,M,10.0,M,OVC,M,M,M,10000,M,M,M,M,M,M,M,M,M,M,27.42,K8A0 200755Z AUTO 12004KT 10SM OVC100 00/M06 A3026 RMK AO2
8A0,1/20/16 8:15,32.0,21.2,63.99,140,4,0.0,30.26,M,10.0,M,BKN,M,M,M,10000,M,M,M,M,M,M,M,M,M,M,27.42,K8A0 200815Z AUTO 14004KT 10SM BKN100 00/M06 A3026 RMK AO2
8A0,1/20/16 8:35,32.0,21.2,63.99,130,4,0.0,30.26,M,10.0,M,SCT,M,M,M,5500,M,M,M,M,M,M,M,M,M,M,27.42,K8A0 200835Z AUTO 13004KT 10SM SCT055 00/M06 A3026 RMK AO2
8A0,1/20/16 8:55,32.0,21.2,63.99,150,5,0.0,30.27,M,10.0,M,BKN,BKN,BKN,M,5000,6500,10000,M,M,M,M,M,M,M,M,26.4,K8A0 200855Z AUTO 15005KT 10SM BKN050 BKN065 BKN100 00/M06 A3027 RMK AO2
8A0,1/20/16 9:15,32.0,21.2,63.99,140,5,0.0,30.26,M,10.0,M,BKN,OVC,M,M,5000,5500,M,M,M,M,M,M,M,M,M,26.4,K8A0 200915Z AUTO 14005KT 10SM BKN050 OVC055 00/M06 A3026 RMK AO2
8A0,1/20/16 9:35,32.0,21.2,63.99,140,6,0.0,30.24,M,10.0,M,OVC,M,M,M,5000,M,M,M,M,M,M,M,M,M,M,25.53,K8A0 200935Z AUTO 14006KT 10SM OVC050 00/M06 A3024 RMK AO2
8A0,1/20/16 9:55,32.0,21.2,63.99,130,4,0.0,30.24,M,10.0,M,BKN,BKN,OVC,M,4800,6000,10000,M,M,M,M,M,M,M,M,27.42,K8A0 200955Z AUTO 13004KT 10SM BKN048 BKN060 OVC100 00/M06 A3024 RMK AO2
8A0,1/20/16 10:15,32.0,21.2,63.99,130,7,0.0,30.22,M,10.0,M,SCT,BKN,OVC,M,3800,4400,11000,M,M,M,M,M,M,M,M,24.78,K8A0 201015Z AUTO 13007KT 10SM SCT038 BKN044 OVC110 00/M06 A3022 RMK AO2
8A0,1/20/16 10:35,32.0,21.2,63.99,140,6,0.0,30.2,M,10.0,M,SCT,BKN,OVC,M,3900,8000,9000,M,M,M,M,M,M,M,M,25.53,K8A0 201035Z AUTO 14006KT 10SM SCT039 BKN080 OVC090 00/M06 A3020 RMK AO2
8A0,1/20/16 10:55,32.0,21.2,63.99,140,4,0.0,30.21,M,10.0,M,SCT,SCT,OVC,M,3700,7000,10000,M,M,M,M,M,M,M,M,27.42,K8A0 201055Z AUTO 14004KT 10SM SCT037 SCT070 OVC100 00/M06 A3021 RMK AO2
8A0,1/20/16 11:15,33.8,21.2,59.53,150,6,0.0,30.2,M,10.0,M,SCT,BKN,OVC,M,3700,4600,9000,M,M,M,M,M,M,M,M,27.7,K8A0 201115Z AUTO 15006KT 10SM SCT037 BKN046 OVC090 01/M06 A3020 RMK AO2
8A0,1/20/16 11:35,33.8,21.2,59.53,140,6,0.0,30.19,M,10.0,M,SCT,SCT,OVC,M,4700,9000,11000,M,M,M,M,M,M,M,M,27.7,K8A0 201135Z AUTO 14006KT 10SM SCT047 SCT090 OVC110 01/M06 A3019 RMK AO2
8A0,1/20/16 11:55,33.8,21.2,59.53,140,5,0.0,30.19,M,10.0,M,BKN,BKN,OVC,M,3700,4200,12000,M,M,M,M,M,M,M,M,28.53,K8A0 201155Z AUTO 14005KT 10SM BKN037 BKN042 OVC120 01/M06 A3019 RMK AO2
8A0,1/20/16 12:15,33.8,21.2,59.53,130,3,0.0,30.2,M,10.0,M,BKN,BKN,BKN,M,3700,6000,12000,M,M,M,M,M,M,M,M,30.75,K8A0 201215Z AUTO 13003KT 10SM BKN037 BKN060 BKN120 01/M06 A3020 RMK AO2
8A0,1/20/16 12:35,33.8,21.2,59.53,150,7,0.0,30.2,M,10.0,M,SCT,BKN,OVC,M,3700,5000,6500,M,M,M,M,M,M,M,M,26.97,K8A0 201235Z AUTO 15007KT 10SM SCT037 BKN050 OVC065 01/M06 A3020 RMK AO2
8A0,1/20/16 12:55,33.8,21.2,59.53,140,7,0.0,30.2,M,10.0,M,SCT,SCT,OVC,M,3900,5000,7500,M,M,M,M,M,M,M,M,26.97,K8A0 201255Z AUTO 14007KT 10SM SCT039 SCT050 OVC075 01/M06 A3020 RMK AO2
8A0,1/20/16 13:15,32.0,21.2,63.99,150,5,0.0,30.2,M,10.0,M,SCT,BKN,OVC,M,3700,6000,7500,M,M,M,M,M,M,M,M,26.4,K8A0 201315Z AUTO 15005KT 10SM SCT037 BKN060 OVC075 00/M06 A3020 RMK AO2
8A0,1/20/16 13:35,33.8,21.2,59.53,150,6,0.0,30.19,M,10.0,M,SCT,SCT,OVC,M,3700,4200,6000,M,M,M,M,M,M,M,M,27.7,K8A0 201335Z AUTO 15006KT 10SM SCT037 SCT042 OVC060 01/M06 A3019 RMK AO2
8A0,1/20/16 13:55,33.8,23.0,64.23,130,7,0.0,30.19,M,10.0,M,SCT,BKN,OVC,M,3700,6000,11000,M,M,M,M,M,M,M,M,26.97,K8A0 201355Z AUTO 13007KT 10SM SCT037 BKN060 OVC110 01/M05 A3019 RMK AO2
8A0,1/20/16 14:15,33.8,23.0,64.23,150,5,0.0,30.18,M,10.0,M,SCT,BKN,OVC,M,3800,4900,8000,M,M,M,M,M,M,M,M,28.53,K8A0 201415Z AUTO 15005KT 10SM SCT038 BKN049 OVC080 01/M05 A3018 RMK AO2
8A0,1/20/16 14:35,35.6,24.8,64.46,150,8,0.0,30.18,M,10.0,M,SCT,BKN,OVC,M,3700,4300,6000,M,M,M,M,M,M,M,M,28.55,K8A0 201435Z AUTO 15008KT 10SM SCT037 BKN043 OVC060 02/M04 A3018 RMK AO2
8A0,1/20/16 14:55,35.6,26.6,69.46,160,6,0.0,30.18,M,10.0,M,BKN,BKN,OVC,M,3700,4900,7500,M,M,M,M,M,M,M,M,29.87,K8A0 201455Z AUTO 16006KT 10SM BKN037 BKN049 OVC075 02/M03 A3018 RMK AO2
8A0,1/20/16 15:15,35.6,28.4,74.8,170,11,0.0,30.18,M,7.0,15,SCT,BKN,OVC,M,3500,4000,6000,M,#NAME?,M,M,M,M,M,M,27.02,K8A0 201515Z AUTO 17011G15KT 7SM -RA SCT035 BKN040 OVC060 02/M02 A3018 RMK AO2
8A0,1/20/16 15:35,33.8,32.0,93.03,270,4,0.03,30.23,M,1.5,M,SCT,OVC,M,M,2000,3000,M,M,#NAME?,M,M,M,M,M,M,29.52,K8A0 201535Z AUTO 27004KT 1 1/2SM -SN SCT020 OVC030 01/00 A3023 RMK AO2 VIS 1V4 P0003
8A0,1/20/16 15:55,32.0,32.0,100.0,130,4,0.07,30.21,M,1.75,M,BKN,OVC,M,M,3200,4400,M,M,#NAME?,M,M,M,M,M,M,27.42,K8A0 201555Z AUTO 13004KT 1 3/4SM -SN BKN032 OVC044 00/00 A3021 RMK AO2 P0007
8A0,1/20/16 16:15,32.0,32.0,100.0,140,4,0.01,30.19,M,2.5,M,SCT,BKN,OVC,M,3100,3800,4600,M,UP,M,M,M,M,M,M,27.42,K8A0 201615Z AUTO 14004KT 2 1/2SM UP SCT031 BKN038 OVC046 00/00 A3019 RMK AO2 P0001
8A0,1/20/16 16:35,32.0,32.0,100.0,140,5,0.02,30.19,M,5.0,M,SCT,BKN,OVC,M,2800,3700,5500,M,#NAME?,M,M,M,M,M,M,26.4,K8A0 201635Z AUTO 14005KT 5SM -RA SCT028 BKN037 OVC055 00/00 A3019 RMK AO2 P0002
8A0,1/20/16 16:55,32.0,32.0,100.0,140,5,0.03,30.18,M,7.0,M,SCT,BKN,OVC,M,2700,3400,6500,M,UP,M,M,M,M,M,M,26.4,K8A0 201655Z AUTO 14005KT 7SM UP SCT027 BKN034 OVC065 00/00 A3018 RMK AO2 P0003
8A0,1/20/16 17:15,33.8,33.8,100.0,0,0,0.0,30.17,M,4.0,M,SCT,BKN,OVC,M,2500,4300,5500,M,#NAME?,M,M,M,M,M,M,33.8,K8A0 201715Z AUTO 00000KT 4SM -RA SCT025 BKN043 OVC055 01/01 A3017 RMK AO2
8A0,1/20/16 17:35,33.8,33.8,100.0,160,4,0.0,30.17,M,7.0,M,BKN,OVC,M,M,2300,3200,M,M,#NAME?,M,M,M,M,M,M,29.52,K8A0 201735Z AUTO 16004KT 7SM -RA BKN023 OVC032 01/01 A3017 RMK AO2
8A0,1/20/16 17:55,33.8,33.8,100.0,160,5,0.01,30.16,M,4.0,M,BKN,OVC,M,M,2300,2800,M,M,#NAME?,M,M,M,M,M,M,28.53,K8A0 201755Z AUTO 16005KT 4SM -RA BKN023 OVC028 01/01 A3016 RMK AO2 P0001
8A0,1/20/16 18:15,33.8,33.8,100.0,160,5,0.0,30.14,M,10.0,M,BKN,OVC,M,M,2500,3200,M,M,#NAME?,M,M,M,M,M,M,28.53,K8A0 201815Z AUTO 16005KT 10SM -RA BKN025 OVC032 01/01 A3014 RMK AO2
8A0,1/20/16 18:35,33.8,33.8,100.0,160,7,0.0,30.14,M,5.0,M,OVC,M,M,M,2500,M,M,M,#NAME?,M,M,M,M,M,M,26.97,K8A0 201835Z AUTO 16007KT 5SM -RA OVC025 01/01 A3014 RMK AO2
8A0,1/20/16 18:55,33.8,33.8,100.0,0,0,0.0,30.14,M,3.0,M,BKN,OVC,M,M,1900,2400,M,M,DZ,M,M,M,M,M,M,33.8,K8A0 201855Z AUTO 00000KT 3SM DZ BKN019 OVC024 01/01 A3014 RMK AO2
8A0,1/20/16 19:15,33.8,33.8,100.0,0,0,0.0,30.14,M,5.0,M,OVC,M,M,M,1700,M,M,M,DZ,M,M,M,M,M,M,33.8,K8A0 201915Z AUTO 00000KT 5SM DZ OVC017 01/01 A3014 RMK AO2
8A0,1/20/16 19:35,33.8,33.8,100.0,0,0,0.0,30.14,M,2.5,M,OVC,M,M,M,1500,M,M,M,DZ,M,M,M,M,M,M,33.8,K8A0 201935Z AUTO 00000KT 2 1/2SM DZ OVC015 01/01 A3014 RMK AO2
8A0,1/20/16 19:55,33.8,33.8,100.0,0,0,0.01,30.13,M,4.0,M,OVC,M,M,M,1300,M,M,M,#NAME?,M,M,M,M,M,M,33.8,K8A0 201955Z AUTO 00000KT 4SM -DZ OVC013 01/01 A3013 RMK AO2 P0001
8A0,1/20/16 20:15,33.8,33.8,100.0,0,0,0.0,30.13,M,1.75,M,SCT,OVC,M,M,300,1100,M,M,#NAME?,M,M,M,M,M,M,33.8,K8A0 202015Z AUTO 00000KT 1 3/4SM -RA SCT003 OVC011 01/01 A3013 RMK AO2
8A0,1/20/16 20:35,33.8,33.8,100.0,90,4,0.0,30.12,M,2.5,M,SCT,OVC,M,M,300,1100,M,M,BR,M,M,M,M,M,M,29.52,K8A0 202035Z AUTO 09004KT 2 1/2SM BR SCT003 OVC011 01/01 A3012 RMK AO2
8A0,1/20/16 20:55,33.8,33.8,100.0,0,0,0.0,30.12,M,2.0,M,SCT,OVC,M,M,300,900,M,M,BR,M,M,M,M,M,M,33.8,K8A0 202055Z AUTO 00000KT 2SM BR SCT003 OVC009 01/01 A3012 RMK AO2
8A0,1/20/16 21:15,35.6,35.6,100.0,0,0,0.0,30.13,M,1.5,M,OVC,M,M,M,300,M,M,M,BR,M,M,M,M,M,M,35.6,K8A0 202115Z AUTO 00000KT 1 1/2SM BR OVC003 02/02 A3013 RMK AO2
8A0,1/20/16 21:35,35.6,35.6,100.0,90,4,0.0,30.13,M,1.25,M,OVC,M,M,M,300,M,M,M,BR,M,M,M,M,M,M,31.62,K8A0 202135Z AUTO 09004KT 1 1/4SM BR OVC003 02/02 A3013 RMK AO2
8A0,1/20/16 21:55,35.6,35.6,100.0,0,0,0.0,30.14,M,1.25,M,OVC,M,M,M,300,M,M,M,BR,M,M,M,M,M,M,35.6,K8A0 202155Z AUTO 00000KT 1 1/4SM BR OVC003 02/02 A3014 RMK AO2
8A0,1/20/16 22:15,35.6,35.6,100.0,0,0,0.01,30.13,M,1.0,M,OVC,M,M,M,300,M,M,M,BR,M,M,M,M,M,M,35.6,K8A0 202215Z AUTO 00000KT 1SM BR OVC003 02/02 A3013 RMK AO2 P0001
8A0,1/20/16 22:35,35.6,35.6,100.0,90,3,0.01,30.14,M,1.5,M,OVC,M,M,M,300,M,M,M,BR,M,M,M,M,M,M,32.8,K8A0 202235Z AUTO 09003KT 1 1/2SM BR OVC003 02/02 A3014 RMK AO2 P0001
8A0,1/20/16 22:55,35.6,35.6,100.0,110,3,0.01,30.14,M,1.75,M,OVC,M,M,M,300,M,M,M,BR,M,M,M,M,M,M,32.8,K8A0 202255Z AUTO 11003KT 1 3/4SM BR OVC003 02/02 A3014 RMK AO2 P0001
8A0,1/20/16 23:15,35.6,35.6,100.0,110,3,0.0,30.14,M,2.0,M,OVC,M,M,M,300,M,M,M,BR,M,M,M,M,M,M,32.8,K8A0 202315Z AUTO 11003KT 2SM BR OVC003 02/02 A3014 RMK AO2
8A0,1/20/16 23:35,35.6,35.6,100.0,90,5,0.0,30.13,M,2.0,M,OVC,M,M,M,300,M,M,M,BR,M,M,M,M,M,M,30.67,K8A0 202335Z AUTO 09005KT 2SM BR OVC003 02/02 A3013 RMK AO2
8A0,1/20/16 23:55,35.6,35.6,100.0,90,3,0.0,30.14,M,2.5,M,OVC,M,M,M,300,M,M,M,BR,M,M,M,M,M,M,32.8,K8A0 202355Z AUTO 09003KT 2 1/2SM BR OVC003 02/02 A3014 RMK AO2
8A0,1/21/16 0:15,35.6,35.6,100.0,0,0,0.0,30.15,M,2.5,M,OVC,M,M,M,300,M,M,M,BR,M,M,M,M,M,M,35.6,K8A0 210015Z AUTO 00000KT 2 1/2SM BR OVC003 02/02 A3015 RMK AO2
8A0,1/21/16 0:35,35.6,35.6,100.0,130,3,0.0,30.15,M,2.5,M,BKN,OVC,M,M,300,700,M,M,BR,M,M,M,M,M,M,32.8,K8A0 210035Z AUTO 13003KT 2 1/2SM BR BKN003 OVC007 02/02 A3015 RMK AO2
8A0,1/21/16 0:55,35.6,35.6,100.0,0,0,0.0,30.16,M,2.5,M,BKN,OVC,M,M,100,800,M,M,BR,M,M,M,M,M,M,35.6,K8A0 210055Z AUTO 00000KT 2 1/2SM BR BKN001 OVC008 02/02 A3016 RMK AO2
8A0,1/21/16 1:15,35.6,35.6,100.0,100,3,0.0,30.15,M,2.5,M,BKN,OVC,M,M,100,800,M,M,BR,M,M,M,M,M,M,32.8,K8A0 210115Z AUTO 10003KT 2 1/2SM BR BKN001 OVC008 02/02 A3015 RMK AO2
8A0,1/21/16 1:35,35.6,35.6,100.0,80,3,0.0,30.15,M,2.5,M,BKN,OVC,M,M,100,600,M,M,BR,M,M,M,M,M,M,32.8,K8A0 210135Z AUTO 08003KT 2 1/2SM BR BKN001 OVC006 02/02 A3015 RMK AO2
8A0,1/21/16 1:55,35.6,35.6,100.0,0,0,0.0,30.15,M,2.5,M,OVC,M,M,M,400,M,M,M,BR,M,M,M,M,M,M,35.6,K8A0 210155Z AUTO 00000KT 2 1/2SM BR OVC004 02/02 A3015 RMK AO2
8A0,1/21/16 2:15,35.6,35.6,100.0,80,3,0.0,30.15,M,2.5,M,OVC,M,M,M,400,M,M,M,BR,M,M,M,M,M,M,32.8,K8A0 210215Z AUTO 08003KT 2 1/2SM BR OVC004 02/02 A3015 RMK AO2
8A0,1/21/16 2:35,35.6,35.6,100.0,0,0,0.0,30.16,M,2.5,M,OVC,M,M,M,200,M,M,M,BR,M,M,M,M,M,M,35.6,K8A0 210235Z AUTO 00000KT 2 1/2SM BR OVC002 02/02 A3016 RMK AO2
8A0,1/21/16 2:55,35.6,35.6,100.0,90,5,0.0,30.16,M,2.0,M,OVC,M,M,M,200,M,M,M,BR,M,M,M,M,M,M,30.67,K8A0 210255Z AUTO 09005KT 2SM BR OVC002 02/02 A3016 RMK AO2
8A0,1/21/16 3:15,35.6,35.6,100.0,80,4,0.0,30.16,M,1.75,M,OVC,M,M,M,200,M,M,M,BR,M,M,M,M,M,M,31.62,K8A0 210315Z AUTO 08004KT 1 3/4SM BR OVC002 02/02 A3016 RMK AO2
8A0,1/21/16 3:35,35.6,35.6,100.0,70,3,0.0,30.16,M,1.25,M,OVC,M,M,M,200,M,M,M,BR,M,M,M,M,M,M,32.8,K8A0 210335Z AUTO 07003KT 1 1/4SM BR OVC002 02/02 A3016 RMK AO2 LTG DSNT NW
8A0,1/21/16 3:55,35.6,35.6,100.0,0,0,0.0,30.16,M,1.25,M,OVC,M,M,M,200,M,M,M,BR,M,M,M,M,M,M,35.6,K8A0 210355Z AUTO 00000KT 1 1/4SM BR OVC002 02/02 A3016 RMK AO2
8A0,1/21/16 4:15,35.6,35.6,100.0,0,0,0.0,30.17,M,1.5,M,OVC,M,M,M,200,M,M,M,BR,M,M,M,M,M,M,35.6,K8A0 210415Z AUTO 00000KT 1 1/2SM BR OVC002 02/02 A3017 RMK AO2 LTG DSNT NW
8A0,1/21/16 4:35,35.6,35.6,100.0,0,0,0.0,30.17,M,1.5,M,OVC,M,M,M,200,M,M,M,BR,M,M,M,M,M,M,35.6,K8A0 210435Z AUTO 00000KT 1 1/2SM BR OVC002 02/02 A3017 RMK AO2
8A0,1/21/16 4:55,35.6,35.6,100.0,0,0,0.0,30.17,M,1.0,M,OVC,M,M,M,200,M,M,M,BR,M,M,M,M,M,M,35.6,K8A0 210455Z AUTO 00000KT 1SM BR OVC002 02/02 A3017 RMK AO2
8A0,1/21/16 5:15,35.6,35.6,100.0,0,0,0.0,30.17,M,0.75,M,OVC,M,M,M,200,M,M,M,BR,M,M,M,M,M,M,35.6,K8A0 210515Z AUTO 00000KT 3/4SM BR OVC002 02/02 A3017 RMK AO2
8A0,1/21/16 5:35,35.6,35.6,100.0,90,3,0.0,30.17,M,0.75,M,OVC,M,M,M,200,M,M,M,BR,M,M,M,M,M,M,32.8,K8A0 210535Z AUTO 09003KT 3/4SM BR OVC002 02/02 A3017 RMK AO2
8A0,1/21/16 5:55,35.6,35.6,100.0,0,0,0.0,30.17,M,0.75,M,OVC,M,M,M,200,M,M,M,BR,M,M,M,M,M,M,35.6,K8A0 210555Z AUTO 00000KT 3/4SM BR OVC002 02/02 A3017 RMK AO2
8A0,1/21/16 6:15,35.6,35.6,100.0,40,4,0.0,30.16,M,0.75,M,OVC,M,M,M,200,M,M,M,BR,M,M,M,M,M,M,31.62,K8A0 210615Z AUTO 04004KT 3/4SM BR OVC002 02/02 A3016 RMK AO2 LTG DSNT NW
8A0,1/21/16 6:35,35.6,35.6,100.0,50,4,0.0,30.15,M,0.75,M,OVC,M,M,M,200,M,M,M,BR,M,M,M,M,M,M,31.62,K8A0 210635Z AUTO 05004KT 3/4SM BR OVC002 02/02 A3015 RMK AO2
8A0,1/21/16 6:55,35.6,35.6,100.0,0,0,0.0,30.15,M,0.75,M,OVC,M,M,M,200,M,M,M,BR,M,M,M,M,M,M,35.6,K8A0 210655Z AUTO 00000KT 3/4SM BR OVC002 02/02 A3015 RMK AO2
8A0,1/21/16 7:15,35.6,35.6,100.0,0,0,0.0,30.16,M,0.75,M,OVC,M,M,M,200,M,M,M,BR,M,M,M,M,M,M,35.6,K8A0 210715Z AUTO 00000KT 3/4SM BR OVC002 02/02 A3016 RMK AO2 LTG DSNT NW
8A0,1/21/16 7:35,35.6,35.6,100.0,70,3,0.0,30.15,M,0.75,M,OVC,M,M,M,200,M,M,M,BR,M,M,M,M,M,M,32.8,K8A0 210735Z AUTO 07003KT 3/4SM BR OVC002 02/02 A3015 RMK AO2
8A0,1/21/16 7:55,35.6,35.6,100.0,80,4,0.0,30.15,M,0.75,M,OVC,M,M,M,200,M,M,M,BR,M,M,M,M,M,M,31.62,K8A0 210755Z AUTO 08004KT 3/4SM BR OVC002 02/02 A3015 RMK AO2
8A0,1/21/16 8:15,35.6,35.6,100.0,90,3,0.0,30.14,M,1.25,M,OVC,M,M,M,200,M,M,M,BR,M,M,M,M,M,M,32.8,K8A0 210815Z AUTO 09003KT 1 1/4SM BR OVC002 02/02 A3014 RMK AO2 LTG DSNT NW
8A0,1/21/16 8:35,35.6,35.6,100.0,60,3,0.0,30.14,M,1.5,M,OVC,M,M,M,200,M,M,M,BR,M,M,M,M,M,M,32.8,K8A0 210835Z AUTO 06003KT 1 1/2SM BR OVC002 02/02 A3014 RMK AO2
8A0,1/21/16 8:55,35.6,35.6,100.0,70,3,0.0,30.14,M,1.5,M,OVC,M,M,M,200,M,M,M,BR,M,M,M,M,M,M,32.8,K8A0 210855Z AUTO 07003KT 1 1/2SM BR OVC002 02/02 A3014 RMK AO2 LTG DSNT NW
8A0,1/21/16 9:15,35.6,35.6,100.0,70,4,0.0,30.13,M,1.75,M,OVC,M,M,M,200,M,M,M,BR,M,M,M,M,M,M,31.62,K8A0 210915Z AUTO 07004KT 1 3/4SM BR OVC002 02/02 A3013 RMK AO2 LTG DSNT NW
8A0,1/21/16 9:35,35.6,35.6,100.0,60,3,0.0,30.13,M,1.75,M,OVC,M,M,M,200,M,M,M,BR,M,M,M,M,M,M,32.8,K8A0 210935Z AUTO 06003KT 1 3/4SM BR OVC002 02/02 A3013 RMK AO2
8A0,1/21/16 9:55,35.6,35.6,100.0,70,3,0.0,30.13,M,1.75,M,OVC,M,M,M,200,M,M,M,BR,M,M,M,M,M,M,32.8,K8A0 210955Z AUTO 07003KT 1 3/4SM BR OVC002 02/02 A3013 RMK AO2
8A0,1/21/16 10:15,35.6,35.6,100.0,70,3,0.0,30.13,M,1.75,M,OVC,M,M,M,200,M,M,M,BR,M,M,M,M,M,M,32.8,K8A0 211015Z AUTO 07003KT 1 3/4SM BR OVC002 02/02 A3013 RMK AO2
8A0,1/21/16 10:35,35.6,35.6,100.0,0,0,0.0,30.14,M,2.0,M,OVC,M,M,M,200,M,M,M,BR,M,M,M,M,M,M,35.6,K8A0 211035Z AUTO 00000KT 2SM BR OVC002 02/02 A3014 RMK AO2 LTG DSNT NW
8A0,1/21/16 10:55,35.6,35.6,100.0,90,3,0.0,30.14,M,2.5,M,OVC,M,M,M,400,M,M,M,BR,M,M,M,M,M,M,32.8,K8A0 211055Z AUTO 09003KT 2 1/2SM BR OVC004 02/02 A3014 RMK AO2 LTG DSNT NW
8A0,1/21/16 11:15,35.6,35.6,100.0,90,5,0.0,30.13,M,2.0,M,OVC,M,M,M,400,M,M,M,BR,M,M,M,M,M,M,30.67,K8A0 211115Z AUTO 09005KT 2SM BR OVC004 02/02 A3013 RMK AO2
8A0,1/21/16 11:35,35.6,35.6,100.0,90,5,0.0,30.13,M,2.0,M,OVC,M,M,M,400,M,M,M,BR,M,M,M,M,M,M,30.67,K8A0 211135Z AUTO 09005KT 2SM BR OVC004 02/02 A3013 RMK AO2
8A0,1/21/16 11:55,35.6,35.6,100.0,90,4,0.0,30.12,M,2.0,M,OVC,M,M,M,400,M,M,M,BR,M,M,M,M,M,M,31.62,K8A0 211155Z AUTO 09004KT 2SM BR OVC004 02/02 A3012 RMK AO2
8A0,1/21/16 12:15,35.6,35.6,100.0,80,5,0.0,30.13,M,2.5,M,OVC,M,M,M,400,M,M,M,BR,M,M,M,M,M,M,30.67,K8A0 211215Z AUTO 08005KT 2 1/2SM BR OVC004 02/02 A3013 RMK AO2 LTG DSNT W
8A0,1/21/16 12:35,35.6,35.6,100.0,50,3,0.0,30.14,M,2.5,M,OVC,M,M,M,400,M,M,M,BR,M,M,M,M,M,M,32.8,K8A0 211235Z AUTO 05003KT 2 1/2SM BR OVC004 02/02 A3014 RMK AO2
8A0,1/21/16 12:55,35.6,35.6,100.0,80,3,0.0,30.15,M,1.75,M,OVC,M,M,M,400,M,M,M,BR,M,M,M,M,M,M,32.8,K8A0 211255Z AUTO 08003KT 1 3/4SM BR OVC004 02/02 A3015 RMK AO2
8A0,1/21/16 13:15,35.6,35.6,100.0,100,5,0.0,30.15,M,1.5,M,OVC,M,M,M,400,M,M,M,BR,M,M,M,M,M,M,30.67,K8A0 211315Z AUTO 10005KT 1 1/2SM BR OVC004 02/02 A3015 RMK AO2
8A0,1/21/16 13:35,35.6,35.6,100.0,80,3,0.0,30.15,M,0.75,M,OVC,M,M,M,400,M,M,M,BR,M,M,M,M,M,M,32.8,K8A0 211335Z AUTO 08003KT 3/4SM BR OVC004 02/02 A3015 RMK AO2
8A0,1/21/16 13:55,35.6,35.6,100.0,80,4,0.0,30.14,M,1.0,M,OVC,M,M,M,400,M,M,M,BR,M,M,M,M,M,M,31.62,K8A0 211355Z AUTO 08004KT 1SM BR OVC004 02/02 A3014 RMK AO2
8A0,1/21/16 14:15,37.4,37.4,100.0,90,5,0.0,30.15,M,1.25,M,OVC,M,M,M,200,M,M,M,BR,M,M,M,M,M,M,32.81,K8A0 211415Z AUTO 09005KT 1 1/4SM BR OVC002 03/03 A3015 RMK AO2
8A0,1/21/16 14:35,37.4,37.4,100.0,80,7,0.0,30.16,M,1.5,M,OVC,M,M,M,400,M,M,M,BR,M,M,M,M,M,M,31.36,K8A0 211435Z AUTO 08007KT 1 1/2SM BR OVC004 03/03 A3016 RMK AO2 LTG DSNT NW
8A0,1/21/16 14:55,37.4,37.4,100.0,80,5,0.0,30.17,M,1.75,M,OVC,M,M,M,400,M,M,M,BR,M,M,M,M,M,M,32.81,K8A0 211455Z AUTO 08005KT 1 3/4SM BR OVC004 03/03 A3017 RMK AO2
8A0,1/21/16 15:15,37.4,37.4,100.0,100,5,0.0,30.17,M,2.0,M,OVC,M,M,M,400,M,M,M,BR,M,M,M,M,M,M,32.81,K8A0 211515Z AUTO 10005KT 2SM BR OVC004 03/03 A3017 RMK AO2
8A0,1/21/16 15:35,37.4,37.4,100.0,80,7,0.0,30.16,M,2.0,M,OVC,M,M,M,400,M,M,M,BR,M,M,M,M,M,M,31.36,K8A0 211535Z AUTO 08007KT 2SM BR OVC004 03/03 A3016 RMK AO2
8A0,1/21/16 15:55,37.4,37.4,100.0,80,7,0.0,30.17,M,2.5,M,OVC,M,M,M,400,M,M,M,BR,M,M,M,M,M,M,31.36,K8A0 211555Z AUTO 08007KT 2 1/2SM BR OVC004 03/03 A3017 RMK AO2 LTG DSNT NE
8A0,1/21/16 16:15,37.4,37.4,100.0,100,5,0.0,30.16,M,4.0,M,OVC,M,M,M,400,M,M,M,BR,M,M,M,M,M,M,32.81,K8A0 211615Z AUTO 10005KT 4SM BR OVC004 03/03 A3016 RMK AO2
8A0,1/21/16 16:35,37.4,37.4,100.0,100,9,0.0,30.16,M,4.0,M,OVC,M,M,M,400,M,M,M,BR,M,M,M,M,M,M,30.23,K8A0 211635Z AUTO 10009KT 4SM BR OVC004 03/03 A3016 RMK AO2 LTG DSNT W
8A0,1/21/16 16:55,39.2,39.2,100.0,80,7,0.0,30.15,M,4.0,M,OVC,M,M,M,400,M,M,M,BR,M,M,M,M,M,M,33.56,K8A0 211655Z AUTO 08007KT 4SM BR OVC004 04/04 A3015 RMK AO2
8A0,1/21/16 17:15,39.2,39.2,100.0,90,6,0.0,30.14,M,4.0,M,OVC,M,M,M,400,M,M,M,BR,M,M,M,M,M,M,34.2,K8A0 211715Z AUTO 09006KT 4SM BR OVC004 04/04 A3014 RMK AO2
8A0,1/21/16 17:35,39.2,39.2,100.0,100,8,0.0,30.13,M,4.0,M,OVC,M,M,M,400,M,M,M,BR,M,M,M,M,M,M,32.98,K8A0 211735Z AUTO 10008KT 4SM BR OVC004 04/04 A3013 RMK AO2 LTG DSNT NE
8A0,1/21/16 17:55,39.2,39.2,100.0,90,7,0.0,30.12,M,4.0,M,OVC,M,M,M,400,M,M,M,BR,M,M,M,M,M,M,33.56,K8A0 211755Z AUTO 09007KT 4SM BR OVC004 04/04 A3012 RMK AO2
8A0,1/21/16 18:15,41.0,41.0,100.0,90,8,0.0,30.09,M,4.0,M,OVC,M,M,M,400,M,M,M,BR,M,M,M,M,M,M,35.2,K8A0 211815Z AUTO 09008KT 4SM BR OVC004 05/05 A3009 RMK AO2
8A0,1/21/16 18:35,41.0,41.0,100.0,90,7,0.0,30.08,M,4.0,M,OVC,M,M,M,400,M,M,M,BR,M,M,M,M,M,M,35.75,K8A0 211835Z AUTO 09007KT 4SM BR OVC004 05/05 A3008 RMK AO2 LTG DSNT NW
8A0,1/21/16 18:55,41.0,41.0,100.0,100,5,0.0,30.06,M,4.0,M,OVC,M,M,M,400,M,M,M,BR,M,M,M,M,M,M,37.08,K8A0 211855Z AUTO 10005KT 4SM BR OVC004 05/05 A3006 RMK AO2
8A0,1/21/16 19:15,42.8,42.8,100.0,100,6,0.0,30.05,M,4.0,M,OVC,M,M,M,400,M,M,M,BR,M,M,M,M,M,M,38.54,K8A0 211915Z AUTO 10006KT 059V139 4SM BR OVC004 06/06 A3005 RMK AO2
8A0,1/21/16 19:35,42.8,42.8,100.0,70,4,0.0,30.04,M,4.0,M,OVC,M,M,M,600,M,M,M,BR,M,M,M,M,M,M,40.03,K8A0 211935Z AUTO 07004KT 4SM BR OVC006 06/06 A3004 RMK AO2 LTG DSNT NW
8A0,1/21/16 19:55,41.0,41.0,100.0,100,5,0.0,30.04,M,4.0,M,OVC,M,M,M,600,M,M,M,BR,M,M,M,M,M,M,37.08,K8A0 211955Z AUTO 10005KT 4SM BR OVC006 05/05 A3004 RMK AO2
8A0,1/21/16 20:15,41.0,41.0,100.0,90,6,0.0,30.03,M,4.0,M,OVC,M,M,M,600,M,M,M,BR,M,M,M,M,M,M,36.37,K8A0 212015Z AUTO 09006KT 4SM BR OVC006 05/05 A3003 RMK AO2
8A0,1/21/16 20:35,41.0,41.0,100.0,80,6,0.0,30.03,M,3.0,M,OVC,M,M,M,600,M,M,M,BR,M,M,M,M,M,M,36.37,K8A0 212035Z AUTO 08006KT 3SM BR OVC006 05/05 A3003 RMK AO2
8A0,1/21/16 20:55,41.0,41.0,100.0,70,4,0.0,30.02,M,3.0,M,OVC,M,M,M,600,M,M,M,BR,M,M,M,M,M,M,37.93,K8A0 212055Z AUTO 07004KT 3SM BR OVC006 05/05 A3002 RMK AO2
8A0,1/21/16 21:15,41.0,41.0,100.0,80,7,0.0,30.01,M,2.5,M,OVC,M,M,M,600,M,M,M,BR,M,M,M,M,M,M,35.75,K8A0 212115Z AUTO 08007KT 2 1/2SM BR OVC006 05/05 A3001 RMK AO2
8A0,1/21/16 21:35,41.0,41.0,100.0,90,8,0.0,30.01,M,2.5,M,OVC,M,M,M,600,M,M,M,#NAME?,M,M,M,M,M,M,35.2,K8A0 212135Z AUTO 09008KT 2 1/2SM -DZ OVC006 05/05 A3001 RMK AO2
8A0,1/21/16 21:55,41.0,41.0,100.0,90,8,0.01,30.0,M,2.0,M,OVC,M,M,M,600,M,M,M,RA,M,M,M,M,M,M,35.2,K8A0 212155Z AUTO 09008KT 059V119 2SM RA OVC006 05/05 A3000 RMK AO2 P0001
8A0,1/21/16 22:15,39.2,39.2,100.0,90,7,0.0,30.0,M,1.75,M,OVC,M,M,M,400,M,M,M,#NAME?,M,M,M,M,M,M,33.56,K8A0 212215Z AUTO 09007KT 1 3/4SM -DZ OVC004 04/04 A3000 RMK AO2 LTG DSNT NW
8A0,1/21/16 22:35,39.2,39.2,100.0,90,6,0.0,30.0,M,2.5,M,OVC,M,M,M,400,M,M,M,BR,M,M,M,M,M,M,34.2,K8A0 212235Z AUTO 09006KT 2 1/2SM BR OVC004 04/04 A3000 RMK AO2
8A0,1/21/16 22:55,39.2,39.2,100.0,90,7,0.0,29.99,M,2.5,15,OVC,M,M,M,400,M,M,M,BR,M,M,M,M,M,M,33.56,K8A0 212255Z AUTO 09007G15KT 2 1/2SM BR OVC004 04/04 A2999 RMK AO2
8A0,1/21/16 23:15,41.0,41.0,100.0,90,12,0.0,29.99,M,2.5,15,OVC,M,M,M,400,M,M,M,BR,M,M,M,M,M,M,33.46,K8A0 212315Z AUTO 09012G15KT 2 1/2SM BR OVC004 05/05 A2999 RMK AO2
8A0,1/21/16 23:35,39.2,39.2,100.0,80,4,0.0,29.99,M,2.5,18,OVC,M,M,M,400,M,M,M,BR,M,M,M,M,M,M,35.83,K8A0 212335Z AUTO 08004G18KT 2 1/2SM BR OVC004 04/04 A2999 RMK AO2
8A0,1/21/16 23:55,41.0,41.0,100.0,100,10,0.0,29.98,M,2.5,14,OVC,M,M,M,400,M,M,M,BR,M,M,M,M,M,M,34.25,K8A0 212355Z AUTO 10010G14KT 2 1/2SM BR OVC004 05/05 A2998 RMK AO2 LTG DSNT W
8A0,1/22/16 0:15,41.0,41.0,100.0,90,9,0.0,29.97,M,2.0,16,OVC,M,M,M,400,M,M,M,BR,M,M,M,M,M,M,34.7,K8A0 220015Z AUTO 09009G16KT 2SM BR OVC004 05/05 A2997 RMK AO2
8A0,1/22/16 0:35,41.0,41.0,100.0,90,9,0.0,29.96,M,4.0,15,OVC,M,M,M,400,M,M,M,BR,M,M,M,M,M,M,34.7,K8A0 220035Z AUTO 09009G15KT 4SM BR OVC004 05/05 A2996 RMK AO2
8A0,1/22/16 0:55,41.0,41.0,100.0,90,13,0.0,29.94,M,4.0,21,OVC,M,M,M,400,M,M,M,BR,M,M,M,M,M,M,33.1,K8A0 220055Z AUTO 09013G21KT 4SM BR OVC004 05/05 A2994 RMK AO2
8A0,1/22/16 1:15,41.0,41.0,100.0,90,10,0.0,29.93,M,4.0,18,OVC,M,M,M,400,M,M,M,#NAME?,M,M,M,M,M,M,34.25,K8A0 220115Z AUTO 09010G18KT 4SM -DZ OVC004 05/05 A2993 RMK AO2 LTG DSNT NE
8A0,1/22/16 1:35,41.0,41.0,100.0,100,13,0.0,29.93,M,4.0,18,OVC,M,M,M,400,M,M,M,#NAME?,M,M,M,M,M,M,33.1,K8A0 220135Z AUTO 10013G18KT 4SM -RA OVC004 05/05 A2993 RMK AO2
8A0,1/22/16 1:55,41.0,41.0,100.0,100,13,0.01,29.92,M,4.0,20,OVC,M,M,M,400,M,M,M,#NAME?,M,M,M,M,M,M,33.1,K8A0 220155Z AUTO 10013G20KT 4SM -RA OVC004 05/05 A2992 RMK AO2 P0001 LTG DSNT SW
8A0,1/22/16 2:15,42.8,42.8,100.0,100,13,0.02,29.91,M,4.0,20,OVC,M,M,M,400,M,M,M,RA,M,M,M,M,M,M,35.4,K8A0 220215Z AUTO 10013G20KT 4SM RA OVC004 06/06 A2991 RMK AO2 P0002
8A0,1/22/16 2:35,42.8,42.8,100.0,100,9,0.07,29.9,M,3.0,20,OVC,M,M,M,400,M,M,M,RA,M,M,M,M,M,M,36.94,K8A0 220235Z AUTO 10009G20KT 3SM RA OVC004 06/06 A2990 RMK AO2 P0007
8A0,1/22/16 2:55,42.8,42.8,100.0,90,11,0.14,29.9,M,3.0,18,OVC,M,M,M,400,M,M,M,#NAME?,M,M,M,M,M,M,36.11,K8A0 220255Z AUTO 09011G18KT 3SM +RA OVC004 06/06 A2990 RMK AO2 P0014
8A0,1/22/16 3:15,42.8,42.8,100.0,90,13,0.03,29.88,M,5.0,21,BKN,BKN,OVC,M,600,2000,2700,M,RA,M,M,M,M,M,M,35.4,K8A0 220315Z AUTO 09013G21KT 5SM RA BKN006 BKN020 OVC027 06/06 A2988 RMK AO2 P0003
8A0,1/22/16 3:35,42.8,42.8,100.0,90,13,0.07,29.88,M,5.0,18,BKN,BKN,OVC,M,600,1900,2700,M,RA,M,M,M,M,M,M,35.4,K8A0 220335Z AUTO 09013G18KT 049V119 5SM RA BKN006 BKN019 OVC027 06/06 A2988 RMK AO2 P0007 LTG DSNT W
8A0,1/22/16 3:55,42.8,42.8,100.0,90,10,0.14,29.86,M,3.0,15,OVC,M,M,M,600,M,M,M,RA,M,M,M,M,M,M,36.51,K8A0 220355Z AUTO 09010G15KT 3SM RA OVC006 06/06 A2986 RMK AO2 P0014
8A0,1/22/16 4:15,42.8,42.8,100.0,90,11,0.03,29.85,M,5.0,18,OVC,M,M,M,600,M,M,M,#NAME?,M,M,M,M,M,M,36.11,K8A0 220415Z AUTO 09011G18KT 069V129 5SM -RA OVC006 06/06 A2985 RMK AO2 P0003
8A0,1/22/16 4:35,42.8,42.8,100.0,100,10,0.04,29.83,M,10.0,19,BKN,OVC,M,M,600,1100,M,M,#NAME?,M,M,M,M,M,M,36.51,K8A0 220435Z AUTO 10010G19KT 10SM -RA BKN006 OVC011 06/06 A2983 RMK AO2 P0004
8A0,1/22/16 4:55,42.8,42.8,100.0,90,10,0.04,29.81,M,7.0,19,OVC,M,M,M,600,M,M,M,#NAME?,M,M,M,M,M,M,36.51,K8A0 220455Z AUTO 09010G19KT 7SM -RA OVC006 06/06 A2981 RMK AO2 P0004
8A0,1/22/16 5:15,42.8,42.8,100.0,100,10,0.02,29.8,M,5.0,20,OVC,M,M,M,600,M,M,M,RA,M,M,M,M,M,M,36.51,K8A0 220515Z AUTO 10010G20KT 5SM RA OVC006 06/06 A2980 RMK AO2 P0002
8A0,1/22/16 5:35,44.6,44.6,100.0,100,11,0.11,29.79,M,2.0,19,OVC,M,M,M,600,M,M,M,#NAME?,M,M,M,M,M,M,38.39,K8A0 220535Z AUTO 10011G19KT 2SM -RA OVC006 07/07 A2979 RMK AO2 P0011
8A0,1/22/16 5:55,44.6,44.6,100.0,100,9,0.19,29.79,M,2.5,21,BKN,OVC,M,M,600,1000,M,M,RA,M,M,M,M,M,M,39.18,K8A0 220555Z AUTO 10009G21KT 2 1/2SM RA BKN006 OVC010 07/07 A2979 RMK AO2 VIS 1 1/2V4 P0019
8A0,1/22/16 6:15,44.6,44.6,100.0,100,10,0.05,29.77,M,5.0,20,BKN,BKN,OVC,M,600,1100,1500,M,RA,M,M,M,M,M,M,38.77,K8A0 220615Z AUTO 10010G20KT 5SM RA BKN006 BKN011 OVC015 07/07 A2977 RMK AO2 P0005
8A0,1/22/16 6:35,44.6,44.6,100.0,160,3,0.09,29.79,M,5.0,14,BKN,BKN,OVC,M,800,1600,2700,M,RA,M,M,M,M,M,M,43.09,K8A0 220635Z AUTO 16003G14KT 5SM RA BKN008 BKN016 OVC027 07/07 A2979 RMK AO2 P0009
8A0,1/22/16 6:55,44.6,44.6,100.0,120,3,0.15,29.79,M,2.5,M,BKN,OVC,M,M,600,1000,M,M,RA,M,M,M,M,M,M,43.09,K8A0 220655Z AUTO 12003KT 2 1/2SM RA BKN006 OVC010 07/07 A2979 RMK AO2 P0015
8A0,1/22/16 7:15,44.6,44.6,100.0,90,7,0.03,29.76,M,5.0,M,OVC,M,M,M,800,M,M,M,RA,M,M,M,M,M,M,40.14,K8A0 220715Z AUTO 09007KT 5SM RA OVC008 07/07 A2976 RMK AO2 P0003
8A0,1/22/16 7:35,44.6,44.6,100.0,100,7,0.06,29.75,M,5.0,M,OVC,M,M,M,600,M,M,M,RA,M,M,M,M,M,M,40.14,K8A0 220735Z AUTO 10007KT 5SM RA OVC006 07/07 A2975 RMK AO2 P0006 LTG DSNT SE
8A0,1/22/16 7:55,44.6,44.6,100.0,90,7,0.1,29.72,M,5.0,M,BKN,BKN,OVC,M,400,800,1200,M,RA,M,M,M,M,M,M,40.14,K8A0 220755Z AUTO 09007KT 5SM RA BKN004 BKN008 OVC012 07/07 A2972 RMK AO2 P0010
8A0,1/22/16 8:15,44.6,44.6,100.0,100,13,0.01,29.66,M,10.0,20,SCT,BKN,OVC,M,400,900,1400,M,#NAME?,M,M,M,M,M,M,37.71,K8A0 220815Z AUTO 10013G20KT 10SM -RA SCT004 BKN009 OVC014 07/07 A2966 RMK AO2 P0001
8A0,1/22/16 8:35,44.6,44.6,100.0,110,12,0.02,29.62,M,10.0,21,BKN,OVC,M,M,600,1100,M,M,#NAME?,M,M,M,M,M,M,38.04,K8A0 220835Z AUTO 11012G21KT 069V159 10SM -RA BKN006 OVC011 07/07 A2962 RMK AO2 P0002
8A0,1/22/16 8:55,44.6,44.6,100.0,110,9,0.02,29.63,M,10.0,17,OVC,M,M,M,700,M,M,M,M,M,M,M,M,M,M,39.18,K8A0 220855Z AUTO 11009G17KT 079V149 10SM OVC007 07/07 A2963 RMK AO2 P0002
8A0,1/22/16 9:15,44.6,44.6,100.0,100,10,0.0,29.6,M,10.0,16,OVC,M,M,M,700,M,M,M,M,M,M,M,M,M,M,38.77,K8A0 220915Z AUTO 10010G16KT 079V139 10SM OVC007 07/07 A2960 RMK AO2
8A0,1/22/16 9:35,46.4,46.4,100.0,110,9,0.0,29.59,M,10.0,14,OVC,M,M,M,700,M,M,M,M,M,M,M,M,M,M,41.42,K8A0 220935Z AUTO 11009G14KT 079V139 10SM OVC007 08/08 A2959 RMK AO2
8A0,1/22/16 9:55,46.4,46.4,100.0,140,7,0.0,29.61,M,10.0,M,OVC,M,M,M,900,M,M,M,M,M,M,M,M,M,M,42.33,K8A0 220955Z AUTO 14007KT 10SM OVC009 08/08 A2961 RMK AO2
8A0,1/22/16 10:15,46.4,46.4,100.0,120,5,0.0,29.62,M,10.0,M,BKN,OVC,M,M,900,1400,M,M,M,M,M,M,M,M,M,43.5,K8A0 221015Z AUTO 12005KT 10SM BKN009 OVC014 08/08 A2962 RMK AO2
8A0,1/22/16 10:35,46.4,46.4,100.0,140,6,0.0,29.62,M,10.0,15,OVC,M,M,M,1300,M,M,M,M,M,M,M,M,M,M,42.87,K8A0 221035Z AUTO 14006G15KT 10SM OVC013 08/08 A2962 RMK AO2
8A0,1/22/16 10:55,46.4,46.4,100.0,120,7,0.0,29.61,M,5.0,M,OVC,M,M,M,1100,M,M,M,#NAME?,M,M,M,M,M,M,42.33,K8A0 221055Z AUTO 12007KT 089V179 5SM -DZ OVC011 08/08 A2961 RMK AO2
8A0,1/22/16 11:15,44.6,44.6,100.0,110,5,0.0,29.6,M,4.0,M,OVC,M,M,M,900,M,M,M,DZ,M,M,M,M,M,M,41.36,K8A0 221115Z AUTO 11005KT 4SM DZ OVC009 07/07 A2960 RMK AO2
8A0,1/22/16 11:35,44.6,44.6,100.0,110,8,0.0,29.59,M,4.0,15,BKN,OVC,M,M,500,1000,M,M,RA,M,M,M,M,M,M,39.63,K8A0 221135Z AUTO 11008G15KT 059V169 4SM RA BKN005 OVC010 07/07 A2959 RMK AO2
8A0,1/22/16 11:55,44.6,44.6,100.0,110,7,0.0,29.58,M,5.0,14,BKN,OVC,M,M,500,1000,M,M,#NAME?,M,M,M,M,M,M,40.14,K8A0 221155Z AUTO 11007G14KT 5SM -RA BKN005 OVC010 07/07 A2958 RMK AO2 LTG DSNT SE
8A0,1/22/16 12:15,44.6,44.6,100.0,120,6,0.0,29.58,M,7.0,M,OVC,M,M,M,500,M,M,M,#NAME?,M,M,M,M,M,M,40.71,K8A0 221215Z AUTO 12006KT 089V149 7SM -DZ OVC005 07/07 A2958 RMK AO2
8A0,1/22/16 12:35,44.6,44.6,100.0,130,10,0.0,29.57,M,7.0,15,OVC,M,M,M,500,M,M,M,DZ,M,M,M,M,M,M,38.77,K8A0 221235Z AUTO 13010G15KT 7SM DZ OVC005 07/07 A2957 RMK AO2
8A0,1/22/16 12:55,44.6,44.6,100.0,110,7,0.0,29.57,M,10.0,M,OVC,M,M,M,500,M,M,M,DZ,M,M,M,M,M,M,40.14,K8A0 221255Z AUTO 11007KT 069V149 10SM DZ OVC005 07/07 A2957 RMK AO2
8A0,1/22/16 13:15,44.6,44.6,100.0,280,10,0.07,29.61,M,2.5,M,OVC,M,M,M,500,M,M,M,#NAME?,M,M,M,M,M,M,38.77,K8A0 221315Z AUTO 28010KT 2 1/2SM +RA OVC005 07/07 A2961 RMK AO2 VIS 1V5 P0007 LTG DSNT S
8A0,1/22/16 13:35,44.6,44.6,100.0,10,4,0.24,29.61,M,2.5,M,SCT,SCT,OVC,M,500,1000,2500,M,SN,M,M,M,M,M,M,42.13,K8A0 221335Z AUTO 01004KT 2 1/2SM SN SCT005 SCT010 OVC025 07/07 A2961 RMK AO2 VIS 1V5 P0024 LTG DSNT S
8A0,1/22/16 13:55,44.6,44.6,100.0,70,3,0.32,29.6,M,2.0,M,BKN,OVC,M,M,1800,2600,M,M,#NAME?,M,M,M,M,M,M,43.09,K8A0 221355Z AUTO 07003KT 2SM -RA BKN018 OVC026 07/07 A2960 RMK AO2 P0032
8A0,1/22/16 14:15,44.6,44.6,100.0,50,3,0.02,29.59,M,5.0,M,SCT,BKN,OVC,M,2100,4400,5000,M,RA,M,M,M,M,M,M,43.09,K8A0 221415Z AUTO 05003KT 5SM RA SCT021 BKN044 OVC050 07/07 A2959 RMK AO2 P0002
8A0,1/22/16 14:35,44.6,44.6,100.0,60,3,0.04,29.59,M,7.0,M,SCT,SCT,OVC,M,3200,3800,5000,M,RA,M,M,M,M,M,M,43.09,K8A0 221435Z AUTO 06003KT 7SM RA SCT032 SCT038 OVC050 07/07 A2959 RMK AO2 P0004
8A0,1/22/16 14:55,46.4,46.4,100.0,80,7,0.05,29.59,M,10.0,M,SCT,BKN,OVC,M,500,2700,5000,M,#NAME?,M,M,M,M,M,M,42.33,K8A0 221455Z AUTO 08007KT 059V119 10SM -RA SCT005 BKN027 OVC050 08/08 A2959 RMK AO2 P0005
8A0,1/22/16 15:15,46.4,46.4,100.0,110,6,0.01,29.6,M,7.0,M,SCT,SCT,OVC,M,500,2000,2600,M,RA,M,M,M,M,M,M,42.87,K8A0 221515Z AUTO 11006KT 7SM RA SCT005 SCT020 OVC026 08/08 A2960 RMK AO2 P0001
8A0,1/22/16 15:35,46.4,46.4,100.0,120,3,0.04,29.6,M,5.0,M,BKN,BKN,OVC,M,500,1800,2600,M,RA,M,M,M,M,M,M,45.15,K8A0 221535Z AUTO 12003KT 5SM RA BKN005 BKN018 OVC026 08/08 A2960 RMK AO2 P0004
8A0,1/22/16 15:55,46.4,46.4,100.0,90,3,0.05,29.59,M,7.0,M,BKN,OVC,M,M,700,1100,M,M,#NAME?,M,M,M,M,M,M,45.15,K8A0 221555Z AUTO 09003KT 7SM -RA BKN007 OVC011 08/08 A2959 RMK AO2 P0005
8A0,1/22/16 16:15,46.4,46.4,100.0,130,4,0.01,29.59,M,10.0,M,SCT,OVC,M,M,300,900,M,M,M,M,M,M,M,M,M,44.24,K8A0 221615Z AUTO 13004KT 10SM SCT003 OVC009 08/08 A2959 RMK AO2 P0001
8A0,1/22/16 16:35,46.4,46.4,100.0,120,3,0.01,29.58,M,10.0,M,OVC,M,M,M,700,M,M,M,M,M,M,M,M,M,M,45.15,K8A0 221635Z AUTO 12003KT 10SM OVC007 08/08 A2958 RMK AO2 P0001
8A0,1/22/16 16:55,46.4,46.4,100.0,0,0,0.01,29.58,M,7.0,M,OVC,M,M,M,500,M,M,M,#NAME?,M,M,M,M,M,M,46.4,K8A0 221655Z AUTO 00000KT 7SM -DZ OVC005 08/08 A2958 RMK AO2 P0001
8A0,1/22/16 17:15,46.4,46.4,100.0,240,14,0.0,29.59,M,3.0,19,OVC,M,M,M,300,M,M,M,#NAME?,M,M,M,M,M,M,39.72,K8A0 221715Z AUTO 24014G19KT 3SM +DZ OVC003 08/08 A2959 RMK AO2
8A0,1/22/16 17:35,42.8,42.8,100.0,260,15,0.02,29.59,M,1.75,20,OVC,M,M,M,500,M,M,M,DZ,M,M,M,M,M,M,34.78,K8A0 221735Z AUTO 26015G20KT 1 3/4SM DZ OVC005 06/06 A2959 RMK AO2 P0002
8A0,1/22/16 17:55,41.0,41.0,100.0,260,14,0.03,29.59,M,2.0,20,BKN,OVC,M,M,500,1000,M,M,#NAME?,M,M,M,M,M,M,32.76,K8A0 221755Z AUTO 26014G20KT 2SM -RA BKN005 OVC010 05/05 A2959 RMK AO2 P0003
8A0,1/22/16 18:15,39.2,39.2,100.0,260,13,0.0,29.59,M,2.0,20,OVC,M,M,M,500,M,M,M,RA,M,M,M,M,M,M,30.79,K8A0 221815Z AUTO 26013G20KT 2SM RA OVC005 04/04 A2959 RMK AO2 LTG DSNT SE
8A0,1/22/16 18:35,37.4,37.4,100.0,270,12,0.0,29.59,M,1.75,16,OVC,M,M,M,500,M,M,M,DZ,M,M,M,M,M,M,28.87,K8A0 221835Z AUTO 27012G16KT 1 3/4SM DZ OVC005 03/03 A2959 RMK AO2 LTG DSNT SE
8A0,1/22/16 18:55,37.4,37.4,100.0,260,17,0.01,29.59,M,1.5,20,OVC,M,M,M,700,M,M,M,#NAME?,M,M,M,M,M,M,27.15,K8A0 221855Z AUTO 26017G20KT 1 1/2SM -DZ OVC007 03/03 A2959 RMK AO2 P0001
8A0,1/22/16 19:15,37.4,37.4,100.0,270,15,0.0,29.59,M,1.75,19,OVC,M,M,M,700,M,M,M,#NAME?,M,M,M,M,M,M,27.78,K8A0 221915Z AUTO 27015G19KT 1 3/4SM -RA OVC007 03/03 A2959 RMK AO2
8A0,1/22/16 19:35,35.6,35.6,100.0,270,15,0.0,29.6,M,1.75,M,BKN,OVC,M,M,700,1300,M,M,BR,M,M,M,M,M,M,25.45,K8A0 221935Z AUTO 27015KT 1 3/4SM BR BKN007 OVC013 02/02 A2960 RMK AO2
8A0,1/22/16 19:55,35.6,35.6,100.0,270,11,0.0,29.6,M,1.75,19,OVC,M,M,M,700,M,M,M,BR,M,M,M,M,M,M,27.02,K8A0 221955Z AUTO 27011G19KT 1 3/4SM BR OVC007 02/02 A2960 RMK AO2
8A0,1/22/16 20:15,33.8,33.8,100.0,280,13,0.0,29.6,M,1.5,18,OVC,M,M,M,700,M,M,M,RA,M,M,M,M,M,M,23.87,K8A0 222015Z AUTO 28013G18KT 1 1/2SM RA OVC007 01/01 A2960 RMK AO2
8A0,1/22/16 20:35,33.8,33.8,100.0,280,15,0.01,29.62,M,1.75,22,BKN,OVC,M,M,700,1200,M,M,#NAME?,M,M,M,M,M,M,23.11,K8A0 222035Z AUTO 28015G22KT 1 3/4SM -SN BKN007 OVC012 01/01 A2962 RMK AO2 P0001
8A0,1/22/16 20:55,32.0,32.0,100.0,280,11,0.01,29.62,M,0.75,18,SCT,OVC,M,M,300,900,M,M,#NAME?,M,M,M,M,M,M,22.47,K8A0 222055Z AUTO 28011G18KT 3/4SM -SN SCT003 OVC009 00/00 A2962 RMK AO2 P0001
8A0,1/22/16 21:15,32.0,32.0,100.0,290,9,0.0,29.63,M,1.25,17,OVC,M,M,M,700,M,M,M,#NAME?,M,M,M,M,M,M,23.51,K8A0 222115Z AUTO 29009G17KT 1 1/4SM -SN OVC007 00/00 A2963 RMK AO2
8A0,1/22/16 21:35,32.0,32.0,100.0,280,14,0.0,29.64,M,1.25,M,OVC,M,M,M,700,M,M,M,#NAME?,M,M,M,M,M,M,21.16,K8A0 222135Z AUTO 28014KT 1 1/4SM -SN OVC007 00/00 A2964 RMK AO2
8A0,1/22/16 21:55,32.0,32.0,100.0,280,12,0.0,29.65,M,0.75,20,OVC,M,M,M,700,M,M,M,#NAME?,M,M,M,M,M,M,22.0,K8A0 222155Z AUTO 28012G20KT 3/4SM -SN OVC007 00/00 A2965 RMK AO2
8A0,1/22/16 22:15,32.0,32.0,100.0,290,11,0.0,29.66,M,0.5,16,OVC,M,M,M,600,M,M,M,SN,M,M,M,M,M,M,22.47,K8A0 222215Z AUTO 29011G16KT 1/2SM SN OVC006 00/00 A2966 RMK AO2
8A0,1/22/16 22:35,30.2,30.2,100.0,310,15,0.01,29.67,M,1.25,22,BKN,OVC,M,M,600,1300,M,M,#NAME?,M,M,M,M,M,M,18.45,K8A0 222235Z AUTO 31015G22KT 1 1/4SM -SN BKN006 OVC013 M01/M01 A2967 RMK AO2 P0001
8A0,1/22/16 22:55,30.2,30.2,100.0,310,15,0.01,29.68,M,3.0,24,SCT,BKN,OVC,M,600,1100,1900,M,#NAME?,M,M,M,M,M,M,18.45,K8A0 222255Z AUTO 31015G24KT 3SM -SN SCT006 BKN011 OVC019 M01/M01 A2968 RMK AO2 P0001
8A0,1/22/16 23:15,30.2,30.2,100.0,310,10,0.0,29.69,M,2.5,20,BKN,OVC,M,M,1300,2200,M,M,#NAME?,M,M,M,M,M,M,20.71,K8A0 222315Z AUTO 31010G20KT 2 1/2SM -SN BKN013 OVC022 M01/M01 A2969 RMK AO2
8A0,1/22/16 23:35,30.2,30.2,100.0,320,15,0.0,29.71,M,3.0,22,BKN,OVC,M,M,1000,1500,M,M,#NAME?,M,M,M,M,M,M,18.45,K8A0 222335Z AUTO 32015G22KT 3SM -SN BKN010 OVC015 M01/M01 A2971 RMK AO2
8A0,1/22/16 23:55,28.4,28.4,100.0,320,15,0.0,29.72,M,1.75,24,SCT,BKN,OVC,M,700,1200,1800,M,#NAME?,M,M,M,M,M,M,16.11,K8A0 222355Z AUTO 32015G24KT 1 3/4SM -SN SCT007 BKN012 OVC018 M02/M02 A2972 RMK AO2
8A0,1/23/16 0:15,28.4,28.4,100.0,320,18,0.0,29.74,M,1.5,25,BKN,OVC,M,M,1300,1900,M,M,#NAME?,M,M,M,M,M,M,15.01,K8A0 230015Z AUTO 32018G25KT 1 1/2SM -SN BKN013 OVC019 M02/M02 A2974 RMK AO2
8A0,1/23/16 0:35,28.4,28.4,100.0,330,16,0.01,29.74,M,3.0,24,BKN,OVC,M,M,1300,2000,M,M,#NAME?,M,M,M,M,M,M,15.73,K8A0 230035Z AUTO 33016G24KT 3SM -SN BKN013 OVC020 M02/M02 A2974 RMK AO2 P0001
8A0,1/23/16 0:55,30.2,30.2,100.0,330,18,0.01,29.75,M,4.0,24,BKN,OVC,M,M,1400,2000,M,M,#NAME?,M,M,M,M,M,M,17.38,K8A0 230055Z AUTO 33018G24KT 4SM -SN BKN014 OVC020 M01/M01 A2975 RMK AO2 P0001
8A0,1/23/16 1:15,30.2,30.2,100.0,330,16,0.0,29.76,M,3.0,22,BKN,OVC,M,M,1300,2000,M,M,#NAME?,M,M,M,M,M,M,18.07,K8A0 230115Z AUTO 33016G22KT 3SM -SN BKN013 OVC020 M01/M01 A2976 RMK AO2
8A0,1/23/16 1:35,30.2,30.2,100.0,330,13,0.0,29.77,M,4.0,21,BKN,OVC,M,M,1400,1900,M,M,#NAME?,M,M,M,M,M,M,19.26,K8A0 230135Z AUTO 33013G21KT 4SM -SN BKN014 OVC019 M01/M01 A2977 RMK AO2
8A0,1/23/16 1:55,30.2,30.2,100.0,340,19,0.0,29.79,M,5.0,25,OVC,M,M,M,1600,M,M,M,#NAME?,M,M,M,M,M,M,17.06,K8A0 230155Z AUTO 34019G25KT 5SM -SN OVC016 M01/M01 A2979 RMK AO2
8A0,1/23/16 2:15,30.2,30.2,100.0,340,17,0.0,29.79,M,10.0,24,OVC,M,M,M,1600,M,M,M,#NAME?,M,M,M,M,M,M,17.72,K8A0 230215Z AUTO 34017G24KT 10SM -SN OVC016 M01/M01 A2979 RMK AO2
8A0,1/23/16 2:35,28.4,28.4,100.0,340,17,0.0,29.8,M,7.0,29,BKN,OVC,M,M,1800,2300,M,M,M,M,M,M,M,M,M,15.36,K8A0 230235Z AUTO 34017G29KT 7SM BKN018 OVC023 M02/M02 A2980 RMK AO2
8A0,1/23/16 2:55,28.4,28.4,100.0,340,16,0.0,29.8,M,5.0,29,OVC,M,M,M,1600,M,M,M,BR,M,M,M,M,M,M,15.73,K8A0 230255Z AUTO 34016G29KT 5SM BR OVC016 M02/M02 A2980 RMK AO2
8A0,1/23/16 3:15,28.4,28.4,100.0,340,19,0.0,29.81,M,10.0,28,OVC,M,M,M,1800,M,M,M,M,M,M,M,M,M,M,14.68,K8A0 230315Z AUTO 34019G28KT 10SM OVC018 M02/M02 A2981 RMK AO2
8A0,1/23/16 3:35,28.4,28.4,100.0,330,19,0.0,29.81,M,5.0,33,BKN,OVC,M,M,1900,2300,M,M,#NAME?,M,M,M,M,M,M,14.68,K8A0 230335Z AUTO 33019G33KT 5SM -SN BKN019 OVC023 M02/M02 A2981 RMK AO2
8A0,1/23/16 3:55,28.4,28.4,100.0,340,19,0.0,29.82,M,5.0,29,BKN,OVC,M,M,1800,2300,M,M,#NAME?,M,M,M,M,M,M,14.68,K8A0 230355Z AUTO 34019G29KT 5SM -SN BKN018 OVC023 M02/M02 A2982 RMK AO2
8A0,1/23/16 4:15,28.4,26.6,92.86,340,21,0.0,29.82,M,7.0,32,OVC,M,M,M,2000,M,M,M,#NAME?,M,M,M,M,M,M,14.05,K8A0 230415Z AUTO 34021G32KT 7SM -SN OVC020 M02/M03 A2982 RMK AO2
8A0,1/23/16 4:35,28.4,26.6,92.86,350,20,0.0,29.83,M,10.0,27,OVC,M,M,M,2000,M,M,M,M,M,M,M,M,M,M,14.36,K8A0 230435Z AUTO 35020G27KT 10SM OVC020 M02/M03 A2983 RMK AO2
8A0,1/23/16 4:55,28.4,26.6,92.86,350,19,0.0,29.83,M,10.0,26,OVC,M,M,M,2000,M,M,M,M,M,M,M,M,M,M,14.68,K8A0 230455Z AUTO 35019G26KT 10SM OVC020 M02/M03 A2983 RMK AO2
8A0,1/23/16 5:15,28.4,26.6,92.86,340,19,0.0,29.84,M,10.0,27,OVC,M,M,M,1800,M,M,M,M,M,M,M,M,M,M,14.68,K8A0 230515Z AUTO 34019G27KT 10SM OVC018 M02/M03 A2984 RMK AO2
8A0,1/23/16 5:35,28.4,26.6,92.86,340,17,0.0,29.84,M,10.0,29,OVC,M,M,M,1800,M,M,M,M,M,M,M,M,M,M,15.36,K8A0 230535Z AUTO 34017G29KT 10SM OVC018 M02/M03 A2984 RMK AO2
8A0,1/23/16 5:55,28.4,26.6,92.86,340,17,0.0,29.84,M,10.0,31,OVC,M,M,M,1800,M,M,M,M,M,M,M,M,M,M,15.36,K8A0 230555Z AUTO 34017G31KT 10SM OVC018 M02/M03 A2984 RMK AO2
8A0,1/23/16 6:15,28.4,26.6,92.86,330,23,0.0,29.84,M,10.0,29,OVC,M,M,M,1600,M,M,M,M,M,M,M,M,M,M,13.47,K8A0 230615Z AUTO 33023G29KT 10SM OVC016 M02/M03 A2984 RMK AO2
8A0,1/23/16 6:35,28.4,26.6,92.86,330,18,0.0,29.85,M,10.0,26,OVC,M,M,M,1600,M,M,M,M,M,M,M,M,M,M,15.01,K8A0 230635Z AUTO 33018G26KT 10SM OVC016 M02/M03 A2985 RMK AO2
8A0,1/23/16 6:55,28.4,26.6,92.86,340,21,0.0,29.85,M,10.0,27,OVC,M,M,M,1600,M,M,M,M,M,M,M,M,M,M,14.05,K8A0 230655Z AUTO 34021G27KT 10SM OVC016 M02/M03 A2985 RMK AO2
8A0,1/23/16 7:15,28.4,26.6,92.86,330,21,0.0,29.85,M,10.0,30,OVC,M,M,M,1600,M,M,M,M,M,M,M,M,M,M,14.05,K8A0 230715Z AUTO 33021G30KT 10SM OVC016 M02/M03 A2985 RMK AO2
8A0,1/23/16 7:35,28.4,26.6,92.86,340,17,0.0,29.86,M,10.0,26,OVC,M,M,M,1600,M,M,M,M,M,M,M,M,M,M,15.36,K8A0 230735Z AUTO 34017G26KT 10SM OVC016 M02/M03 A2986 RMK AO2
8A0,1/23/16 7:55,26.6,26.6,100.0,330,16,0.0,29.87,M,10.0,28,OVC,M,M,M,1600,M,M,M,M,M,M,M,M,M,M,13.38,K8A0 230755Z AUTO 33016G28KT 10SM OVC016 M03/M03 A2987 RMK AO2
8A0,1/23/16 8:15,26.6,26.6,100.0,330,14,0.0,29.87,M,10.0,27,OVC,M,M,M,1600,M,M,M,M,M,M,M,M,M,M,14.2,K8A0 230815Z AUTO 33014G27KT 10SM OVC016 M03/M03 A2987 RMK AO2
8A0,1/23/16 8:35,26.6,26.6,100.0,330,20,0.0,29.87,M,10.0,31,OVC,M,M,M,1800,M,M,M,M,M,M,M,M,M,M,11.97,K8A0 230835Z AUTO 33020G31KT 10SM OVC018 M03/M03 A2987 RMK AO2
8A0,1/23/16 8:55,26.6,26.6,100.0,330,21,0.0,29.87,M,10.0,27,OVC,M,M,M,1800,M,M,M,M,M,M,M,M,M,M,11.65,K8A0 230855Z AUTO 33021G27KT 10SM OVC018 M03/M03 A2987 RMK AO2
8A0,1/23/16 9:15,26.6,26.6,100.0,330,19,0.0,29.88,M,10.0,27,OVC,M,M,M,1800,M,M,M,M,M,M,M,M,M,M,12.3,K8A0 230915Z AUTO 33019G27KT 10SM OVC018 M03/M03 A2988 RMK AO2
8A0,1/23/16 9:35,26.6,24.8,92.8,330,19,0.0,29.89,M,10.0,30,OVC,M,M,M,2000,M,M,M,M,M,M,M,M,M,M,12.3,K8A0 230935Z AUTO 33019G30KT 10SM OVC020 M03/M04 A2989 RMK AO2
8A0,1/23/16 9:55,26.6,24.8,92.8,330,19,0.0,29.89,M,10.0,27,OVC,M,M,M,2000,M,M,M,M,M,M,M,M,M,M,12.3,K8A0 230955Z AUTO 33019G27KT 10SM OVC020 M03/M04 A2989 RMK AO2
8A0,1/23/16 10:15,26.6,24.8,92.8,320,22,0.0,29.9,M,10.0,30,OVC,M,M,M,2000,M,M,M,M,M,M,M,M,M,M,11.35,K8A0 231015Z AUTO 32022G30KT 10SM OVC020 M03/M04 A2990 RMK AO2
8A0,1/23/16 10:35,26.6,24.8,92.8,330,18,0.0,29.91,M,10.0,30,OVC,M,M,M,2000,M,M,M,M,M,M,M,M,M,M,12.64,K8A0 231035Z AUTO 33018G30KT 10SM OVC020 M03/M04 A2991 RMK AO2
8A0,1/23/16 10:55,26.6,23.0,86.07,330,20,0.0,29.92,M,10.0,31,OVC,M,M,M,2000,M,M,M,M,M,M,M,M,M,M,11.97,K8A0 231055Z AUTO 33020G31KT 10SM OVC020 M03/M05 A2992 RMK AO2
8A0,1/23/16 11:15,26.6,24.8,92.8,330,19,0.0,29.93,M,10.0,27,OVC,M,M,M,2000,M,M,M,M,M,M,M,M,M,M,12.3,K8A0 231115Z AUTO 33019G27KT 10SM OVC020 M03/M04 A2993 RMK AO2
8A0,1/23/16 11:35,26.6,24.8,92.8,330,15,0.0,29.94,M,10.0,28,OVC,M,M,M,2000,M,M,M,M,M,M,M,M,M,M,13.78,K8A0 231135Z AUTO 33015G28KT 10SM OVC020 M03/M04 A2994 RMK AO2
8A0,1/23/16 11:55,26.6,24.8,92.8,330,18,0.0,29.95,M,10.0,27,OVC,M,M,M,1800,M,M,M,M,M,M,M,M,M,M,12.64,K8A0 231155Z AUTO 33018G27KT 10SM OVC018 M03/M04 A2995 RMK AO2
8A0,1/23/16 12:15,26.6,24.8,92.8,330,20,0.0,29.96,M,10.0,24,OVC,M,M,M,1800,M,M,M,M,M,M,M,M,M,M,11.97,K8A0 231215Z AUTO 33020G24KT 10SM OVC018 M03/M04 A2996 RMK AO2
8A0,1/23/16 12:35,26.6,24.8,92.8,330,12,0.0,29.97,M,10.0,25,OVC,M,M,M,2000,M,M,M,M,M,M,M,M,M,M,15.13,K8A0 231235Z AUTO 33012G25KT 10SM OVC020 M03/M04 A2997 RMK AO2
8A0,1/23/16 12:55,26.6,24.8,92.8,320,13,0.0,29.99,M,10.0,20,OVC,M,M,M,2000,M,M,M,M,M,M,M,M,M,M,14.65,K8A0 231255Z AUTO 32013G20KT 10SM OVC020 M03/M04 A2999 RMK AO2
8A0,1/23/16 13:15,26.6,23.0,86.07,320,18,0.0,30.0,M,10.0,28,OVC,M,M,M,2000,M,M,M,M,M,M,M,M,M,M,12.64,K8A0 231315Z AUTO 32018G28KT 10SM OVC020 M03/M05 A3000 RMK AO2
8A0,1/23/16 13:35,26.6,23.0,86.07,330,20,0.0,30.01,M,10.0,28,OVC,M,M,M,2200,M,M,M,M,M,M,M,M,M,M,11.97,K8A0 231335Z AUTO 33020G28KT 10SM OVC022 M03/M05 A3001 RMK AO2
8A0,1/23/16 13:55,26.6,21.2,79.77,320,15,0.0,30.02,M,10.0,26,OVC,M,M,M,2600,M,M,M,M,M,M,M,M,M,M,13.78,K8A0 231355Z AUTO 32015G26KT 10SM OVC026 M03/M06 A3002 RMK AO2
8A0,1/23/16 14:15,26.6,23.0,86.07,320,16,0.0,30.03,M,10.0,27,OVC,M,M,M,2800,M,M,M,#NAME?,M,M,M,M,M,M,13.38,K8A0 231415Z AUTO 32016G27KT 10SM -SN OVC028 M03/M05 A3003 RMK AO2
8A0,1/23/16 14:35,26.6,23.0,86.07,330,18,0.0,30.03,M,10.0,24,OVC,M,M,M,2900,M,M,M,M,M,M,M,M,M,M,12.64,K8A0 231435Z AUTO 33018G24KT 10SM OVC029 M03/M05 A3003 RMK AO2
8A0,1/23/16 14:55,26.6,23.0,86.07,320,17,0.0,30.03,M,10.0,24,OVC,M,M,M,2600,M,M,M,M,M,M,M,M,M,M,13.0,K8A0 231455Z AUTO 32017G24KT 10SM OVC026 M03/M05 A3003 RMK AO2
8A0,1/23/16 15:15,26.6,23.0,86.07,340,18,0.0,30.03,M,10.0,23,OVC,M,M,M,2600,M,M,M,M,M,M,M,M,M,M,12.64,K8A0 231515Z AUTO 34018G23KT 10SM OVC026 M03/M05 A3003 RMK AO2
8A0,1/23/16 15:35,26.6,23.0,86.07,330,17,0.0,30.04,M,10.0,22,OVC,M,M,M,2600,M,M,M,M,M,M,M,M,M,M,13.0,K8A0 231535Z AUTO 33017G22KT 10SM OVC026 M03/M05 A3004 RMK AO2
8A0,1/23/16 15:55,28.4,23.0,79.92,340,13,0.0,30.05,M,10.0,26,OVC,M,M,M,2400,M,M,M,M,M,M,M,M,M,M,16.96,K8A0 231555Z AUTO 34013G26KT 10SM OVC024 M02/M05 A3005 RMK AO2
8A0,1/23/16 16:15,28.4,23.0,79.92,330,11,0.0,30.06,M,10.0,20,OVC,M,M,M,2400,M,M,M,M,M,M,M,M,M,M,17.92,K8A0 231615Z AUTO 33011G20KT 10SM OVC024 M02/M05 A3006 RMK AO2
8A0,1/23/16 16:35,28.4,23.0,79.92,320,13,0.0,30.06,M,10.0,18,OVC,M,M,M,2400,M,M,M,M,M,M,M,M,M,M,16.96,K8A0 231635Z AUTO 32013G18KT 10SM OVC024 M02/M05 A3006 RMK AO2
8A0,1/23/16 16:55,28.4,23.0,79.92,340,13,0.0,30.06,M,10.0,18,OVC,M,M,M,2400,M,M,M,M,M,M,M,M,M,M,16.96,K8A0 231655Z AUTO 34013G18KT 10SM OVC024 M02/M05 A3006 RMK AO2
8A0,1/23/16 17:15,28.4,23.0,79.92,320,14,0.0,30.06,M,10.0,24,OVC,M,M,M,2400,M,M,M,M,M,M,M,M,M,M,16.52,K8A0 231715Z AUTO 32014G24KT 10SM OVC024 M02/M05 A3006 RMK AO2
8A0,1/23/16 17:35,28.4,23.0,79.92,330,13,0.0,30.05,M,10.0,22,OVC,M,M,M,2400,M,M,M,M,M,M,M,M,M,M,16.96,K8A0 231735Z AUTO 33013G22KT 10SM OVC024 M02/M05 A3005 RMK AO2
8A0,1/23/16 17:55,28.4,24.8,86.18,320,9,0.0,30.05,M,10.0,M,OVC,M,M,M,2400,M,M,M,M,M,M,M,M,M,M,19.04,K8A0 231755Z AUTO 32009KT 10SM OVC024 M02/M04 A3005 RMK AO2
8A0,1/23/16 18:15,28.4,23.0,79.92,330,12,0.0,30.04,M,10.0,M,OVC,M,M,M,2400,M,M,M,M,M,M,M,M,M,M,17.42,K8A0 231815Z AUTO 33012KT 10SM OVC024 M02/M05 A3004 RMK AO2
8A0,1/23/16 18:35,28.4,23.0,79.92,300,11,0.0,30.05,M,10.0,18,OVC,M,M,M,2400,M,M,M,M,M,M,M,M,M,M,17.92,K8A0 231835Z AUTO 30011G18KT 10SM OVC024 M02/M05 A3005 RMK AO2
8A0,1/23/16 18:55,28.4,23.0,79.92,310,10,0.0,30.04,M,10.0,18,OVC,M,M,M,2400,M,M,M,M,M,M,M,M,M,M,18.45,K8A0 231855Z AUTO 31010G18KT 10SM OVC024 M02/M05 A3004 RMK AO2
8A0,1/23/16 19:15,28.4,23.0,79.92,310,7,0.0,30.04,M,10.0,M,OVC,M,M,M,2400,M,M,M,M,M,M,M,M,M,M,20.39,K8A0 231915Z AUTO 31007KT 10SM OVC024 M02/M05 A3004 RMK AO2
8A0,1/23/16 19:35,28.4,24.8,86.18,300,9,0.0,30.04,M,10.0,18,OVC,M,M,M,2400,M,M,M,M,M,M,M,M,M,M,19.04,K8A0 231935Z AUTO 30009G18KT 10SM OVC024 M02/M04 A3004 RMK AO2
8A0,1/23/16 19:55,28.4,24.8,86.18,300,13,0.0,30.05,M,10.0,M,OVC,M,M,M,2400,M,M,M,M,M,M,M,M,M,M,16.96,K8A0 231955Z AUTO 30013KT 10SM OVC024 M02/M04 A3005 RMK AO2
8A0,1/23/16 20:15,28.4,24.8,86.18,320,15,0.0,30.06,M,10.0,M,OVC,M,M,M,2200,M,M,M,M,M,M,M,M,M,M,16.11,K8A0 232015Z AUTO 32015KT 10SM OVC022 M02/M04 A3006 RMK AO2
8A0,1/23/16 20:35,28.4,24.8,86.18,330,13,0.0,30.07,M,10.0,19,OVC,M,M,M,2200,M,M,M,M,M,M,M,M,M,M,16.96,K8A0 232035Z AUTO 33013G19KT 10SM OVC022 M02/M04 A3007 RMK AO2
8A0,1/23/16 20:55,28.4,26.6,92.86,320,12,0.0,30.07,M,10.0,16,OVC,M,M,M,2000,M,M,M,M,M,M,M,M,M,M,17.42,K8A0 232055Z AUTO 32012G16KT 10SM OVC020 M02/M03 A3007 RMK AO2
8A0,1/23/16 21:15,28.4,24.8,86.18,320,12,0.0,30.07,M,10.0,18,OVC,M,M,M,2200,M,M,M,M,M,M,M,M,M,M,17.42,K8A0 232115Z AUTO 32012G18KT 10SM OVC022 M02/M04 A3007 RMK AO2
8A0,1/23/16 21:35,28.4,23.0,79.92,330,13,0.0,30.08,M,10.0,21,BKN,M,M,M,2200,M,M,M,M,M,M,M,M,M,M,16.96,K8A0 232135Z AUTO 33013G21KT 10SM BKN022 M02/M05 A3008 RMK AO2
8A0,1/23/16 21:55,28.4,23.0,79.92,340,9,0.0,30.09,M,10.0,14,SCT,M,M,M,2600,M,M,M,M,M,M,M,M,M,M,19.04,K8A0 232155Z AUTO 34009G14KT 10SM SCT026 M02/M05 A3009 RMK AO2
8A0,1/23/16 22:15,28.4,23.0,79.92,340,10,0.0,30.09,M,10.0,18,CLR,M,M,M,M,M,M,M,M,M,M,M,M,M,M,18.45,K8A0 232215Z AUTO 34010G18KT 10SM CLR M02/M05 A3009 RMK AO2
8A0,1/23/16 22:35,28.4,23.0,79.92,340,9,0.0,30.09,M,10.0,20,CLR,M,M,M,M,M,M,M,M,M,M,M,M,M,M,19.04,K8A0 232235Z AUTO 34009G20KT 10SM CLR M02/M05 A3009 RMK AO2
8A0,1/23/16 22:55,28.4,23.0,79.92,340,8,0.0,30.09,M,10.0,M,CLR,M,M,M,M,M,M,M,M,M,M,M,M,M,M,19.68,K8A0 232255Z AUTO 34008KT 10SM CLR M02/M05 A3009 RMK AO2
8A0,1/23/16 23:15,28.4,23.0,79.92,330,7,0.0,30.09,M,10.0,M,CLR,M,M,M,M,M,M,M,M,M,M,M,M,M,M,20.39,K8A0 232315Z AUTO 33007KT 10SM CLR M02/M05 A3009 RMK AO2
8A0,1/23/16 23:35,28.4,23.0,79.92,360,4,0.0,30.09,M,10.0,14,CLR,M,M,M,M,M,M,M,M,M,M,M,M,M,M,23.22,K8A0 232335Z AUTO 36004G14KT 10SM CLR M02/M05 A3009 RMK AO2
8A0,1/23/16 23:55,26.6,23.0,86.07,360,3,0.0,30.09,M,10.0,M,CLR,M,M,M,M,M,M,M,M,M,M,M,M,M,M,22.52,K8A0 232355Z AUTO 36003KT 10SM CLR M03/M05 A3009 RMK AO2
8A0,1/24/16 0:15,26.6,23.0,86.07,340,7,0.0,30.11,M,10.0,M,CLR,M,M,M,M,M,M,M,M,M,M,M,M,M,M,18.2,K8A0 240015Z AUTO 34007KT 10SM CLR M03/M05 A3011 RMK AO2
8A0,1/24/16 0:35,26.6,23.0,86.07,350,7,0.0,30.12,M,10.0,M,CLR,M,M,M,M,M,M,M,M,M,M,M,M,M,M,18.2,K8A0 240035Z AUTO 35007KT 10SM CLR M03/M05 A3012 RMK AO2
8A0,1/24/16 0:55,26.6,23.0,86.07,360,7,0.0,30.12,M,10.0,M,CLR,M,M,M,M,M,M,M,M,M,M,M,M,M,M,18.2,K8A0 240055Z AUTO 36007KT 10SM CLR M03/M05 A3012 RMK AO2
8A0,1/24/16 1:15,26.6,23.0,86.07,360,7,0.0,30.13,M,10.0,M,CLR,M,M,M,M,M,M,M,M,M,M,M,M,M,M,18.2,K8A0 240115Z AUTO 36007KT 10SM CLR M03/M05 A3013 RMK AO2
8A0,1/24/16 1:35,26.6,23.0,86.07,10,8,0.0,30.14,M,10.0,M,CLR,M,M,M,M,M,M,M,M,M,M,M,M,M,M,17.46,K8A0 240135Z AUTO 01008KT 10SM CLR M03/M05 A3014 RMK AO2
8A0,1/24/16 1:55,26.6,23.0,86.07,20,5,0.0,30.14,M,10.0,M,CLR,M,M,M,M,M,M,M,M,M,M,M,M,M,M,19.98,K8A0 240155Z AUTO 02005KT 10SM CLR M03/M05 A3014 RMK AO2
8A0,1/24/16 2:15,26.6,23.0,86.07,10,5,0.0,30.15,M,10.0,M,CLR,M,M,M,M,M,M,M,M,M,M,M,M,M,M,19.98,K8A0 240215Z AUTO 01005KT 10SM CLR M03/M05 A3015 RMK AO2
8A0,1/24/16 2:35,26.6,23.0,86.07,360,6,0.0,30.15,M,10.0,M,CLR,M,M,M,M,M,M,M,M,M,M,M,M,M,M,19.03,K8A0 240235Z AUTO 36006KT 10SM CLR M03/M05 A3015 RMK AO2
8A0,1/24/16 2:55,24.8,23.0,92.74,360,6,0.0,30.15,M,10.0,M,SCT,M,M,M,11000,M,M,M,M,M,M,M,M,M,M,16.86,K8A0 240255Z AUTO 36006KT 10SM SCT110 M04/M05 A3015 RMK AO2
8A0,1/24/16 3:15,24.8,23.0,92.74,10,4,0.0,30.16,M,10.0,M,CLR,M,M,M,M,M,M,M,M,M,M,M,M,M,M,19.01,K8A0 240315Z AUTO 01004KT 10SM CLR M04/M05 A3016 RMK AO2
8A0,1/24/16 3:35,23.0,23.0,100.0,20,4,0.0,30.16,M,10.0,M,CLR,M,M,M,M,M,M,M,M,M,M,M,M,M,M,16.91,K8A0 240335Z AUTO 02004KT 10SM CLR M05/M05 A3016 RMK AO2
8A0,1/24/16 3:55,23.0,23.0,100.0,10,4,0.0,30.16,M,10.0,M,CLR,M,M,M,M,M,M,M,M,M,M,M,M,M,M,16.91,K8A0 240355Z AUTO 01004KT 10SM CLR M05/M05 A3016 RMK AO2
8A0,1/24/16 4:15,23.0,23.0,100.0,360,4,0.0,30.16,M,10.0,M,CLR,M,M,M,M,M,M,M,M,M,M,M,M,M,M,16.91,K8A0 240415Z AUTO 36004KT 10SM CLR M05/M05 A3016 RMK AO2
8A0,1/24/16 4:35,23.0,23.0,100.0,0,0,0.0,30.16,M,10.0,M,CLR,M,M,M,M,M,M,M,M,M,M,M,M,M,M,23.0,K8A0 240435Z AUTO 00000KT 10SM CLR M05/M05 A3016 RMK AO2
8A0,1/24/16 4:55,23.0,23.0,100.0,0,0,0.0,30.15,M,10.0,M,CLR,M,M,M,M,M,M,M,M,M,M,M,M,M,M,23.0,K8A0 240455Z AUTO 00000KT 10SM CLR M05/M05 A3015 RMK AO2
8A0,1/24/16 5:15,23.0,23.0,100.0,40,3,0.0,30.15,M,10.0,M,CLR,M,M,M,M,M,M,M,M,M,M,M,M,M,M,18.4,K8A0 240515Z AUTO 04003KT 10SM CLR M05/M05 A3015 RMK AO2
8A0,1/24/16 5:35,21.2,21.2,100.0,100,3,0.0,30.14,M,10.0,M,CLR,M,M,M,M,M,M,M,M,M,M,M,M,M,M,16.34,K8A0 240535Z AUTO 10003KT 10SM CLR M06/M06 A3014 RMK AO2
8A0,1/24/16 5:55,21.2,21.2,100.0,0,0,0.0,30.13,M,10.0,M,CLR,M,M,M,M,M,M,M,M,M,M,M,M,M,M,21.2,K8A0 240555Z AUTO 00000KT 10SM CLR M06/M06 A3013 RMK AO2
8A0,1/24/16 6:15,21.2,21.2,100.0,0,0,0.0,30.12,M,10.0,M,CLR,M,M,M,M,M,M,M,M,M,M,M,M,M,M,21.2,K8A0 240615Z AUTO 00000KT 10SM CLR M06/M06 A3012 RMK AO2
8A0,1/24/16 6:35,19.4,19.4,100.0,0,0,0.0,30.12,M,10.0,M,CLR,M,M,M,M,M,M,M,M,M,M,M,M,M,M,19.4,K8A0 240635Z AUTO 00000KT 10SM CLR M07/M07 A3012 RMK AO2
8A0,1/24/16 6:55,21.2,21.2,100.0,310,3,0.0,30.13,M,10.0,M,CLR,M,M,M,M,M,M,M,M,M,M,M,M,M,M,16.34,K8A0 240655Z AUTO 31003KT 10SM CLR M06/M06 A3013 RMK AO2
8A0,1/24/16 7:15,21.2,21.2,100.0,350,4,0.0,30.14,M,10.0,M,CLR,M,M,M,M,M,M,M,M,M,M,M,M,M,M,14.81,K8A0 240715Z AUTO 35004KT 10SM CLR M06/M06 A3014 RMK AO2
8A0,1/24/16 7:35,21.2,21.2,100.0,360,4,0.0,30.13,M,10.0,M,CLR,M,M,M,M,M,M,M,M,M,M,M,M,M,M,14.81,K8A0 240735Z AUTO 36004KT 10SM CLR M06/M06 A3013 RMK AO2
8A0,1/24/16 7:55,21.2,21.2,100.0,360,4,0.0,30.13,M,10.0,M,CLR,M,M,M,M,M,M,M,M,M,M,M,M,M,M,14.81,K8A0 240755Z AUTO 36004KT 10SM CLR M06/M06 A3013 RMK AO2
8A0,1/24/16 8:15,21.2,21.2,100.0,360,4,0.0,30.14,M,10.0,M,CLR,M,M,M,M,M,M,M,M,M,M,M,M,M,M,14.81,K8A0 240815Z AUTO 36004KT 10SM CLR M06/M06 A3014 RMK AO2
8A0,1/24/16 8:35,19.4,19.4,100.0,340,5,0.0,30.14,M,10.0,M,CLR,M,M,M,M,M,M,M,M,M,M,M,M,M,M,11.43,K8A0 240835Z AUTO 34005KT 10SM CLR M07/M07 A3014 RMK AO2
8A0,1/24/16 8:55,19.4,19.4,100.0,310,4,0.0,30.14,M,10.0,M,CLR,M,M,M,M,M,M,M,M,M,M,M,M,M,M,12.71,K8A0 240855Z AUTO 31004KT 10SM CLR M07/M07 A3014 RMK AO2
8A0,1/24/16 9:15,21.2,21.2,100.0,300,3,0.0,30.15,M,10.0,M,CLR,M,M,M,M,M,M,M,M,M,M,M,M,M,M,16.34,K8A0 240915Z AUTO 30003KT 10SM CLR M06/M06 A3015 RMK AO2
8A0,1/24/16 9:35,21.2,21.2,100.0,320,3,0.0,30.15,M,10.0,M,CLR,M,M,M,M,M,M,M,M,M,M,M,M,M,M,16.34,K8A0 240935Z AUTO 32003KT 10SM CLR M06/M06 A3015 RMK AO2
8A0,1/24/16 9:55,21.2,21.2,100.0,0,0,0.0,30.14,M,10.0,M,CLR,M,M,M,M,M,M,M,M,M,M,M,M,M,M,21.2,K8A0 240955Z AUTO 00000KT 10SM CLR M06/M06 A3014 RMK AO2
8A0,1/24/16 10:15,19.4,19.4,100.0,340,3,0.0,30.14,M,10.0,M,CLR,M,M,M,M,M,M,M,M,M,M,M,M,M,M,14.28,K8A0 241015Z AUTO 34003KT 10SM CLR M07/M07 A3014 RMK AO2
8A0,1/24/16 10:35,19.4,19.4,100.0,0,0,0.0,30.15,M,7.0,M,CLR,M,M,M,M,M,M,M,M,M,M,M,M,M,M,19.4,K8A0 241035Z AUTO 00000KT 7SM CLR M07/M07 A3015 RMK AO2
8A0,1/24/16 10:55,19.4,19.4,100.0,0,0,0.0,30.15,M,10.0,M,CLR,M,M,M,M,M,M,M,M,M,M,M,M,M,M,19.4,K8A0 241055Z AUTO 00000KT 10SM CLR M07/M07 A3015 RMK AO2
8A0,1/24/16 11:15,17.6,17.6,100.0,0,0,0.0,30.15,M,7.0,M,CLR,M,M,M,M,M,M,M,M,M,M,M,M,M,M,17.6,K8A0 241115Z AUTO 00000KT 7SM CLR M08/M08 A3015 RMK AO2
8A0,1/24/16 11:35,19.4,19.4,100.0,20,3,0.0,30.15,M,7.0,M,CLR,M,M,M,M,M,M,M,M,M,M,M,M,M,M,14.28,K8A0 241135Z AUTO 02003KT 7SM CLR M07/M07 A3015 RMK AO2
8A0,1/24/16 11:55,19.4,19.4,100.0,10,4,0.0,30.17,M,7.0,M,CLR,M,M,M,M,M,M,M,M,M,M,M,M,M,M,12.71,K8A0 241155Z AUTO 01004KT 7SM CLR M07/M07 A3017 RMK AO2
8A0,1/24/16 12:15,19.4,19.4,100.0,360,4,0.0,30.17,M,10.0,M,CLR,M,M,M,M,M,M,M,M,M,M,M,M,M,M,12.71,K8A0 241215Z AUTO 36004KT 10SM CLR M07/M07 A3017 RMK AO2
8A0,1/24/16 12:35,19.4,19.4,100.0,340,5,0.0,30.18,M,10.0,M,CLR,M,M,M,M,M,M,M,M,M,M,M,M,M,M,11.43,K8A0 241235Z AUTO 34005KT 10SM CLR M07/M07 A3018 RMK AO2
8A0,1/24/16 12:55,21.2,21.2,100.0,0,0,0.0,30.18,M,10.0,M,CLR,M,M,M,M,M,M,M,M,M,M,M,M,M,M,21.2,K8A0 241255Z AUTO 00000KT 10SM CLR M06/M06 A3018 RMK AO2
8A0,1/24/16 13:15,21.2,21.2,100.0,10,3,0.0,30.18,M,10.0,M,CLR,M,M,M,M,M,M,M,M,M,M,M,M,M,M,16.34,K8A0 241315Z AUTO 01003KT 10SM CLR M06/M06 A3018 RMK AO2
8A0,1/24/16 13:35,21.2,21.2,100.0,0,0,0.0,30.19,M,7.0,M,CLR,M,M,M,M,M,M,M,M,M,M,M,M,M,M,21.2,K8A0 241335Z AUTO 00000KT 7SM CLR M06/M06 A3019 RMK AO2
8A0,1/24/16 13:55,23.0,23.0,100.0,340,3,0.0,30.19,M,7.0,M,CLR,M,M,M,M,M,M,M,M,M,M,M,M,M,M,18.4,K8A0 241355Z AUTO 34003KT 7SM CLR M05/M05 A3019 RMK AO2
8A0,1/24/16 14:15,24.8,24.8,100.0,10,3,0.0,30.19,M,7.0,M,CLR,M,M,M,M,M,M,M,M,M,M,M,M,M,M,20.46,K8A0 241415Z AUTO 01003KT 7SM CLR M04/M04 A3019 RMK AO2
8A0,1/24/16 14:35,26.6,26.6,100.0,40,6,0.0,30.19,M,10.0,M,CLR,M,M,M,M,M,M,M,M,M,M,M,M,M,M,19.03,K8A0 241435Z AUTO 04006KT 10SM CLR M03/M03 A3019 RMK AO2
8A0,1/24/16 14:55,28.4,26.6,92.86,50,6,0.0,30.19,M,10.0,M,CLR,M,M,M,M,M,M,M,M,M,M,M,M,M,M,21.19,K8A0 241455Z AUTO 05006KT 10SM CLR M02/M03 A3019 RMK AO2
8A0,1/24/16 15:15,28.4,26.6,92.86,30,3,0.0,30.19,M,10.0,M,CLR,M,M,M,M,M,M,M,M,M,M,M,M,M,M,24.57,K8A0 241515Z AUTO 03003KT 10SM CLR M02/M03 A3019 RMK AO2
8A0,1/24/16 15:35,30.2,26.6,86.28,50,3,0.0,30.19,M,10.0,M,CLR,M,M,M,M,M,M,M,M,M,M,M,M,M,M,26.63,K8A0 241535Z AUTO 05003KT 10SM CLR M01/M03 A3019 RMK AO2
8A0,1/24/16 15:55,32.0,28.4,86.39,0,0,0.0,30.2,M,10.0,M,CLR,M,M,M,M,M,M,M,M,M,M,M,M,M,M,32.0,K8A0 241555Z AUTO 00000KT 10SM CLR 00/M02 A3020 RMK AO2
8A0,1/24/16 16:15,32.0,28.4,86.39,0,0,0.0,30.2,M,10.0,M,CLR,M,M,M,M,M,M,M,M,M,M,M,M,M,M,32.0,K8A0 241615Z AUTO 00000KT 10SM CLR 00/M02 A3020 RMK AO2
8A0,1/24/16 16:35,32.0,28.4,86.39,20,3,0.0,30.19,M,10.0,M,CLR,M,M,M,M,M,M,M,M,M,M,M,M,M,M,28.69,K8A0 241635Z AUTO 02003KT 10SM CLR 00/M02 A3019 RMK AO2
8A0,1/24/16 16:55,32.0,28.4,86.39,0,0,0.0,30.19,M,10.0,M,CLR,M,M,M,M,M,M,M,M,M,M,M,M,M,M,32.0,K8A0 241655Z AUTO 00000KT 10SM CLR 00/M02 A3019 RMK AO2
8A0,1/24/16 17:15,33.8,28.4,80.36,0,0,0.0,30.19,M,10.0,M,CLR,M,M,M,M,M,M,M,M,M,M,M,M,M,M,33.8,K8A0 241715Z AUTO 00000KT 10SM CLR 01/M02 A3019 RMK AO2
8A0,1/24/16 17:35,35.6,28.4,74.8,0,0,0.0,30.18,M,10.0,M,CLR,M,M,M,M,M,M,M,M,M,M,M,M,M,M,35.6,K8A0 241735Z AUTO 00000KT 10SM CLR 02/M02 A3018 RMK AO2
8A0,1/24/16 17:55,35.6,26.6,69.46,0,0,0.0,30.17,M,10.0,M,CLR,M,M,M,M,M,M,M,M,M,M,M,M,M,M,35.6,K8A0 241755Z AUTO 00000KT 10SM CLR 02/M03 A3017 RMK AO2
8A0,1/24/16 18:15,37.4,26.6,64.7,0,0,0.0,30.16,M,10.0,M,CLR,M,M,M,M,M,M,M,M,M,M,M,M,M,M,37.4,K8A0 241815Z AUTO 00000KT 10SM CLR 03/M03 A3016 RMK AO2
8A0,1/24/16 18:35,39.2,28.4,64.93,0,0,0.0,30.15,M,10.0,M,CLR,M,M,M,M,M,M,M,M,M,M,M,M,M,M,39.2,K8A0 241835Z AUTO 00000KT 10SM CLR 04/M02 A3015 RMK AO2
8A0,1/24/16 18:55,41.0,30.2,65.16,0,0,0.0,30.14,M,10.0,M,CLR,M,M,M,M,M,M,M,M,M,M,M,M,M,M,41.0,K8A0 241855Z AUTO 00000KT 10SM CLR 05/M01 A3014 RMK AO2
8A0,1/24/16 19:15,41.0,30.2,65.16,0,0,0.0,30.13,M,10.0,M,CLR,M,M,M,M,M,M,M,M,M,M,M,M,M,M,41.0,K8A0 241915Z AUTO 00000KT 10SM CLR 05/M01 A3013 RMK AO2
8A0,1/24/16 19:35,42.8,30.2,60.79,190,3,0.0,30.13,M,10.0,M,CLR,M,M,M,M,M,M,M,M,M,M,M,M,M,M,41.03,K8A0 241935Z AUTO 19003KT 10SM CLR 06/M01 A3013 RMK AO2
8A0,1/24/16 19:55,42.8,30.2,60.79,190,5,0.0,30.13,M,10.0,M,CLR,M,M,M,M,M,M,M,M,M,M,M,M,M,M,39.22,K8A0 241955Z AUTO 19005KT 10SM CLR 06/M01 A3013 RMK AO2
8A0,1/24/16 20:15,44.6,30.2,56.74,210,3,0.0,30.13,M,10.0,M,CLR,M,M,M,M,M,M,M,M,M,M,M,M,M,M,43.09,K8A0 242015Z AUTO 21003KT 10SM CLR 07/M01 A3013 RMK AO2
8A0,1/24/16 20:35,44.6,28.4,52.72,0,0,0.0,30.13,M,10.0,M,CLR,M,M,M,M,M,M,M,M,M,M,M,M,M,M,44.6,K8A0 242035Z AUTO 00000KT 10SM CLR 07/M02 A3013 RMK AO2
8A0,1/24/16 20:55,44.6,28.4,52.72,0,0,0.0,30.13,M,10.0,M,CLR,M,M,M,M,M,M,M,M,M,M,M,M,M,M,44.6,K8A0 242055Z AUTO 00000KT 10SM CLR 07/M02 A3013 RMK AO2
8A0,1/24/16 21:15,44.6,30.2,56.74,220,3,0.0,30.13,M,10.0,M,CLR,M,M,M,M,M,M,M,M,M,M,M,M,M,M,43.09,K8A0 242115Z AUTO 22003KT 10SM CLR 07/M01 A3013 RMK AO2
8A0,1/24/16 21:35,44.6,28.4,52.72,210,3,0.0,30.12,M,10.0,M,CLR,M,M,M,M,M,M,M,M,M,M,M,M,M,M,43.09,K8A0 242135Z AUTO 21003KT 10SM CLR 07/M02 A3012 RMK AO2
8A0,1/24/16 21:55,44.6,28.4,52.72,220,4,0.0,30.12,M,10.0,M,CLR,M,M,M,M,M,M,M,M,M,M,M,M,M,M,42.13,K8A0 242155Z AUTO 22004KT 10SM CLR 07/M02 A3012 RMK AO2
8A0,1/24/16 22:15,44.6,28.4,52.72,0,0,0.0,30.13,M,10.0,M,CLR,M,M,M,M,M,M,M,M,M,M,M,M,M,M,44.6,K8A0 242215Z AUTO 00000KT 10SM CLR 07/M02 A3013 RMK AO2
8A0,1/24/16 22:35,44.6,28.4,52.72,260,3,0.0,30.13,M,10.0,M,CLR,M,M,M,M,M,M,M,M,M,M,M,M,M,M,43.09,K8A0 242235Z AUTO 26003KT 10SM CLR 07/M02 A3013 RMK AO2
8A0,1/24/16 22:55,42.8,28.4,56.48,0,0,0.0,30.12,M,10.0,M,CLR,M,M,M,M,M,M,M,M,M,M,M,M,M,M,42.8,K8A0 242255Z AUTO 00000KT 10SM CLR 06/M02 A3012 RMK AO2
8A0,1/24/16 23:15,42.8,28.4,56.48,0,0,0.0,30.13,M,10.0,M,CLR,M,M,M,M,M,M,M,M,M,M,M,M,M,M,42.8,K8A0 242315Z AUTO 00000KT 10SM CLR 06/M02 A3013 RMK AO2
8A0,1/24/16 23:35,41.0,26.6,56.22,0,0,0.0,30.12,M,10.0,M,CLR,M,M,M,M,M,M,M,M,M,M,M,M,M,M,41.0,K8A0 242335Z AUTO 00000KT 10SM CLR 05/M03 A3012 RMK AO2
8A0,1/24/16 23:55,37.4,28.4,69.67,0,0,0.0,30.12,M,10.0,M,CLR,M,M,M,M,M,M,M,M,M,M,M,M,M,M,37.4,K8A0 242355Z AUTO 00000KT 10SM CLR 03/M02 A3012 RMK AO2
8A0,1/25/16 0:15,37.4,26.6,64.7,130,5,0.0,30.12,M,10.0,M,SCT,M,M,M,11000,M,M,M,M,M,M,M,M,M,M,32.81,K8A0 250015Z AUTO 13005KT 10SM SCT110 03/M03 A3012 RMK AO2
8A0,1/25/16 0:35,37.4,28.4,69.67,140,5,0.0,30.12,M,10.0,M,SCT,M,M,M,11000,M,M,M,M,M,M,M,M,M,M,32.81,K8A0 250035Z AUTO 14005KT 10SM SCT110 03/M02 A3012 RMK AO2
8A0,1/25/16 0:55,37.4,28.4,69.67,150,4,0.0,30.12,M,10.0,M,CLR,M,M,M,M,M,M,M,M,M,M,M,M,M,M,33.73,K8A0 250055Z AUTO 15004KT 10SM CLR 03/M02 A3012 RMK AO2
8A0,1/25/16 1:15,37.4,28.4,69.67,150,5,0.0,30.12,M,10.0,M,CLR,M,M,M,M,M,M,M,M,M,M,M,M,M,M,32.81,K8A0 250115Z AUTO 15005KT 10SM CLR 03/M02 A3012 RMK AO2
8A0,1/25/16 1:35,35.6,28.4,74.8,150,5,0.0,30.12,M,10.0,M,CLR,M,M,M,M,M,M,M,M,M,M,M,M,M,M,30.67,K8A0 250135Z AUTO 15005KT 10SM CLR 02/M02 A3012 RMK AO2
8A0,1/25/16 1:55,35.6,28.4,74.8,140,6,0.0,30.11,M,10.0,M,CLR,M,M,M,M,M,M,M,M,M,M,M,M,M,M,29.87,K8A0 250155Z AUTO 14006KT 10SM CLR 02/M02 A3011 RMK AO2
8A0,1/25/16 2:15,35.6,28.4,74.8,150,4,0.0,30.12,M,10.0,M,CLR,M,M,M,M,M,M,M,M,M,M,M,M,M,M,31.62,K8A0 250215Z AUTO 15004KT 10SM CLR 02/M02 A3012 RMK AO2
8A0,1/25/16 2:35,35.6,28.4,74.8,150,5,0.0,30.12,M,10.0,M,CLR,M,M,M,M,M,M,M,M,M,M,M,M,M,M,30.67,K8A0 250235Z AUTO 15005KT 10SM CLR 02/M02 A3012 RMK AO2
8A0,1/25/16 2:55,37.4,28.4,69.67,160,4,0.0,30.12,M,10.0,M,CLR,M,M,M,M,M,M,M,M,M,M,M,M,M,M,33.73,K8A0 250255Z AUTO 16004KT 10SM CLR 03/M02 A3012 RMK AO2
8A0,1/25/16 3:15,35.6,28.4,74.8,150,5,0.0,30.12,M,10.0,M,CLR,M,M,M,M,M,M,M,M,M,M,M,M,M,M,30.67,K8A0 250315Z AUTO 15005KT 10SM CLR 02/M02 A3012 RMK AO2
8A0,1/25/16 3:35,35.6,28.4,74.8,140,4,0.0,30.11,M,10.0,M,CLR,M,M,M,M,M,M,M,M,M,M,M,M,M,M,31.62,K8A0 250335Z AUTO 14004KT 10SM CLR 02/M02 A3011 RMK AO2
8A0,1/25/16 3:55,35.6,28.4,74.8,140,3,0.0,30.11,M,10.0,M,CLR,M,M,M,M,M,M,M,M,M,M,M,M,M,M,32.8,K8A0 250355Z AUTO 14003KT 10SM CLR 02/M02 A3011 RMK AO2
8A0,1/25/16 4:15,35.6,28.4,74.8,140,3,0.0,30.11,M,10.0,M,CLR,M,M,M,M,M,M,M,M,M,M,M,M,M,M,32.8,K8A0 250415Z AUTO 14003KT 10SM CLR 02/M02 A3011 RMK AO2
8A0,1/25/16 4:35,35.6,28.4,74.8,160,3,0.0,30.12,M,10.0,M,CLR,M,M,M,M,M,M,M,M,M,M,M,M,M,M,32.8,K8A0 250435Z AUTO 16003KT 10SM CLR 02/M02 A3012 RMK AO2
8A0,1/25/16 4:55,35.6,28.4,74.8,130,4,0.0,30.11,M,10.0,M,CLR,M,M,M,M,M,M,M,M,M,M,M,M,M,M,31.62,K8A0 250455Z AUTO 13004KT 10SM CLR 02/M02 A3011 RMK AO2
8A0,1/25/16 5:15,35.6,28.4,74.8,140,5,0.0,30.12,M,10.0,M,CLR,M,M,M,M,M,M,M,M,M,M,M,M,M,M,30.67,K8A0 250515Z AUTO 14005KT 10SM CLR 02/M02 A3012 RMK AO2
8A0,1/25/16 5:35,35.6,28.4,74.8,140,4,0.0,30.11,M,10.0,M,CLR,M,M,M,M,M,M,M,M,M,M,M,M,M,M,31.62,K8A0 250535Z AUTO 14004KT 10SM CLR 02/M02 A3011 RMK AO2
8A0,1/25/16 5:55,35.6,28.4,74.8,140,5,0.0,30.11,M,10.0,M,CLR,M,M,M,M,M,M,M,M,M,M,M,M,M,M,30.67,K8A0 250555Z AUTO 14005KT 10SM CLR 02/M02 A3011 RMK AO2
8A0,1/25/16 6:15,35.6,28.4,74.8,140,4,0.0,30.12,M,10.0,M,CLR,M,M,M,M,M,M,M,M,M,M,M,M,M,M,31.62,K8A0 250615Z AUTO 14004KT 10SM CLR 02/M02 A3012 RMK AO2
8A0,1/25/16 6:35,33.8,28.4,80.36,140,5,0.0,30.12,M,10.0,M,CLR,M,M,M,M,M,M,M,M,M,M,M,M,M,M,28.53,K8A0 250635Z AUTO 14005KT 10SM CLR 01/M02 A3012 RMK AO2
8A0,1/25/16 6:55,35.6,28.4,74.8,130,6,0.0,30.11,M,10.0,M,CLR,M,M,M,M,M,M,M,M,M,M,M,M,M,M,29.87,K8A0 250655Z AUTO 13006KT 10SM CLR 02/M02 A3011 RMK AO2
8A0,1/25/16 7:15,33.8,28.4,80.36,130,5,0.0,30.11,M,10.0,M,CLR,M,M,M,M,M,M,M,M,M,M,M,M,M,M,28.53,K8A0 250715Z AUTO 13005KT 10SM CLR 01/M02 A3011 RMK AO2
8A0,1/25/16 7:35,33.8,28.4,80.36,130,4,0.0,30.11,M,10.0,M,CLR,M,M,M,M,M,M,M,M,M,M,M,M,M,M,29.52,K8A0 250735Z AUTO 13004KT 10SM CLR 01/M02 A3011 RMK AO2
8A0,1/25/16 7:55,33.8,28.4,80.36,140,5,0.0,30.11,M,10.0,M,CLR,M,M,M,M,M,M,M,M,M,M,M,M,M,M,28.53,K8A0 250755Z AUTO 14005KT 10SM CLR 01/M02 A3011 RMK AO2
8A0,1/25/16 8:15,33.8,28.4,80.36,140,5,0.0,30.11,M,10.0,M,CLR,M,M,M,M,M,M,M,M,M,M,M,M,M,M,28.53,K8A0 250815Z AUTO 14005KT 10SM CLR 01/M02 A3011 RMK AO2
8A0,1/25/16 8:35,33.8,28.4,80.36,130,4,0.0,30.12,M,10.0,M,CLR,M,M,M,M,M,M,M,M,M,M,M,M,M,M,29.52,K8A0 250835Z AUTO 13004KT 10SM CLR 01/M02 A3012 RMK AO2
8A0,1/25/16 8:55,33.8,28.4,80.36,130,4,0.0,30.12,M,10.0,M,CLR,M,M,M,M,M,M,M,M,M,M,M,M,M,M,29.52,K8A0 250855Z AUTO 13004KT 10SM CLR 01/M02 A3012 RMK AO2
8A0,1/25/16 9:15,32.0,28.4,86.39,130,5,0.0,30.11,M,10.0,M,CLR,M,M,M,M,M,M,M,M,M,M,M,M,M,M,26.4,K8A0 250915Z AUTO 13005KT 10SM CLR 00/M02 A3011 RMK AO2
8A0,1/25/16 9:35,33.8,28.4,80.36,130,4,0.0,30.11,M,10.0,M,CLR,M,M,M,M,M,M,M,M,M,M,M,M,M,M,29.52,K8A0 250935Z AUTO 13004KT 10SM CLR 01/M02 A3011 RMK AO2
8A0,1/25/16 9:55,33.8,28.4,80.36,120,4,0.0,30.12,M,10.0,M,CLR,M,M,M,M,M,M,M,M,M,M,M,M,M,M,29.52,K8A0 250955Z AUTO 12004KT 10SM CLR 01/M02 A3012 RMK AO2
8A0,1/25/16 10:15,32.0,28.4,86.39,130,5,0.0,30.12,M,10.0,M,CLR,M,M,M,M,M,M,M,M,M,M,M,M,M,M,26.4,K8A0 251015Z AUTO 13005KT 10SM CLR 00/M02 A3012 RMK AO2
8A0,1/25/16 10:35,33.8,28.4,80.36,120,3,0.0,30.13,M,10.0,M,CLR,M,M,M,M,M,M,M,M,M,M,M,M,M,M,30.75,K8A0 251035Z AUTO 12003KT 10SM CLR 01/M02 A3013 RMK AO2
8A0,1/25/16 10:55,32.0,28.4,86.39,110,4,0.0,30.14,M,10.0,M,CLR,M,M,M,M,M,M,M,M,M,M,M,M,M,M,27.42,K8A0 251055Z AUTO 11004KT 10SM CLR 00/M02 A3014 RMK AO2
8A0,1/25/16 11:15,32.0,28.4,86.39,120,4,0.0,30.14,M,10.0,M,CLR,M,M,M,M,M,M,M,M,M,M,M,M,M,M,27.42,K8A0 251115Z AUTO 12004KT 10SM CLR 00/M02 A3014 RMK AO2
8A0,1/25/16 11:35,32.0,28.4,86.39,130,5,0.0,30.16,M,10.0,M,CLR,M,M,M,M,M,M,M,M,M,M,M,M,M,M,26.4,K8A0 251135Z AUTO 13005KT 10SM CLR 00/M02 A3016 RMK AO2
8A0,1/25/16 11:55,32.0,28.4,86.39,130,4,0.0,30.17,M,10.0,M,CLR,M,M,M,M,M,M,M,M,M,M,M,M,M,M,27.42,K8A0 251155Z AUTO 13004KT 10SM CLR 00/M02 A3017 RMK AO2
8A0,1/25/16 12:15,32.0,28.4,86.39,130,4,0.0,30.18,M,10.0,M,CLR,M,M,M,M,M,M,M,M,M,M,M,M,M,M,27.42,K8A0 251215Z AUTO 13004KT 10SM CLR 00/M02 A3018 RMK AO2
8A0,1/25/16 12:35,32.0,28.4,86.39,130,4,0.0,30.19,M,10.0,M,CLR,M,M,M,M,M,M,M,M,M,M,M,M,M,M,27.42,K8A0 251235Z AUTO 13004KT 10SM CLR 00/M02 A3019 RMK AO2
8A0,1/25/16 12:55,32.0,28.4,86.39,130,5,0.0,30.19,M,10.0,M,CLR,M,M,M,M,M,M,M,M,M,M,M,M,M,M,26.4,K8A0 251255Z AUTO 13005KT 10SM CLR 00/M02 A3019 RMK AO2
8A0,1/25/16 13:15,32.0,28.4,86.39,130,7,0.0,30.19,M,10.0,M,CLR,M,M,M,M,M,M,M,M,M,M,M,M,M,M,24.78,K8A0 251315Z AUTO 13007KT 10SM CLR 00/M02 A3019 RMK AO2
8A0,1/25/16 13:35,33.8,28.4,80.36,140,6,0.0,30.2,M,10.0,M,CLR,M,M,M,M,M,M,M,M,M,M,M,M,M,M,27.7,K8A0 251335Z AUTO 14006KT 10SM CLR 01/M02 A3020 RMK AO2
8A0,1/25/16 13:55,33.8,30.2,86.49,130,4,0.0,30.2,M,10.0,M,CLR,M,M,M,M,M,M,M,M,M,M,M,M,M,M,29.52,K8A0 251355Z AUTO 13004KT 10SM CLR 01/M01 A3020 RMK AO2
8A0,1/25/16 14:15,35.6,30.2,80.51,140,4,0.0,30.21,M,10.0,M,CLR,M,M,M,M,M,M,M,M,M,M,M,M,M,M,31.62,K8A0 251415Z AUTO 14004KT 10SM CLR 02/M01 A3021 RMK AO2
8A0,1/25/16 14:35,35.6,30.2,80.51,140,5,0.0,30.2,M,10.0,M,CLR,M,M,M,M,M,M,M,M,M,M,M,M,M,M,30.67,K8A0 251435Z AUTO 14005KT 10SM CLR 02/M01 A3020 RMK AO2
8A0,1/25/16 14:55,37.4,32.0,80.65,140,4,0.0,30.2,M,10.0,M,CLR,M,M,M,M,M,M,M,M,M,M,M,M,M,M,33.73,K8A0 251455Z AUTO 14004KT 10SM CLR 03/00 A3020 RMK AO2
8A0,1/25/16 15:15,41.0,32.0,70.08,160,5,0.0,30.2,M,10.0,M,CLR,M,M,M,M,M,M,M,M,M,M,M,M,M,M,37.08,K8A0 251515Z AUTO 16005KT 10SM CLR 05/00 A3020 RMK AO2
8A0,1/25/16 15:35,42.8,32.0,65.38,150,5,0.0,30.2,M,10.0,M,CLR,M,M,M,M,M,M,M,M,M,M,M,M,M,M,39.22,K8A0 251535Z AUTO 15005KT 10SM CLR 06/00 A3020 RMK AO2
8A0,1/25/16 15:55,42.8,32.0,65.38,170,4,0.0,30.2,M,10.0,M,CLR,M,M,M,M,M,M,M,M,M,M,M,M,M,M,40.03,K8A0 251555Z AUTO 17004KT 10SM CLR 06/00 A3020 RMK AO2
8A0,1/25/16 16:15,44.6,32.0,61.03,150,6,0.0,30.19,M,10.0,M,CLR,M,M,M,M,M,M,M,M,M,M,M,M,M,M,40.71,K8A0 251615Z AUTO 15006KT 10SM CLR 07/00 A3019 RMK AO2
8A0,1/25/16 16:35,44.6,32.0,61.03,150,7,0.0,30.19,M,10.0,M,CLR,M,M,M,M,M,M,M,M,M,M,M,M,M,M,40.14,K8A0 251635Z AUTO 15007KT 10SM CLR 07/00 A3019 RMK AO2
8A0,1/25/16 16:55,46.4,32.0,57.0,170,6,0.0,30.2,M,10.0,M,CLR,M,M,M,M,M,M,M,M,M,M,M,M,M,M,42.87,K8A0 251655Z AUTO 17006KT 10SM CLR 08/00 A3020 RMK AO2
8A0,1/25/16 17:15,46.4,33.8,61.28,170,7,0.0,30.19,M,10.0,M,CLR,M,M,M,M,M,M,M,M,M,M,M,M,M,M,42.33,K8A0 251715Z AUTO 17007KT 10SM CLR 08/01 A3019 RMK AO2
8A0,1/25/16 17:35,46.4,35.6,65.83,190,8,0.0,30.19,M,10.0,M,CLR,M,M,M,M,M,M,M,M,M,M,M,M,M,M,41.85,K8A0 251735Z AUTO 19008KT 10SM CLR 08/02 A3019 RMK AO2
8A0,1/25/16 17:55,48.2,35.6,61.52,180,8,0.0,30.18,M,10.0,M,BKN,M,M,M,4300,M,M,M,M,M,M,M,M,M,M,44.07,K8A0 251755Z AUTO 18008KT 149V209 10SM BKN043 09/02 A3018 RMK AO2
8A0,1/25/16 18:15,48.2,35.6,61.52,160,6,0.0,30.17,M,10.0,M,OVC,M,M,M,4300,M,M,M,M,M,M,M,M,M,M,45.04,K8A0 251815Z AUTO 16006KT 10SM OVC043 09/02 A3017 RMK AO2
8A0,1/25/16 18:35,50.0,37.4,61.76,150,8,0.0,30.16,M,10.0,M,OVC,M,M,M,4300,M,M,M,M,M,M,M,M,M,M,46.29,K8A0 251835Z AUTO 15008KT 10SM OVC043 10/03 A3016 RMK AO2
8A0,1/25/16 18:55,50.0,37.4,61.76,150,7,0.0,30.14,M,10.0,M,SCT,M,M,M,4300,M,M,M,M,M,M,M,M,M,M,46.72,K8A0 251855Z AUTO 15007KT 10SM SCT043 10/03 A3014 RMK AO2
8A0,1/25/16 19:15,51.8,41.0,66.48,140,8,0.0,30.13,M,10.0,M,CLR,M,M,M,M,M,M,M,M,M,M,M,M,M,M,51.8,K8A0 251915Z AUTO 14008KT 10SM CLR 11/05 A3013 RMK AO2
8A0,1/25/16 19:35,51.8,42.8,71.26,150,9,0.0,30.13,M,10.0,14,CLR,M,M,M,M,M,M,M,M,M,M,M,M,M,M,51.8,K8A0 251935Z AUTO 15009G14KT 10SM CLR 11/06 A3013 RMK AO2
8A0,1/25/16 19:55,53.6,44.6,71.45,160,8,0.0,30.12,M,10.0,M,CLR,M,M,M,M,M,M,M,M,M,M,M,M,M,M,53.6,K8A0 251955Z AUTO 16008KT 109V189 10SM CLR 12/07 A3012 RMK AO2
8A0,1/25/16 20:15,55.4,44.6,66.91,170,10,0.0,30.11,M,10.0,16,CLR,M,M,M,M,M,M,M,M,M,M,M,M,M,M,55.4,K8A0 252015Z AUTO 17010G16KT 10SM CLR 13/07 A3011 RMK AO2
8A0,1/25/16 20:35,55.4,44.6,66.91,160,9,0.0,30.11,M,10.0,M,CLR,M,M,M,M,M,M,M,M,M,M,M,M,M,M,55.4,K8A0 252035Z AUTO 16009KT 10SM CLR 13/07 A3011 RMK AO2
8A0,1/25/16 20:55,55.4,46.4,71.64,160,10,0.0,30.1,M,10.0,15,CLR,M,M,M,M,M,M,M,M,M,M,M,M,M,M,55.4,K8A0 252055Z AUTO 16010G15KT 10SM CLR 13/08 A3010 RMK AO2
8A0,1/25/16 21:15,55.4,46.4,71.64,150,10,0.0,30.1,M,10.0,17,CLR,M,M,M,M,M,M,M,M,M,M,M,M,M,M,55.4,K8A0 252115Z AUTO 15010G17KT 10SM CLR 13/08 A3010 RMK AO2
8A0,1/25/16 21:35,55.4,46.4,71.64,170,10,0.0,30.1,M,10.0,15,CLR,M,M,M,M,M,M,M,M,M,M,M,M,M,M,55.4,K8A0 252135Z AUTO 17010G15KT 10SM CLR 13/08 A3010 RMK AO2
8A0,1/25/16 21:55,55.4,46.4,71.64,160,10,0.0,30.1,M,10.0,15,CLR,M,M,M,M,M,M,M,M,M,M,M,M,M,M,55.4,K8A0 252155Z AUTO 16010G15KT 10SM CLR 13/08 A3010 RMK AO2
8A0,1/25/16 22:15,55.4,44.6,66.91,170,8,0.0,30.1,M,10.0,15,CLR,M,M,M,M,M,M,M,M,M,M,M,M,M,M,55.4,K8A0 252215Z AUTO 17008G15KT 10SM CLR 13/07 A3010 RMK AO2
8A0,1/25/16 22:35,55.4,44.6,66.91,160,7,0.0,30.09,M,10.0,M,CLR,M,M,M,M,M,M,M,M,M,M,M,M,M,M,55.4,K8A0 252235Z AUTO 16007KT 10SM CLR 13/07 A3009 RMK AO2
8A0,1/25/16 22:55,53.6,44.6,71.45,160,5,0.0,30.09,M,10.0,M,BKN,M,M,M,5500,M,M,M,M,M,M,M,M,M,M,53.6,K8A0 252255Z AUTO 16005KT 10SM BKN055 12/07 A3009 RMK AO2
8A0,1/25/16 23:15,53.6,44.6,71.45,160,4,0.0,30.1,M,10.0,M,OVC,M,M,M,5500,M,M,M,M,M,M,M,M,M,M,53.6,K8A0 252315Z AUTO 16004KT 10SM OVC055 12/07 A3010 RMK AO2
8A0,1/25/16 23:35,53.6,44.6,71.45,160,5,0.0,30.1,M,10.0,M,OVC,M,M,M,5500,M,M,M,M,M,M,M,M,M,M,53.6,K8A0 252335Z AUTO 16005KT 10SM OVC055 12/07 A3010 RMK AO2
8A0,1/25/16 23:55,53.6,46.4,76.5,160,5,0.0,30.11,M,10.0,M,OVC,M,M,M,5500,M,M,M,M,M,M,M,M,M,M,53.6,K8A0 252355Z AUTO 16005KT 10SM OVC055 12/08 A3011 RMK AO2
8A0,1/26/16 0:15,53.6,46.4,76.5,150,6,0.0,30.11,M,10.0,M,OVC,M,M,M,5000,M,M,M,M,M,M,M,M,M,M,53.6,K8A0 260015Z AUTO 15006KT 10SM OVC050 12/08 A3011 RMK AO2
8A0,1/26/16 0:35,53.6,46.4,76.5,150,5,0.0,30.11,M,10.0,M,OVC,M,M,M,5000,M,M,M,M,M,M,M,M,M,M,53.6,K8A0 260035Z AUTO 15005KT 10SM OVC050 12/08 A3011 RMK AO2
8A0,1/26/16 0:55,53.6,46.4,76.5,170,5,0.0,30.12,M,10.0,M,BKN,OVC,M,M,5000,5500,M,M,M,M,M,M,M,M,M,53.6,K8A0 260055Z AUTO 17005KT 10SM BKN050 OVC055 12/08 A3012 RMK AO2
8A0,1/26/16 1:15,53.6,46.4,76.5,160,4,0.0,30.12,M,10.0,M,SCT,OVC,M,M,4500,6000,M,M,M,M,M,M,M,M,M,53.6,K8A0 260115Z AUTO 16004KT 10SM SCT045 OVC060 12/08 A3012 RMK AO2
8A0,1/26/16 1:35,53.6,46.4,76.5,150,6,0.0,30.12,M,10.0,M,SCT,OVC,M,M,4400,5000,M,M,M,M,M,M,M,M,M,53.6,K8A0 260135Z AUTO 15006KT 10SM SCT044 OVC050 12/08 A3012 RMK AO2
8A0,1/26/16 1:55,51.8,46.4,81.74,150,5,0.0,30.12,M,10.0,M,SCT,M,M,M,5000,M,M,M,M,M,M,M,M,M,M,51.8,K8A0 260155Z AUTO 15005KT 10SM SCT050 11/08 A3012 RMK AO2
8A0,1/26/16 2:15,51.8,44.6,76.34,150,5,0.0,30.12,M,10.0,M,CLR,M,M,M,M,M,M,M,M,M,M,M,M,M,M,51.8,K8A0 260215Z AUTO 15005KT 10SM CLR 11/07 A3012 RMK AO2
8A0,1/26/16 2:35,51.8,44.6,76.34,160,6,0.0,30.13,M,10.0,M,BKN,M,M,M,5000,M,M,M,M,M,M,M,M,M,M,51.8,K8A0 260235Z AUTO 16006KT 10SM BKN050 11/07 A3013 RMK AO2
8A0,1/26/16 2:55,51.8,44.6,76.34,160,6,0.0,30.13,M,10.0,M,OVC,M,M,M,4800,M,M,M,M,M,M,M,M,M,M,51.8,K8A0 260255Z AUTO 16006KT 10SM OVC048 11/07 A3013 RMK AO2
8A0,1/26/16 3:15,51.8,46.4,81.74,160,6,0.0,30.13,M,10.0,M,SCT,BKN,M,M,4500,5500,M,M,M,M,M,M,M,M,M,51.8,K8A0 260315Z AUTO 16006KT 10SM SCT045 BKN055 11/08 A3013 RMK AO2
8A0,1/26/16 3:35,51.8,46.4,81.74,160,6,0.0,30.13,M,10.0,M,SCT,BKN,BKN,M,4500,5500,7500,M,M,M,M,M,M,M,M,51.8,K8A0 260335Z AUTO 16006KT 10SM SCT045 BKN055 BKN075 11/08 A3013 RMK AO2
8A0,1/26/16 3:55,51.8,48.2,87.47,170,9,0.0,30.13,M,10.0,14,SCT,OVC,M,M,4700,5000,M,M,M,M,M,M,M,M,M,51.8,K8A0 260355Z AUTO 17009G14KT 139V199 10SM SCT047 OVC050 11/09 A3013 RMK AO2
8A0,1/26/16 4:15,51.8,48.2,87.47,170,11,0.0,30.12,M,10.0,19,BKN,BKN,OVC,M,5000,6000,8000,M,M,M,M,M,M,M,M,51.8,K8A0 260415Z AUTO 17011G19KT 10SM BKN050 BKN060 OVC080 11/09 A3012 RMK AO2
8A0,1/26/16 4:35,51.8,48.2,87.47,170,9,0.0,30.12,M,10.0,14,BKN,M,M,M,8000,M,M,M,M,M,M,M,M,M,M,51.8,K8A0 260435Z AUTO 17009G14KT 10SM BKN080 11/09 A3012 RMK AO2
8A0,1/26/16 4:55,51.8,48.2,87.47,170,9,0.0,30.12,M,10.0,14,SCT,BKN,M,M,4700,8000,M,M,M,M,M,M,M,M,M,51.8,K8A0 260455Z AUTO 17009G14KT 10SM SCT047 BKN080 11/09 A3012 RMK AO2
8A0,1/26/16 5:15,51.8,50.0,93.55,170,7,0.0,30.12,M,10.0,M,SCT,OVC,M,M,4700,5500,M,M,M,M,M,M,M,M,M,51.8,K8A0 260515Z AUTO 17007KT 10SM SCT047 OVC055 11/10 A3012 RMK AO2
8A0,1/26/16 5:35,51.8,50.0,93.55,180,7,0.0,30.13,M,10.0,M,BKN,OVC,M,M,4500,4900,M,M,M,M,M,M,M,M,M,51.8,K8A0 260535Z AUTO 18007KT 10SM BKN045 OVC049 11/10 A3013 RMK AO2
8A0,1/26/16 5:55,51.8,50.0,93.55,180,6,0.0,30.13,M,10.0,M,BKN,OVC,M,M,4500,5500,M,M,M,M,M,M,M,M,M,51.8,K8A0 260555Z AUTO 18006KT 10SM BKN045 OVC055 11/10 A3013 RMK AO2
8A0,1/26/16 6:15,51.8,50.0,93.55,170,4,0.0,30.13,M,10.0,M,BKN,OVC,M,M,4300,5000,M,M,M,M,M,M,M,M,M,51.8,K8A0 260615Z AUTO 17004KT 10SM BKN043 OVC050 11/10 A3013 RMK AO2
8A0,1/26/16 6:35,51.8,50.0,93.55,170,6,0.0,30.12,M,10.0,M,BKN,OVC,M,M,4500,5000,M,M,M,M,M,M,M,M,M,51.8,K8A0 260635Z AUTO 17006KT 10SM BKN045 OVC050 11/10 A3012 RMK AO2
8A0,1/26/16 6:55,50.0,48.2,93.5,160,4,0.0,30.11,M,10.0,M,SCT,BKN,OVC,M,2900,4700,8000,M,M,M,M,M,M,M,M,48.44,K8A0 260655Z AUTO 16004KT 10SM SCT029 BKN047 OVC080 10/09 A3011 RMK AO2
8A0,1/26/16 7:15,51.8,50.0,93.55,170,7,0.0,30.11,M,10.0,M,BKN,BKN,OVC,M,2900,4100,8000,M,M,M,M,M,M,M,M,51.8,K8A0 260715Z AUTO 17007KT 149V209 10SM BKN029 BKN041 OVC080 11/10 A3011 RMK AO2
8A0,1/26/16 7:35,51.8,50.0,93.55,180,5,0.0,30.11,M,10.0,M,SCT,BKN,OVC,M,2900,4800,8500,M,M,M,M,M,M,M,M,51.8,K8A0 260735Z AUTO 18005KT 10SM SCT029 BKN048 OVC085 11/10 A3011 RMK AO2
8A0,1/26/16 7:55,51.8,50.0,93.55,190,8,0.0,30.11,M,10.0,M,BKN,BKN,OVC,M,4000,5000,6500,M,M,M,M,M,M,M,M,51.8,K8A0 260755Z AUTO 19008KT 10SM BKN040 BKN050 OVC065 11/10 A3011 RMK AO2
8A0,1/26/16 8:15,51.8,50.0,93.55,180,9,0.0,30.1,M,10.0,M,SCT,BKN,OVC,M,4000,4800,8500,M,M,M,M,M,M,M,M,51.8,K8A0 260815Z AUTO 18009KT 10SM SCT040 BKN048 OVC085 11/10 A3010 RMK AO2
8A0,1/26/16 8:35,51.8,50.0,93.55,170,10,0.0,30.11,M,10.0,15,BKN,BKN,OVC,M,4100,5000,8500,M,M,M,M,M,M,M,M,51.8,K8A0 260835Z AUTO 17010G15KT 10SM BKN041 BKN050 OVC085 11/10 A3011 RMK AO2
8A0,1/26/16 8:55,51.8,50.0,93.55,190,6,0.0,30.11,M,10.0,M,OVC,M,M,M,4100,M,M,M,M,M,M,M,M,M,M,51.8,K8A0 260855Z AUTO 19006KT 10SM OVC041 11/10 A3011 RMK AO2
8A0,1/26/16 9:15,51.8,50.0,93.55,180,9,0.0,30.1,M,10.0,14,OVC,M,M,M,4100,M,M,M,M,M,M,M,M,M,M,51.8,K8A0 260915Z AUTO 18009G14KT 10SM OVC041 11/10 A3010 RMK AO2
8A0,1/26/16 9:35,51.8,50.0,93.55,180,8,0.0,30.09,M,10.0,14,BKN,OVC,M,M,4100,9000,M,M,M,M,M,M,M,M,M,51.8,K8A0 260935Z AUTO 18008G14KT 10SM BKN041 OVC090 11/10 A3009 RMK AO2
8A0,1/26/16 9:55,51.8,50.0,93.55,190,7,0.0,30.09,M,10.0,M,SCT,OVC,M,M,3900,9000,M,M,M,M,M,M,M,M,M,51.8,K8A0 260955Z AUTO 19007KT 10SM SCT039 OVC090 11/10 A3009 RMK AO2
8A0,1/26/16 10:15,51.8,50.0,93.55,180,7,0.0,30.09,M,10.0,M,BKN,OVC,M,M,3900,9000,M,M,M,M,M,M,M,M,M,51.8,K8A0 261015Z AUTO 18007KT 10SM BKN039 OVC090 11/10 A3009 RMK AO2
8A0,1/26/16 10:35,51.8,50.0,93.55,170,9,0.0,30.09,M,10.0,M,SCT,SCT,OVC,M,3900,4500,4900,M,M,M,M,M,M,M,M,51.8,K8A0 261035Z AUTO 17009KT 10SM SCT039 SCT045 OVC049 11/10 A3009 RMK AO2
8A0,1/26/16 10:55,51.8,50.0,93.55,170,7,0.0,30.09,M,10.0,M,SCT,SCT,BKN,M,4200,5500,6500,M,M,M,M,M,M,M,M,51.8,K8A0 261055Z AUTO 17007KT 10SM SCT042 SCT055 BKN065 11/10 A3009 RMK AO2
8A0,1/26/16 11:15,51.8,50.0,93.55,170,8,0.0,30.09,M,10.0,M,SCT,SCT,OVC,M,4000,4700,9000,M,M,M,M,M,M,M,M,51.8,K8A0 261115Z AUTO 17008KT 10SM SCT040 SCT047 OVC090 11/10 A3009 RMK AO2
8A0,1/26/16 11:35,51.8,50.0,93.55,170,7,0.0,30.09,M,10.0,M,BKN,BKN,OVC,M,4000,4900,9000,M,M,M,M,M,M,M,M,51.8,K8A0 261135Z AUTO 17007KT 10SM BKN040 BKN049 OVC090 11/10 A3009 RMK AO2
8A0,1/26/16 11:55,51.8,50.0,93.55,180,6,0.0,30.09,M,10.0,M,BKN,BKN,OVC,M,4200,4900,7000,M,M,M,M,M,M,M,M,51.8,K8A0 261155Z AUTO 18006KT 10SM BKN042 BKN049 OVC070 11/10 A3009 RMK AO2
8A0,1/26/16 12:15,51.8,50.0,93.55,190,7,0.0,30.1,M,10.0,M,BKN,OVC,M,M,4300,4900,M,M,M,M,M,M,M,M,M,51.8,K8A0 261215Z AUTO 19007KT 10SM BKN043 OVC049 11/10 A3010 RMK AO2
8A0,1/26/16 12:35,51.8,50.0,93.55,170,7,0.0,30.1,M,10.0,M,SCT,OVC,M,M,4400,4900,M,M,M,M,M,M,M,M,M,51.8,K8A0 261235Z AUTO 17007KT 10SM SCT044 OVC049 11/10 A3010 RMK AO2
8A0,1/26/16 12:55,51.8,50.0,93.55,180,6,0.0,30.1,M,10.0,M,SCT,OVC,M,M,5000,6500,M,M,M,M,M,M,M,M,M,51.8,K8A0 261255Z AUTO 18006KT 10SM SCT050 OVC065 11/10 A3010 RMK AO2
8A0,1/26/16 13:15,51.8,50.0,93.55,200,7,0.0,30.11,M,10.0,M,SCT,BKN,OVC,M,1700,4900,7000,M,M,M,M,M,M,M,M,51.8,K8A0 261315Z AUTO 20007KT 10SM SCT017 BKN049 OVC070 11/10 A3011 RMK AO2
8A0,1/26/16 13:35,51.8,51.8,100.0,180,10,0.0,30.11,M,10.0,14,SCT,BKN,OVC,M,1700,3300,4900,M,M,M,M,M,M,M,M,51.8,K8A0 261335Z AUTO 18010G14KT 10SM SCT017 BKN033 OVC049 11/11 A3011 RMK AO2
8A0,1/26/16 13:55,51.8,51.8,100.0,180,7,0.0,30.11,M,7.0,M,BKN,BKN,OVC,M,1700,3100,5500,M,RA,M,M,M,M,M,M,51.8,K8A0 261355Z AUTO 18007KT 7SM RA BKN017 BKN031 OVC055 11/11 A3011 RMK AO2
8A0,1/26/16 14:15,51.8,51.8,100.0,180,8,0.0,30.11,M,10.0,M,OVC,M,M,M,1500,M,M,M,M,M,M,M,M,M,M,51.8,K8A0 261415Z AUTO 18008KT 10SM OVC015 11/11 A3011 RMK AO2
8A0,1/26/16 14:35,51.8,51.8,100.0,180,8,0.0,30.12,M,10.0,M,OVC,M,M,M,1500,M,M,M,M,M,M,M,M,M,M,51.8,K8A0 261435Z AUTO 18008KT 10SM OVC015 11/11 A3012 RMK AO2
8A0,1/26/16 14:55,51.8,51.8,100.0,170,7,0.0,30.12,M,10.0,M,BKN,OVC,M,M,1500,2700,M,M,M,M,M,M,M,M,M,51.8,K8A0 261455Z AUTO 17007KT 10SM BKN015 OVC027 11/11 A3012 RMK AO2
8A0,1/26/16 15:15,53.6,51.8,93.6,170,9,0.0,30.12,M,10.0,16,SCT,BKN,OVC,M,1500,2500,5500,M,M,M,M,M,M,M,M,53.6,K8A0 261515Z AUTO 17009G16KT 10SM SCT015 BKN025 OVC055 12/11 A3012 RMK AO2
8A0,1/26/16 15:35,53.6,51.8,93.6,180,9,0.0,30.12,M,10.0,M,BKN,BKN,OVC,M,1700,2300,5500,M,M,M,M,M,M,M,M,53.6,K8A0 261535Z AUTO 18009KT 10SM BKN017 BKN023 OVC055 12/11 A3012 RMK AO2
8A0,1/26/16 15:55,53.6,53.6,100.0,210,8,0.0,30.12,M,10.0,M,OVC,M,M,M,1500,M,M,M,M,M,M,M,M,M,M,53.6,K8A0 261555Z AUTO 21008KT 10SM OVC015 12/12 A3012 RMK AO2
8A0,1/26/16 16:15,53.6,53.6,100.0,250,6,0.0,30.14,M,10.0,M,OVC,M,M,M,1500,M,M,M,M,M,M,M,M,M,M,53.6,K8A0 261615Z AUTO 25006KT 10SM OVC015 12/12 A3014 RMK AO2
8A0,1/26/16 16:35,53.6,53.6,100.0,250,5,0.0,30.13,M,10.0,M,OVC,M,M,M,1500,M,M,M,M,M,M,M,M,M,M,53.6,K8A0 261635Z AUTO 25005KT 10SM OVC015 12/12 A3013 RMK AO2
8A0,1/26/16 16:55,53.6,53.6,100.0,320,3,0.0,30.13,M,10.0,M,OVC,M,M,M,1500,M,M,M,#NAME?,M,M,M,M,M,M,53.6,K8A0 261655Z AUTO 32003KT 10SM -RA OVC015 12/12 A3013 RMK AO2
8A0,1/26/16 17:15,51.8,51.8,100.0,330,6,0.06,30.14,M,3.0,M,OVC,M,M,M,1300,M,M,M,#NAME?,M,M,M,M,M,M,51.8,K8A0 261715Z AUTO 33006KT 3SM +RA OVC013 11/11 A3014 RMK AO2 P0006
8A0,1/26/16 17:35,50.0,50.0,100.0,0,0,0.16,30.13,M,2.0,M,SCT,BKN,OVC,M,800,1300,3700,M,#NAME?,M,M,M,M,M,M,50.0,K8A0 261735Z AUTO 00000KT 2SM +RA SCT008 BKN013 OVC037 10/10 A3013 RMK AO2 P0016
8A0,1/26/16 17:55,51.8,51.8,100.0,0,0,0.23,30.12,M,1.5,M,SCT,BKN,OVC,M,2100,3800,5000,M,RA,M,M,M,M,M,M,51.8,K8A0 261755Z AUTO 00000KT 1 1/2SM RA SCT021 BKN038 OVC050 11/11 A3012 RMK AO2 P0023
8A0,1/26/16 18:15,51.8,51.8,100.0,150,3,0.05,30.11,M,1.0,M,BKN,OVC,M,M,2100,3100,M,M,RA,M,M,M,M,M,M,51.8,K8A0 261815Z AUTO 15003KT 1SM RA BKN021 OVC031 11/11 A3011 RMK AO2 P0005
8A0,1/26/16 18:35,51.8,51.8,100.0,160,3,0.09,30.11,M,1.75,M,SCT,BKN,OVC,M,2300,3200,5000,M,#NAME?,M,M,M,M,M,M,51.8,K8A0 261835Z AUTO 16003KT 1 3/4SM -RA SCT023 BKN032 OVC050 11/11 A3011 RMK AO2 P0009
8A0,1/26/16 18:55,51.8,51.8,100.0,0,0,0.1,30.1,M,3.0,M,SCT,SCT,OVC,M,600,3200,6500,M,#NAME?,M,M,M,M,M,M,51.8,K8A0 261855Z AUTO 00000KT 3SM -RA SCT006 SCT032 OVC065 11/11 A3010 RMK AO2 P0010
8A0,1/26/16 19:15,51.8,51.8,100.0,0,0,0.01,30.1,M,4.0,M,BKN,BKN,OVC,M,200,3800,6500,M,#NAME?,M,M,M,M,M,M,51.8,K8A0 261915Z AUTO 00000KT 4SM -RA BKN002 BKN038 OVC065 11/11 A3010 RMK AO2 P0001
8A0,1/26/16 19:35,51.8,51.8,100.0,0,0,0.02,30.09,M,3.0,M,BKN,OVC,M,M,200,6000,M,M,RA,M,M,M,M,M,M,51.8,K8A0 261935Z AUTO 00000KT 3SM RA BKN002 OVC060 11/11 A3009 RMK AO2 P0002
8A0,1/26/16 19:55,51.8,51.8,100.0,0,0,0.04,30.09,M,4.0,M,SCT,SCT,OVC,M,400,2100,6000,M,RA,M,M,M,M,M,M,51.8,K8A0 261955Z AUTO 00000KT 4SM RA SCT004 SCT021 OVC060 11/11 A3009 RMK AO2 P0004
8A0,1/26/16 20:15,51.8,51.8,100.0,0,0,0.0,30.08,M,3.0,M,SCT,BKN,OVC,M,300,3700,6000,M,#NAME?,M,M,M,M,M,M,51.8,K8A0 262015Z AUTO 00000KT 3SM -RA SCT003 BKN037 OVC060 11/11 A3008 RMK AO2
8A0,1/26/16 20:35,51.8,51.8,100.0,130,4,0.0,30.08,M,2.0,M,BKN,OVC,M,M,300,2300,M,M,#NAME?,M,M,M,M,M,M,51.8,K8A0 262035Z AUTO 13004KT 2SM -RA BKN003 OVC023 11/11 A3008 RMK AO2
8A0,1/26/16 20:55,51.8,51.8,100.0,0,0,0.01,30.08,M,2.5,M,BKN,BKN,OVC,M,300,3700,4400,M,#NAME?,M,M,M,M,M,M,51.8,K8A0 262055Z AUTO 00000KT 2 1/2SM -RA BKN003 BKN037 OVC044 11/11 A3008 RMK AO2 P0001
8A0,1/26/16 21:15,51.8,51.8,100.0,200,3,0.01,30.09,M,2.5,M,SCT,BKN,OVC,M,300,4600,6500,M,RA,M,M,M,M,M,M,51.8,K8A0 262115Z AUTO 20003KT 2 1/2SM RA SCT003 BKN046 OVC065 11/11 A3009 RMK AO2 P0001
8A0,1/26/16 21:35,51.8,51.8,100.0,0,0,0.04,30.09,M,3.0,M,SCT,BKN,OVC,M,100,5000,6500,M,RA,M,M,M,M,M,M,51.8,K8A0 262135Z AUTO 00000KT 3SM RA SCT001 BKN050 OVC065 11/11 A3009 RMK AO2 P0004
8A0,1/26/16 21:55,51.8,51.8,100.0,0,0,0.06,30.09,M,1.0,M,SCT,SCT,OVC,M,2000,3900,5500,M,#NAME?,M,M,M,M,M,M,51.8,K8A0 262155Z AUTO 00000KT 1SM -RA SCT020 SCT039 OVC055 11/11 A3009 RMK AO2 VIS 3/4V1 3/4 P0006
8A0,1/26/16 22:15,51.8,51.8,100.0,150,3,0.01,30.1,M,1.25,M,SCT,SCT,OVC,M,1300,3600,5500,M,#NAME?,M,M,M,M,M,M,51.8,K8A0 262215Z AUTO 15003KT 1 1/4SM -RA SCT013 SCT036 OVC055 11/11 A3010 RMK AO2 P0001
8A0,1/26/16 22:35,51.8,51.8,100.0,0,0,0.03,30.09,M,2.5,M,SCT,SCT,OVC,M,3300,4100,5500,M,#NAME?,M,M,M,M,M,M,51.8,K8A0 262235Z AUTO 00000KT 2 1/2SM -RA SCT033 SCT041 OVC055 11/11 A3009 RMK AO2 P0003
8A0,1/26/16 22:55,51.8,51.8,100.0,0,0,0.04,30.1,M,2.5,M,SCT,BKN,OVC,M,100,3600,6500,M,#NAME?,M,M,M,M,M,M,51.8,K8A0 262255Z AUTO 00000KT 2 1/2SM -RA SCT001 BKN036 OVC065 11/11 A3010 RMK AO2 P0004
8A0,1/26/16 23:15,51.8,51.8,100.0,160,3,0.01,30.11,M,2.5,M,SCT,BKN,OVC,M,3100,5000,6500,M,RA,M,M,M,M,M,M,51.8,K8A0 262315Z AUTO 16003KT 2 1/2SM RA SCT031 BKN050 OVC065 11/11 A3011 RMK AO2 P0001
8A0,1/26/16 23:35,51.8,51.8,100.0,0,0,0.03,30.11,M,2.5,M,BKN,BKN,OVC,M,200,2500,6000,M,RA,M,M,M,M,M,M,51.8,K8A0 262335Z AUTO 00000KT 2 1/2SM RA BKN002 BKN025 OVC060 11/11 A3011 RMK AO2 P0003
8A0,1/26/16 23:55,51.8,51.8,100.0,0,0,0.05,30.11,M,2.5,M,BKN,OVC,M,M,200,1300,M,M,RA,M,M,M,M,M,M,51.8,K8A0 262355Z AUTO 00000KT 2 1/2SM RA BKN002 OVC013 11/11 A3011 RMK AO2 P0005
8A0,1/27/16 0:15,48.2,48.2,100.0,0,0,0.02,30.1,M,5.0,M,BKN,BKN,OVC,M,200,1200,1700,M,RA,M,M,M,M,M,M,48.2,K8A0 270015Z AUTO 00000KT 5SM RA BKN002 BKN012 OVC017 09/09 A3010 RMK AO2 P0002
8A0,1/27/16 0:35,46.4,46.4,100.0,360,8,0.04,30.1,M,7.0,M,OVC,M,M,M,400,M,M,M,#NAME?,M,M,M,M,M,M,41.85,K8A0 270035Z AUTO 36008KT 7SM -RA OVC004 08/08 A3010 RMK AO2 P0004
8A0,1/27/16 0:55,44.6,44.6,100.0,340,9,0.06,30.11,M,10.0,M,OVC,M,M,M,400,M,M,M,RA,M,M,M,M,M,M,39.18,K8A0 270055Z AUTO 34009KT 10SM RA OVC004 07/07 A3011 RMK AO2 P0006
8A0,1/27/16 1:15,44.6,44.6,100.0,340,12,0.03,30.12,M,7.0,M,OVC,M,M,M,400,M,M,M,RA,M,M,M,M,M,M,38.04,K8A0 270115Z AUTO 34012KT 7SM RA OVC004 07/07 A3012 RMK AO2 P0003
8A0,1/27/16 1:35,42.8,42.8,100.0,10,6,0.05,30.11,M,10.0,M,SCT,SCT,OVC,M,400,1000,1700,M,#NAME?,M,M,M,M,M,M,38.54,K8A0 270135Z AUTO 01006KT 10SM -RA SCT004 SCT010 OVC017 06/06 A3011 RMK AO2 P0005
8A0,1/27/16 1:55,42.8,42.8,100.0,360,7,0.05,30.11,M,5.0,M,BKN,OVC,M,M,400,1700,M,M,BR,M,M,M,M,M,M,37.94,K8A0 270155Z AUTO 36007KT 5SM BR BKN004 OVC017 06/06 A3011 RMK AO2 P0005
8A0,1/27/16 2:15,42.8,42.8,100.0,10,7,0.0,30.11,M,3.0,M,OVC,M,M,M,400,M,M,M,BR,M,M,M,M,M,M,37.94,K8A0 270215Z AUTO 01007KT 3SM BR OVC004 06/06 A3011 RMK AO2
8A0,1/27/16 2:35,42.8,42.8,100.0,350,5,0.0,30.12,M,2.0,M,OVC,M,M,M,200,M,M,M,BR,M,M,M,M,M,M,39.22,K8A0 270235Z AUTO 35005KT 2SM BR OVC002 06/06 A3012 RMK AO2
8A0,1/27/16 2:55,42.8,42.8,100.0,340,10,0.0,30.13,M,1.25,M,OVC,M,M,M,200,M,M,M,BR,M,M,M,M,M,M,36.51,K8A0 270255Z AUTO 34010KT 1 1/4SM BR OVC002 06/06 A3013 RMK AO2
8A0,1/27/16 3:15,41.0,41.0,100.0,330,7,0.0,30.14,M,1.0,M,OVC,M,M,M,200,M,M,M,BR,M,M,M,M,M,M,35.75,K8A0 270315Z AUTO 33007KT 1SM BR OVC002 05/05 A3014 RMK AO2
8A0,1/27/16 3:35,41.0,41.0,100.0,360,9,0.0,30.13,M,0.75,M,OVC,M,M,M,200,M,M,M,BR,M,M,M,M,M,M,34.7,K8A0 270335Z AUTO 36009KT 3/4SM BR OVC002 05/05 A3013 RMK AO2
8A0,1/27/16 3:55,41.0,41.0,100.0,330,7,0.0,30.14,M,0.75,M,OVC,M,M,M,200,M,M,M,BR,M,M,M,M,M,M,35.75,K8A0 270355Z AUTO 33007KT 3/4SM BR OVC002 05/05 A3014 RMK AO2
8A0,1/27/16 4:15,39.2,39.2,100.0,340,7,0.0,30.14,M,0.75,M,OVC,M,M,M,200,M,M,M,BR,M,M,M,M,M,M,33.56,K8A0 270415Z AUTO 34007KT 3/4SM BR OVC002 04/04 A3014 RMK AO2
8A0,1/27/16 4:35,39.2,39.2,100.0,340,8,0.0,30.14,M,1.0,M,OVC,M,M,M,200,M,M,M,BR,M,M,M,M,M,M,32.98,K8A0 270435Z AUTO 34008KT 1SM BR OVC002 04/04 A3014 RMK AO2
8A0,1/27/16 4:55,39.2,39.2,100.0,340,7,0.0,30.14,M,1.0,M,OVC,M,M,M,200,M,M,M,BR,M,M,M,M,M,M,33.56,K8A0 270455Z AUTO 34007KT 1SM BR OVC002 04/04 A3014 RMK AO2
8A0,1/27/16 5:15,37.4,37.4,100.0,350,5,0.0,30.14,M,0.75,M,OVC,M,M,M,200,M,M,M,BR,M,M,M,M,M,M,32.81,K8A0 270515Z AUTO 35005KT 3/4SM BR OVC002 03/03 A3014 RMK AO2
8A0,1/27/16 5:35,37.4,37.4,100.0,330,6,0.0,30.15,M,0.75,M,OVC,M,M,M,200,M,M,M,BR,M,M,M,M,M,M,32.03,K8A0 270535Z AUTO 33006KT 3/4SM BR OVC002 03/03 A3015 RMK AO2
8A0,1/27/16 5:55,37.4,37.4,100.0,350,6,0.0,30.15,M,1.25,M,OVC,M,M,M,200,M,M,M,BR,M,M,M,M,M,M,32.03,K8A0 270555Z AUTO 35006KT 1 1/4SM BR OVC002 03/03 A3015 RMK AO2
8A0,1/27/16 6:15,37.4,37.4,100.0,340,6,0.0,30.16,M,1.25,M,OVC,M,M,M,200,M,M,M,BR,M,M,M,M,M,M,32.03,K8A0 270615Z AUTO 34006KT 1 1/4SM BR OVC002 03/03 A3016 RMK AO2
8A0,1/27/16 6:35,37.4,37.4,100.0,350,7,0.0,30.15,M,1.75,M,OVC,M,M,M,200,M,M,M,BR,M,M,M,M,M,M,31.36,K8A0 270635Z AUTO 35007KT 1 3/4SM BR OVC002 03/03 A3015 RMK AO2
8A0,1/27/16 6:55,37.4,37.4,100.0,350,8,0.0,30.14,M,1.75,M,OVC,M,M,M,200,M,M,M,BR,M,M,M,M,M,M,30.76,K8A0 270655Z AUTO 35008KT 1 3/4SM BR OVC002 03/03 A3014 RMK AO2
8A0,1/27/16 7:15,37.4,37.4,100.0,350,10,0.0,30.14,M,2.0,M,OVC,M,M,M,200,M,M,M,BR,M,M,M,M,M,M,29.74,K8A0 270715Z AUTO 35010KT 2SM BR OVC002 03/03 A3014 RMK AO2
8A0,1/27/16 7:35,37.4,37.4,100.0,340,5,0.0,30.16,M,2.5,M,OVC,M,M,M,200,M,M,M,BR,M,M,M,M,M,M,32.81,K8A0 270735Z AUTO 34005KT 2 1/2SM BR OVC002 03/03 A3016 RMK AO2
8A0,1/27/16 7:55,37.4,37.4,100.0,360,8,0.0,30.16,M,2.5,M,OVC,M,M,M,200,M,M,M,BR,M,M,M,M,M,M,30.76,K8A0 270755Z AUTO 36008KT 2 1/2SM BR OVC002 03/03 A3016 RMK AO2
8A0,1/27/16 8:15,37.4,37.4,100.0,350,9,0.0,30.15,M,3.0,M,OVC,M,M,M,400,M,M,M,BR,M,M,M,M,M,M,30.23,K8A0 270815Z AUTO 35009KT 3SM BR OVC004 03/03 A3015 RMK AO2
8A0,1/27/16 8:35,35.6,35.6,100.0,360,7,0.0,30.14,M,4.0,M,OVC,M,M,M,400,M,M,M,BR,M,M,M,M,M,M,29.17,K8A0 270835Z AUTO 36007KT 4SM BR OVC004 02/02 A3014 RMK AO2
8A0,1/27/16 8:55,35.6,35.6,100.0,360,8,0.0,30.15,M,5.0,M,OVC,M,M,M,400,M,M,M,BR,M,M,M,M,M,M,28.55,K8A0 270855Z AUTO 36008KT 5SM BR OVC004 02/02 A3015 RMK AO2
8A0,1/27/16 9:15,35.6,35.6,100.0,10,10,0.0,30.14,M,7.0,M,OVC,M,M,M,600,M,M,M,M,M,M,M,M,M,M,27.48,K8A0 270915Z AUTO 01010KT 7SM OVC006 02/02 A3014 RMK AO2
8A0,1/27/16 9:35,35.6,35.6,100.0,10,11,0.0,30.15,M,7.0,17,OVC,M,M,M,800,M,M,M,M,M,M,M,M,M,M,27.02,K8A0 270935Z AUTO 01011G17KT 7SM OVC008 02/02 A3015 RMK AO2
8A0,1/27/16 9:55,35.6,35.6,100.0,10,8,0.0,30.15,M,7.0,M,OVC,M,M,M,1000,M,M,M,M,M,M,M,M,M,M,28.55,K8A0 270955Z AUTO 01008KT 7SM OVC010 02/02 A3015 RMK AO2
8A0,1/27/16 10:15,35.6,35.6,100.0,10,9,0.0,30.15,M,7.0,15,OVC,M,M,M,800,M,M,M,M,M,M,M,M,M,M,27.99,K8A0 271015Z AUTO 01009G15KT 7SM OVC008 02/02 A3015 RMK AO2
8A0,1/27/16 10:35,33.8,33.8,100.0,10,10,0.0,30.16,M,7.0,16,OVC,M,M,M,800,M,M,M,M,M,M,M,M,M,M,25.23,K8A0 271035Z AUTO 01010G16KT 7SM OVC008 01/01 A3016 RMK AO2
8A0,1/27/16 10:55,33.8,33.8,100.0,10,9,0.0,30.17,M,7.0,14,OVC,M,M,M,800,M,M,M,M,M,M,M,M,M,M,25.75,K8A0 271055Z AUTO 01009G14KT 7SM OVC008 01/01 A3017 RMK AO2
8A0,1/27/16 11:15,33.8,33.8,100.0,10,10,0.0,30.18,M,7.0,14,OVC,M,M,M,1000,M,M,M,M,M,M,M,M,M,M,25.23,K8A0 271115Z AUTO 01010G14KT 7SM OVC010 01/01 A3018 RMK AO2
8A0,1/27/16 11:35,33.8,33.8,100.0,30,12,0.0,30.16,M,7.0,16,OVC,M,M,M,1000,M,M,M,M,M,M,M,M,M,M,24.29,K8A0 271135Z AUTO 03012G16KT 7SM OVC010 01/01 A3016 RMK AO2
8A0,1/27/16 11:55,33.8,33.8,100.0,10,9,0.0,30.17,M,7.0,15,OVC,M,M,M,1000,M,M,M,M,M,M,M,M,M,M,25.75,K8A0 271155Z AUTO 01009G15KT 7SM OVC010 01/01 A3017 RMK AO2
8A0,1/27/16 12:15,33.8,33.8,100.0,20,8,0.0,30.18,M,7.0,M,OVC,M,M,M,1000,M,M,M,M,M,M,M,M,M,M,26.33,K8A0 271215Z AUTO 02008KT 7SM OVC010 01/01 A3018 RMK AO2
8A0,1/27/16 12:35,33.8,33.8,100.0,30,12,0.0,30.18,M,7.0,M,OVC,M,M,M,1000,M,M,M,M,M,M,M,M,M,M,24.29,K8A0 271235Z AUTO 03012KT 7SM OVC010 01/01 A3018 RMK AO2
8A0,1/27/16 12:55,33.8,33.8,100.0,10,10,0.0,30.19,M,7.0,14,OVC,M,M,M,1000,M,M,M,M,M,M,M,M,M,M,25.23,K8A0 271255Z AUTO 01010G14KT 7SM OVC010 01/01 A3019 RMK AO2
8A0,1/27/16 13:15,33.8,33.8,100.0,10,10,0.0,30.19,M,7.0,M,OVC,M,M,M,1000,M,M,M,M,M,M,M,M,M,M,25.23,K8A0 271315Z AUTO 01010KT 7SM OVC010 01/01 A3019 RMK AO2
8A0,1/27/16 13:35,33.8,33.8,100.0,20,7,0.0,30.19,M,7.0,15,OVC,M,M,M,1000,M,M,M,M,M,M,M,M,M,M,26.97,K8A0 271335Z AUTO 02007G15KT 7SM OVC010 01/01 A3019 RMK AO2
8A0,1/27/16 13:55,32.0,32.0,100.0,10,11,0.0,30.19,M,7.0,19,OVC,M,M,M,1000,M,M,M,M,M,M,M,M,M,M,22.47,K8A0 271355Z AUTO 01011G19KT 7SM OVC010 00/00 A3019 RMK AO2
8A0,1/27/16 14:15,32.0,32.0,100.0,20,9,0.0,30.18,M,7.0,20,OVC,M,M,M,1000,M,M,M,M,M,M,M,M,M,M,23.51,K8A0 271415Z AUTO 02009G20KT 7SM OVC010 00/00 A3018 RMK AO2
8A0,1/27/16 14:35,33.8,33.8,100.0,20,8,0.0,30.19,M,7.0,16,OVC,M,M,M,1000,M,M,M,M,M,M,M,M,M,M,26.33,K8A0 271435Z AUTO 02008G16KT 7SM OVC010 01/01 A3019 RMK AO2
8A0,1/27/16 14:55,33.8,33.8,100.0,360,13,0.0,30.2,M,7.0,M,OVC,M,M,M,1000,M,M,M,M,M,M,M,M,M,M,23.87,K8A0 271455Z AUTO 36013KT 7SM OVC010 01/01 A3020 RMK AO2
8A0,1/27/16 15:15,33.8,33.8,100.0,10,11,0.0,30.19,M,10.0,14,OVC,M,M,M,1000,M,M,M,M,M,M,M,M,M,M,24.74,K8A0 271515Z AUTO 01011G14KT 10SM OVC010 01/01 A3019 RMK AO2
8A0,1/27/16 15:35,33.8,33.8,100.0,20,12,0.0,30.19,M,10.0,18,OVC,M,M,M,1000,M,M,M,M,M,M,M,M,M,M,24.29,K8A0 271535Z AUTO 02012G18KT 10SM OVC010 01/01 A3019 RMK AO2
8A0,1/27/16 15:55,35.6,35.6,100.0,10,8,0.0,30.19,M,10.0,M,BKN,M,M,M,1000,M,M,M,M,M,M,M,M,M,M,28.55,K8A0 271555Z AUTO 01008KT 10SM BKN010 02/02 A3019 RMK AO2
8A0,1/27/16 16:15,35.6,35.6,100.0,10,8,0.0,30.19,M,10.0,M,BKN,M,M,M,1200,M,M,M,M,M,M,M,M,M,M,28.55,K8A0 271615Z AUTO 01008KT 10SM BKN012 02/02 A3019 RMK AO2
8A0,1/27/16 16:35,35.6,35.6,100.0,20,10,0.0,30.2,M,10.0,M,SCT,M,M,M,1200,M,M,M,M,M,M,M,M,M,M,27.48,K8A0 271635Z AUTO 02010KT 10SM SCT012 02/02 A3020 RMK AO2
8A0,1/27/16 16:55,35.6,35.6,100.0,360,8,0.0,30.19,M,10.0,M,CLR,M,M,M,M,M,M,M,M,M,M,M,M,M,M,28.55,K8A0 271655Z AUTO 36008KT 10SM CLR 02/02 A3019 RMK AO2
8A0,1/27/16 17:15,37.4,35.6,93.14,360,8,0.0,30.18,M,10.0,M,CLR,M,M,M,M,M,M,M,M,M,M,M,M,M,M,30.76,K8A0 271715Z AUTO 36008KT 10SM CLR 03/02 A3018 RMK AO2
8A0,1/27/16 17:35,37.4,35.6,93.14,10,7,0.0,30.17,M,10.0,M,CLR,M,M,M,M,M,M,M,M,M,M,M,M,M,M,31.36,K8A0 271735Z AUTO 01007KT 10SM CLR 03/02 A3017 RMK AO2
8A0,1/27/16 17:55,37.4,35.6,93.14,10,6,0.0,30.17,M,10.0,M,CLR,M,M,M,M,M,M,M,M,M,M,M,M,M,M,32.03,K8A0 271755Z AUTO 01006KT 10SM CLR 03/02 A3017 RMK AO2
8A0,1/27/16 18:15,39.2,35.6,86.79,360,8,0.0,30.16,M,10.0,M,CLR,M,M,M,M,M,M,M,M,M,M,M,M,M,M,32.98,K8A0 271815Z AUTO 36008KT 10SM CLR 04/02 A3016 RMK AO2
8A0,1/27/16 18:35,39.2,35.6,86.79,350,9,0.0,30.14,M,10.0,M,CLR,M,M,M,M,M,M,M,M,M,M,M,M,M,M,32.47,K8A0 271835Z AUTO 35009KT 10SM CLR 04/02 A3014 RMK AO2
8A0,1/27/16 18:55,41.0,35.6,80.93,10,6,0.0,30.12,M,10.0,M,CLR,M,M,M,M,M,M,M,M,M,M,M,M,M,M,36.37,K8A0 271855Z AUTO 01006KT 10SM CLR 05/02 A3012 RMK AO2
8A0,1/27/16 19:15,41.0,35.6,80.93,10,9,0.0,30.12,M,10.0,M,CLR,M,M,M,M,M,M,M,M,M,M,M,M,M,M,34.7,K8A0 271915Z AUTO 01009KT 10SM CLR 05/02 A3012 RMK AO2
8A0,1/27/16 19:35,42.8,37.4,81.07,350,7,0.0,30.11,M,10.0,M,CLR,M,M,M,M,M,M,M,M,M,M,M,M,M,M,37.94,K8A0 271935Z AUTO 35007KT 10SM CLR 06/03 A3011 RMK AO2
8A0,1/27/16 19:55,42.8,35.6,75.5,10,10,0.0,30.1,M,10.0,M,CLR,M,M,M,M,M,M,M,M,M,M,M,M,M,M,36.51,K8A0 271955Z AUTO 01010KT 10SM CLR 06/02 A3010 RMK AO2
8A0,1/27/16 20:15,44.6,37.4,75.68,30,8,0.0,30.1,M,10.0,15,CLR,M,M,M,M,M,M,M,M,M,M,M,M,M,M,39.63,K8A0 272015Z AUTO 03008G15KT 10SM CLR 07/03 A3010 RMK AO2
8A0,1/27/16 20:35,44.6,35.6,70.48,330,4,0.0,30.11,M,10.0,M,CLR,M,M,M,M,M,M,M,M,M,M,M,M,M,M,42.13,K8A0 272035Z AUTO 33004KT 10SM CLR 07/02 A3011 RMK AO2
8A0,1/27/16 20:55,44.6,37.4,75.68,340,4,0.0,30.09,M,10.0,M,CLR,M,M,M,M,M,M,M,M,M,M,M,M,M,M,42.13,K8A0 272055Z AUTO 34004KT 10SM CLR 07/03 A3009 RMK AO2
8A0,1/27/16 21:15,44.6,37.4,75.68,340,5,0.0,30.1,M,10.0,M,CLR,M,M,M,M,M,M,M,M,M,M,M,M,M,M,41.36,K8A0 272115Z AUTO 34005KT 10SM CLR 07/03 A3010 RMK AO2
8A0,1/27/16 21:35,44.6,37.4,75.68,340,8,0.0,30.1,M,10.0,M,CLR,M,M,M,M,M,M,M,M,M,M,M,M,M,M,39.63,K8A0 272135Z AUTO 34008KT 10SM CLR 07/03 A3010 RMK AO2
8A0,1/27/16 21:55,44.6,37.4,75.68,340,9,0.0,30.1,M,10.0,M,CLR,M,M,M,M,M,M,M,M,M,M,M,M,M,M,39.18,K8A0 272155Z AUTO 34009KT 10SM CLR 07/03 A3010 RMK AO2
8A0,1/27/16 22:15,44.6,37.4,75.68,330,6,0.0,30.11,M,10.0,M,CLR,M,M,M,M,M,M,M,M,M,M,M,M,M,M,40.71,K8A0 272215Z AUTO 33006KT 10SM CLR 07/03 A3011 RMK AO2
8A0,1/27/16 22:35,42.8,35.6,75.5,340,9,0.0,30.1,M,10.0,M,CLR,M,M,M,M,M,M,M,M,M,M,M,M,M,M,36.94,K8A0 272235Z AUTO 34009KT 10SM CLR 06/02 A3010 RMK AO2
8A0,1/27/16 22:55,41.0,35.6,80.93,320,6,0.0,30.11,M,10.0,M,CLR,M,M,M,M,M,M,M,M,M,M,M,M,M,M,36.37,K8A0 272255Z AUTO 32006KT 10SM CLR 05/02 A3011 RMK AO2
8A0,1/27/16 23:15,41.0,35.6,80.93,330,6,0.0,30.11,M,10.0,M,CLR,M,M,M,M,M,M,M,M,M,M,M,M,M,M,36.37,K8A0 272315Z AUTO 33006KT 10SM CLR 05/02 A3011 RMK AO2
8A0,1/27/16 23:35,39.2,35.6,86.79,330,6,0.0,30.11,M,10.0,M,CLR,M,M,M,M,M,M,M,M,M,M,M,M,M,M,34.2,K8A0 272335Z AUTO 33006KT 10SM CLR 04/02 A3011 RMK AO2
8A0,1/27/16 23:55,39.2,35.6,86.79,340,5,0.0,30.11,M,10.0,M,CLR,M,M,M,M,M,M,M,M,M,M,M,M,M,M,34.95,K8A0 272355Z AUTO 34005KT 10SM CLR 04/02 A3011 RMK AO2
8A0,1/28/16 0:15,37.4,35.6,93.14,350,4,0.0,30.11,M,10.0,M,CLR,M,M,M,M,M,M,M,M,M,M,M,M,M,M,33.73,K8A0 280015Z AUTO 35004KT 10SM CLR 03/02 A3011 RMK AO2
8A0,1/28/16 0:35,37.4,33.8,86.69,340,3,0.0,30.11,M,10.0,M,CLR,M,M,M,M,M,M,M,M,M,M,M,M,M,M,34.86,K8A0 280035Z AUTO 34003KT 10SM CLR 03/01 A3011 RMK AO2
8A0,1/28/16 0:55,37.4,33.8,86.69,340,5,0.0,30.11,M,10.0,M,CLR,M,M,M,M,M,M,M,M,M,M,M,M,M,M,32.81,K8A0 280055Z AUTO 34005KT 10SM CLR 03/01 A3011 RMK AO2
8A0,1/28/16 1:15,37.4,33.8,86.69,350,5,0.0,30.1,M,10.0,M,CLR,M,M,M,M,M,M,M,M,M,M,M,M,M,M,32.81,K8A0 280115Z AUTO 35005KT 10SM CLR 03/01 A3010 RMK AO2
8A0,1/28/16 1:35,35.6,33.8,93.08,350,5,0.0,30.1,M,10.0,M,CLR,M,M,M,M,M,M,M,M,M,M,M,M,M,M,30.67,K8A0 280135Z AUTO 35005KT 10SM CLR 02/01 A3010 RMK AO2
8A0,1/28/16 1:55,35.6,33.8,93.08,340,5,0.0,30.1,M,10.0,M,CLR,M,M,M,M,M,M,M,M,M,M,M,M,M,M,30.67,K8A0 280155Z AUTO 34005KT 10SM CLR 02/01 A3010 RMK AO2
8A0,1/28/16 2:15,35.6,33.8,93.08,350,4,0.0,30.1,M,10.0,M,CLR,M,M,M,M,M,M,M,M,M,M,M,M,M,M,31.62,K8A0 280215Z AUTO 35004KT 10SM CLR 02/01 A3010 RMK AO2
8A0,1/28/16 2:35,35.6,33.8,93.08,0,0,0.0,30.12,M,10.0,M,CLR,M,M,M,M,M,M,M,M,M,M,M,M,M,M,35.6,K8A0 280235Z AUTO 00000KT 10SM CLR 02/01 A3012 RMK AO2
8A0,1/28/16 2:55,35.6,33.8,93.08,350,4,0.0,30.11,M,10.0,M,CLR,M,M,M,M,M,M,M,M,M,M,M,M,M,M,31.62,K8A0 280255Z AUTO 35004KT 10SM CLR 02/01 A3011 RMK AO2
8A0,1/28/16 3:15,35.6,33.8,93.08,360,3,0.0,30.1,M,10.0,M,CLR,M,M,M,M,M,M,M,M,M,M,M,M,M,M,32.8,K8A0 280315Z AUTO 36003KT 10SM CLR 02/01 A3010 RMK AO2
8A0,1/28/16 3:35,35.6,33.8,93.08,350,3,0.0,30.1,M,10.0,M,CLR,M,M,M,M,M,M,M,M,M,M,M,M,M,M,32.8,K8A0 280335Z AUTO 35003KT 10SM CLR 02/01 A3010 RMK AO2
8A0,1/28/16 3:55,33.8,33.8,100.0,350,4,0.0,30.1,M,10.0,M,CLR,M,M,M,M,M,M,M,M,M,M,M,M,M,M,29.52,K8A0 280355Z AUTO 35004KT 10SM CLR 01/01 A3010 RMK AO2
8A0,1/28/16 4:15,33.8,33.8,100.0,350,4,0.0,30.1,M,10.0,M,CLR,M,M,M,M,M,M,M,M,M,M,M,M,M,M,29.52,K8A0 280415Z AUTO 35004KT 10SM CLR 01/01 A3010 RMK AO2
8A0,1/28/16 4:35,33.8,33.8,100.0,0,0,0.0,30.1,M,10.0,M,CLR,M,M,M,M,M,M,M,M,M,M,M,M,M,M,33.8,K8A0 280435Z AUTO 00000KT 10SM CLR 01/01 A3010 RMK AO2
8A0,1/28/16 4:55,33.8,33.8,100.0,20,3,0.0,30.09,M,10.0,M,CLR,M,M,M,M,M,M,M,M,M,M,M,M,M,M,30.75,K8A0 280455Z AUTO 02003KT 10SM CLR 01/01 A3009 RMK AO2
8A0,1/28/16 5:15,32.0,32.0,100.0,30,3,0.0,30.09,M,10.0,M,CLR,M,M,M,M,M,M,M,M,M,M,M,M,M,M,28.69,K8A0 280515Z AUTO 03003KT 10SM CLR 00/00 A3009 RMK AO2
8A0,1/28/16 5:35,32.0,32.0,100.0,20,4,0.0,30.08,M,10.0,M,CLR,M,M,M,M,M,M,M,M,M,M,M,M,M,M,27.42,K8A0 280535Z AUTO 02004KT 10SM CLR 00/00 A3008 RMK AO2
8A0,1/28/16 5:55,32.0,32.0,100.0,10,3,0.0,30.07,M,10.0,M,CLR,M,M,M,M,M,M,M,M,M,M,M,M,M,M,28.69,K8A0 280555Z AUTO 01003KT 10SM CLR 00/00 A3007 RMK AO2
8A0,1/28/16 6:15,32.0,32.0,100.0,20,3,0.0,30.07,M,10.0,M,CLR,M,M,M,M,M,M,M,M,M,M,M,M,M,M,28.69,K8A0 280615Z AUTO 02003KT 10SM CLR 00/00 A3007 RMK AO2
8A0,1/28/16 6:35,32.0,32.0,100.0,20,3,0.0,30.06,M,10.0,M,CLR,M,M,M,M,M,M,M,M,M,M,M,M,M,M,28.69,K8A0 280635Z AUTO 02003KT 10SM CLR 00/00 A3006 RMK AO2
8A0,1/28/16 6:55,32.0,32.0,100.0,360,4,0.0,30.07,M,10.0,M,CLR,M,M,M,M,M,M,M,M,M,M,M,M,M,M,27.42,K8A0 280655Z AUTO 36004KT 10SM CLR 00/00 A3007 RMK AO2
8A0,1/28/16 7:15,32.0,32.0,100.0,350,3,0.0,30.07,M,10.0,M,CLR,M,M,M,M,M,M,M,M,M,M,M,M,M,M,28.69,K8A0 280715Z AUTO 35003KT 10SM CLR 00/00 A3007 RMK AO2
8A0,1/28/16 7:35,32.0,32.0,100.0,350,4,0.0,30.06,M,10.0,M,CLR,M,M,M,M,M,M,M,M,M,M,M,M,M,M,27.42,K8A0 280735Z AUTO 35004KT 10SM CLR 00/00 A3006 RMK AO2
8A0,1/28/16 7:55,32.0,32.0,100.0,360,6,0.0,30.04,M,10.0,M,CLR,M,M,M,M,M,M,M,M,M,M,M,M,M,M,25.53,K8A0 280755Z AUTO 36006KT 10SM CLR 00/00 A3004 RMK AO2
8A0,1/28/16 8:15,32.0,32.0,100.0,10,5,0.0,30.04,M,10.0,M,CLR,M,M,M,M,M,M,M,M,M,M,M,M,M,M,26.4,K8A0 280815Z AUTO 01005KT 10SM CLR 00/00 A3004 RMK AO2
8A0,1/28/16 8:35,32.0,32.0,100.0,20,4,0.0,30.04,M,10.0,M,CLR,M,M,M,M,M,M,M,M,M,M,M,M,M,M,27.42,K8A0 280835Z AUTO 02004KT 10SM CLR 00/00 A3004 RMK AO2
8A0,1/28/16 8:55,32.0,32.0,100.0,40,4,0.0,30.03,M,10.0,M,CLR,M,M,M,M,M,M,M,M,M,M,M,M,M,M,27.42,K8A0 280855Z AUTO 04004KT 10SM CLR 00/00 A3003 RMK AO2
8A0,1/28/16 9:15,30.2,30.2,100.0,360,3,0.0,30.04,M,7.0,M,CLR,M,M,M,M,M,M,M,M,M,M,M,M,M,M,26.63,K8A0 280915Z AUTO 36003KT 7SM CLR M01/M01 A3004 RMK AO2
8A0,1/28/16 9:35,32.0,32.0,100.0,20,5,0.0,30.02,M,7.0,M,CLR,M,M,M,M,M,M,M,M,M,M,M,M,M,M,26.4,K8A0 280935Z AUTO 02005KT 7SM CLR 00/00 A3002 RMK AO2
8A0,1/28/16 9:55,32.0,32.0,100.0,10,6,0.0,30.01,M,7.0,M,CLR,M,M,M,M,M,M,M,M,M,M,M,M,M,M,25.53,K8A0 280955Z AUTO 01006KT 7SM CLR 00/00 A3001 RMK AO2
8A0,1/28/16 10:15,32.0,32.0,100.0,360,4,0.0,30.02,M,7.0,M,CLR,M,M,M,M,M,M,M,M,M,M,M,M,M,M,27.42,K8A0 281015Z AUTO 36004KT 7SM CLR 00/00 A3002 RMK AO2
8A0,1/28/16 10:35,32.0,32.0,100.0,0,0,0.0,30.02,M,7.0,M,CLR,M,M,M,M,M,M,M,M,M,M,M,M,M,M,32.0,K8A0 281035Z AUTO 00000KT 7SM CLR 00/00 A3002 RMK AO2
8A0,1/28/16 10:55,30.2,30.2,100.0,0,0,0.0,30.02,M,5.0,M,CLR,M,M,M,M,M,M,M,BR,M,M,M,M,M,M,30.2,K8A0 281055Z AUTO 00000KT 5SM BR CLR M01/M01 A3002 RMK AO2
8A0,1/28/16 11:15,30.2,30.2,100.0,350,5,0.0,30.01,M,5.0,M,CLR,M,M,M,M,M,M,M,BR,M,M,M,M,M,M,24.26,K8A0 281115Z AUTO 35005KT 5SM BR CLR M01/M01 A3001 RMK AO2
8A0,1/28/16 11:35,30.2,30.2,100.0,0,0,0.0,30.0,M,5.0,M,CLR,M,M,M,M,M,M,M,BR,M,M,M,M,M,M,30.2,K8A0 281135Z AUTO 00000KT 5SM BR CLR M01/M01 A3000 RMK AO2
8A0,1/28/16 11:55,30.2,30.2,100.0,0,0,0.0,30.01,M,4.0,M,CLR,M,M,M,M,M,M,M,BR,M,M,M,M,M,M,30.2,K8A0 281155Z AUTO 00000KT 4SM BR CLR M01/M01 A3001 RMK AO2
8A0,1/28/16 12:15,30.2,30.2,100.0,20,3,0.0,30.0,M,3.0,M,CLR,M,M,M,M,M,M,M,BR,M,M,M,M,M,M,26.63,K8A0 281215Z AUTO 02003KT 3SM BR CLR M01/M01 A3000 RMK AO2
8A0,1/28/16 12:35,30.2,30.2,100.0,0,0,0.0,30.01,M,3.0,M,CLR,M,M,M,M,M,M,M,BR,M,M,M,M,M,M,30.2,K8A0 281235Z AUTO 00000KT 3SM BR CLR M01/M01 A3001 RMK AO2
8A0,1/28/16 12:55,30.2,30.2,100.0,0,0,0.0,30.01,M,4.0,M,CLR,M,M,M,M,M,M,M,BR,M,M,M,M,M,M,30.2,K8A0 281255Z AUTO 00000KT 4SM BR CLR M01/M01 A3001 RMK AO2
8A0,1/28/16 13:15,28.4,28.4,100.0,320,5,0.0,30.02,M,2.5,M,CLR,M,M,M,M,M,M,M,BR,M,M,M,M,M,M,22.12,K8A0 281315Z AUTO 32005KT 2 1/2SM BR CLR M02/M02 A3002 RMK AO2
8A0,1/28/16 13:35,30.2,30.2,100.0,350,5,0.0,30.01,M,2.5,M,CLR,M,M,M,M,M,M,M,BR,M,M,M,M,M,M,24.26,K8A0 281335Z AUTO 35005KT 2 1/2SM BR CLR M01/M01 A3001 RMK AO2
8A0,1/28/16 13:55,30.2,30.2,100.0,10,3,0.0,30.01,M,4.0,M,CLR,M,M,M,M,M,M,M,BR,M,M,M,M,M,M,26.63,K8A0 281355Z AUTO 01003KT 4SM BR CLR M01/M01 A3001 RMK AO2
8A0,1/28/16 14:15,32.0,32.0,100.0,20,3,0.0,30.0,M,4.0,M,CLR,M,M,M,M,M,M,M,BR,M,M,M,M,M,M,28.69,K8A0 281415Z AUTO 02003KT 4SM BR CLR 00/00 A3000 RMK AO2
8A0,1/28/16 14:35,32.0,32.0,100.0,0,0,0.0,30.01,M,4.0,M,CLR,M,M,M,M,M,M,M,BR,M,M,M,M,M,M,32.0,K8A0 281435Z AUTO 00000KT 4SM BR CLR 00/00 A3001 RMK AO2
8A0,1/28/16 14:55,32.0,32.0,100.0,360,3,0.0,30.02,M,5.0,M,CLR,M,M,M,M,M,M,M,BR,M,M,M,M,M,M,28.69,K8A0 281455Z AUTO 36003KT 5SM BR CLR 00/00 A3002 RMK AO2
8A0,1/28/16 15:15,32.0,32.0,100.0,0,0,0.0,30.02,M,5.0,M,CLR,M,M,M,M,M,M,M,BR,M,M,M,M,M,M,32.0,K8A0 281515Z AUTO 00000KT 5SM BR CLR 00/00 A3002 RMK AO2
8A0,1/28/16 15:35,33.8,33.8,100.0,0,0,0.0,30.02,M,10.0,M,CLR,M,M,M,M,M,M,M,M,M,M,M,M,M,M,33.8,K8A0 281535Z AUTO 00000KT 10SM CLR 01/01 A3002 RMK AO2
8A0,1/28/16 15:55,37.4,35.6,93.14,0,0,0.0,30.01,M,10.0,M,CLR,M,M,M,M,M,M,M,M,M,M,M,M,M,M,37.4,K8A0 281555Z AUTO 00000KT 10SM CLR 03/02 A3001 RMK AO2
8A0,1/28/16 16:15,37.4,33.8,86.69,0,0,0.0,30.01,M,10.0,M,CLR,M,M,M,M,M,M,M,M,M,M,M,M,M,M,37.4,K8A0 281615Z AUTO 00000KT 10SM CLR 03/01 A3001 RMK AO2
8A0,1/28/16 16:35,41.0,33.8,75.33,0,0,0.0,30.01,M,10.0,M,CLR,M,M,M,M,M,M,M,M,M,M,M,M,M,M,41.0,K8A0 281635Z AUTO 00000KT 10SM CLR 05/01 A3001 RMK AO2
8A0,1/28/16 16:55,42.8,32.0,65.38,0,0,0.0,30.0,M,10.0,M,CLR,M,M,M,M,M,M,M,M,M,M,M,M,M,M,42.8,K8A0 281655Z AUTO 00000KT 10SM CLR 06/00 A3000 RMK AO2
8A0,1/28/16 17:15,44.6,33.8,65.61,310,6,0.0,29.99,M,10.0,M,CLR,M,M,M,M,M,M,M,M,M,M,M,M,M,M,40.71,K8A0 281715Z AUTO 31006KT 10SM CLR 07/01 A2999 RMK AO2
8A0,1/28/16 17:35,46.4,33.8,61.28,310,5,0.0,29.97,M,10.0,M,CLR,M,M,M,M,M,M,M,M,M,M,M,M,M,M,43.5,K8A0 281735Z AUTO 31005KT 10SM CLR 08/01 A2997 RMK AO2
8A0,1/28/16 17:55,46.4,28.4,49.24,320,5,0.0,29.96,M,10.0,M,CLR,M,M,M,M,M,M,M,M,M,M,M,M,M,M,43.5,K8A0 281755Z AUTO 32005KT 10SM CLR 08/M02 A2996 RMK AO2
8A0,1/28/16 18:15,46.4,32.0,57.0,320,5,0.0,29.94,M,10.0,M,CLR,M,M,M,M,M,M,M,M,M,M,M,M,M,M,43.5,K8A0 281815Z AUTO 32005KT 10SM CLR 08/00 A2994 RMK AO2
8A0,1/28/16 18:35,50.0,32.0,49.81,310,6,0.0,29.92,M,10.0,M,CLR,M,M,M,M,M,M,M,M,M,M,M,M,M,M,47.21,K8A0 281835Z AUTO 31006KT 10SM CLR 10/00 A2992 RMK AO2
8A0,1/28/16 18:55,51.8,32.0,46.59,250,5,0.0,29.91,M,10.0,M,CLR,M,M,M,M,M,M,M,M,M,M,M,M,M,M,51.8,K8A0 281855Z AUTO 25005KT 10SM CLR 11/00 A2991 RMK AO2
8A0,1/28/16 19:15,51.8,32.0,46.59,280,7,0.0,29.91,M,10.0,M,CLR,M,M,M,M,M,M,M,M,M,M,M,M,M,M,51.8,K8A0 281915Z AUTO 28007KT 10SM CLR 11/00 A2991 RMK AO2
8A0,1/28/16 19:35,51.8,32.0,46.59,320,7,0.0,29.89,M,10.0,M,CLR,M,M,M,M,M,M,M,M,M,M,M,M,M,M,51.8,K8A0 281935Z AUTO 32007KT 10SM CLR 11/00 A2989 RMK AO2
8A0,1/28/16 19:55,51.8,32.0,46.59,270,8,0.0,29.89,M,10.0,14,CLR,M,M,M,M,M,M,M,M,M,M,M,M,M,M,51.8,K8A0 281955Z AUTO 27008G14KT 10SM CLR 11/00 A2989 RMK AO2
8A0,1/28/16 20:15,51.8,32.0,46.59,290,9,0.0,29.89,M,10.0,15,CLR,M,M,M,M,M,M,M,M,M,M,M,M,M,M,51.8,K8A0 282015Z AUTO 29009G15KT 10SM CLR 11/00 A2989 RMK AO2
8A0,1/28/16 20:35,53.6,32.0,43.61,290,11,0.0,29.88,M,10.0,M,CLR,M,M,M,M,M,M,M,M,M,M,M,M,M,M,53.6,K8A0 282035Z AUTO 29011KT 10SM CLR 12/00 A2988 RMK AO2
8A0,1/28/16 20:55,53.6,32.0,43.61,310,9,0.0,29.86,M,10.0,14,CLR,M,M,M,M,M,M,M,M,M,M,M,M,M,M,53.6,K8A0 282055Z AUTO 31009G14KT 10SM CLR 12/00 A2986 RMK AO2
8A0,1/28/16 21:15,51.8,33.8,50.08,300,10,0.0,29.87,M,10.0,15,CLR,M,M,M,M,M,M,M,M,M,M,M,M,M,M,51.8,K8A0 282115Z AUTO 30010G15KT 10SM CLR 11/01 A2987 RMK AO2
8A0,1/28/16 21:35,51.8,33.8,50.08,290,7,0.0,29.86,M,10.0,M,CLR,M,M,M,M,M,M,M,M,M,M,M,M,M,M,51.8,K8A0 282135Z AUTO 29007KT 10SM CLR 11/01 A2986 RMK AO2
8A0,1/28/16 21:55,51.8,33.8,50.08,300,6,0.0,29.86,M,10.0,M,CLR,M,M,M,M,M,M,M,M,M,M,M,M,M,M,51.8,K8A0 282155Z AUTO 30006KT 10SM CLR 11/01 A2986 RMK AO2
8A0,1/28/16 22:15,51.8,33.8,50.08,300,6,0.0,29.86,M,10.0,M,CLR,M,M,M,M,M,M,M,M,M,M,M,M,M,M,51.8,K8A0 282215Z AUTO 30006KT 10SM CLR 11/01 A2986 RMK AO2
8A0,1/28/16 22:35,51.8,35.6,53.81,280,4,0.0,29.87,M,10.0,M,BKN,M,M,M,10000,M,M,M,M,M,M,M,M,M,M,51.8,K8A0 282235Z AUTO 28004KT 10SM BKN100 11/02 A2987 RMK AO2
8A0,1/28/16 22:55,51.8,33.8,50.08,290,5,0.0,29.87,M,10.0,M,OVC,M,M,M,10000,M,M,M,M,M,M,M,M,M,M,51.8,K8A0 282255Z AUTO 29005KT 10SM OVC100 11/01 A2987 RMK AO2
8A0,1/28/16 23:15,50.0,35.6,57.52,280,3,0.0,29.87,M,10.0,M,OVC,M,M,M,11000,M,M,M,M,M,M,M,M,M,M,49.27,K8A0 282315Z AUTO 28003KT 10SM OVC110 10/02 A2987 RMK AO2
8A0,1/28/16 23:35,50.0,35.6,57.52,270,4,0.0,29.87,M,10.0,M,BKN,M,M,M,12000,M,M,M,M,M,M,M,M,M,M,48.44,K8A0 282335Z AUTO 27004KT 10SM BKN120 10/02 A2987 RMK AO2
8A0,1/28/16 23:55,46.4,33.8,61.28,270,4,0.0,29.87,M,10.0,M,CLR,M,M,M,M,M,M,M,M,M,M,M,M,M,M,44.24,K8A0 282355Z AUTO 27004KT 10SM CLR 08/01 A2987 RMK AO2
8A0,1/29/16 0:15,46.4,33.8,61.28,260,5,0.0,29.88,M,10.0,M,CLR,M,M,M,M,M,M,M,M,M,M,M,M,M,M,43.5,K8A0 290015Z AUTO 26005KT 10SM CLR 08/01 A2988 RMK AO2
8A0,1/29/16 0:35,46.4,33.8,61.28,250,5,0.0,29.88,M,10.0,M,CLR,M,M,M,M,M,M,M,M,M,M,M,M,M,M,43.5,K8A0 290035Z AUTO 25005KT 10SM CLR 08/01 A2988 RMK AO2
8A0,1/29/16 0:55,44.6,33.8,65.61,250,4,0.0,29.89,M,10.0,M,CLR,M,M,M,M,M,M,M,M,M,M,M,M,M,M,42.13,K8A0 290055Z AUTO 25004KT 10SM CLR 07/01 A2989 RMK AO2
8A0,1/29/16 1:15,44.6,33.8,65.61,250,4,0.0,29.89,M,10.0,M,CLR,M,M,M,M,M,M,M,M,M,M,M,M,M,M,42.13,K8A0 290115Z AUTO 25004KT 10SM CLR 07/01 A2989 RMK AO2
8A0,1/29/16 1:35,44.6,33.8,65.61,240,5,0.0,29.89,M,10.0,M,CLR,M,M,M,M,M,M,M,M,M,M,M,M,M,M,41.36,K8A0 290135Z AUTO 24005KT 10SM CLR 07/01 A2989 RMK AO2
8A0,1/29/16 1:55,44.6,33.8,65.61,250,5,0.0,29.89,M,10.0,M,CLR,M,M,M,M,M,M,M,M,M,M,M,M,M,M,41.36,K8A0 290155Z AUTO 25005KT 10SM CLR 07/01 A2989 RMK AO2
8A0,1/29/16 2:15,44.6,33.8,65.61,250,5,0.0,29.89,M,10.0,M,CLR,M,M,M,M,M,M,M,M,M,M,M,M,M,M,41.36,K8A0 290215Z AUTO 25005KT 10SM CLR 07/01 A2989 RMK AO2
8A0,1/29/16 2:35,42.8,33.8,70.28,240,5,0.0,29.89,M,10.0,M,CLR,M,M,M,M,M,M,M,M,M,M,M,M,M,M,39.22,K8A0 290235Z AUTO 24005KT 10SM CLR 06/01 A2989 RMK AO2
8A0,1/29/16 2:55,42.8,33.8,70.28,250,5,0.0,29.89,M,10.0,M,CLR,M,M,M,M,M,M,M,M,M,M,M,M,M,M,39.22,K8A0 290255Z AUTO 25005KT 10SM CLR 06/01 A2989 RMK AO2
8A0,1/29/16 3:15,41.0,33.8,75.33,240,5,0.0,29.89,M,10.0,M,CLR,M,M,M,M,M,M,M,M,M,M,M,M,M,M,37.08,K8A0 290315Z AUTO 24005KT 10SM CLR 05/01 A2989 RMK AO2
8A0,1/29/16 3:35,42.8,33.8,70.28,250,5,0.0,29.9,M,10.0,M,CLR,M,M,M,M,M,M,M,M,M,M,M,M,M,M,39.22,K8A0 290335Z AUTO 25005KT 10SM CLR 06/01 A2990 RMK AO2
8A0,1/29/16 3:55,41.0,33.8,75.33,230,3,0.0,29.9,M,10.0,M,CLR,M,M,M,M,M,M,M,M,M,M,M,M,M,M,38.98,K8A0 290355Z AUTO 23003KT 10SM CLR 05/01 A2990 RMK AO2
8A0,1/29/16 4:15,37.4,33.8,86.69,230,4,0.0,29.9,M,10.0,M,CLR,M,M,M,M,M,M,M,M,M,M,M,M,M,M,33.73,K8A0 290415Z AUTO 23004KT 10SM CLR 03/01 A2990 RMK AO2
8A0,1/29/16 4:35,39.2,33.8,80.79,240,4,0.0,29.89,M,10.0,M,CLR,M,M,M,M,M,M,M,M,M,M,M,M,M,M,35.83,K8A0 290435Z AUTO 24004KT 10SM CLR 04/01 A2989 RMK AO2
8A0,1/29/16 4:55,39.2,33.8,80.79,260,6,0.0,29.89,M,10.0,M,CLR,M,M,M,M,M,M,M,M,M,M,M,M,M,M,34.2,K8A0 290455Z AUTO 26006KT 10SM CLR 04/01 A2989 RMK AO2
8A0,1/29/16 5:15,39.2,33.8,80.79,260,7,0.0,29.89,M,10.0,M,CLR,M,M,M,M,M,M,M,M,M,M,M,M,M,M,33.56,K8A0 290515Z AUTO 26007KT 10SM CLR 04/01 A2989 RMK AO2
8A0,1/29/16 5:35,37.4,33.8,86.69,260,6,0.0,29.88,M,10.0,M,CLR,M,M,M,M,M,M,M,M,M,M,M,M,M,M,32.03,K8A0 290535Z AUTO 26006KT 10SM CLR 03/01 A2988 RMK AO2
8A0,1/29/16 5:55,39.2,33.8,80.79,260,5,0.0,29.88,M,10.0,M,CLR,M,M,M,M,M,M,M,M,M,M,M,M,M,M,34.95,K8A0 290555Z AUTO 26005KT 10SM CLR 04/01 A2988 RMK AO2
8A0,1/29/16 6:15,39.2,33.8,80.79,240,5,0.0,29.87,M,10.0,M,CLR,M,M,M,M,M,M,M,M,M,M,M,M,M,M,34.95,K8A0 290615Z AUTO 24005KT 10SM CLR 04/01 A2987 RMK AO2
8A0,1/29/16 6:35,35.6,33.8,93.08,220,4,0.0,29.87,M,10.0,M,CLR,M,M,M,M,M,M,M,M,M,M,M,M,M,M,31.62,K8A0 290635Z AUTO 22004KT 10SM CLR 02/01 A2987 RMK AO2
8A0,1/29/16 6:55,37.4,33.8,86.69,250,3,0.0,29.87,M,10.0,M,CLR,M,M,M,M,M,M,M,M,M,M,M,M,M,M,34.86,K8A0 290655Z AUTO 25003KT 10SM CLR 03/01 A2987 RMK AO2
8A0,1/29/16 7:15,37.4,33.8,86.69,240,6,0.0,29.87,M,10.0,M,CLR,M,M,M,M,M,M,M,M,M,M,M,M,M,M,32.03,K8A0 290715Z AUTO 24006KT 10SM CLR 03/01 A2987 RMK AO2
8A0,1/29/16 7:35,37.4,33.8,86.69,240,4,0.0,29.86,M,10.0,M,CLR,M,M,M,M,M,M,M,M,M,M,M,M,M,M,33.73,K8A0 290735Z AUTO 24004KT 10SM CLR 03/01 A2986 RMK AO2
8A0,1/29/16 7:55,37.4,33.8,86.69,250,6,0.0,29.86,M,10.0,M,CLR,M,M,M,M,M,M,M,M,M,M,M,M,M,M,32.03,K8A0 290755Z AUTO 25006KT 10SM CLR 03/01 A2986 RMK AO2
8A0,1/29/16 8:15,37.4,35.6,93.14,250,5,0.0,29.87,M,10.0,M,CLR,M,M,M,M,M,M,M,M,M,M,M,M,M,M,32.81,K8A0 290815Z AUTO 25005KT 10SM CLR 03/02 A2987 RMK AO2
8A0,1/29/16 8:35,37.4,33.8,86.69,250,4,0.0,29.87,M,10.0,M,CLR,M,M,M,M,M,M,M,M,M,M,M,M,M,M,33.73,K8A0 290835Z AUTO 25004KT 10SM CLR 03/01 A2987 RMK AO2
8A0,1/29/16 8:55,37.4,35.6,93.14,240,5,0.0,29.88,M,10.0,M,CLR,M,M,M,M,M,M,M,M,M,M,M,M,M,M,32.81,K8A0 290855Z AUTO 24005KT 10SM CLR 03/02 A2988 RMK AO2
8A0,1/29/16 9:15,37.4,35.6,93.14,250,5,0.0,29.88,M,10.0,M,CLR,M,M,M,M,M,M,M,M,M,M,M,M,M,M,32.81,K8A0 290915Z AUTO 25005KT 10SM CLR 03/02 A2988 RMK AO2
8A0,1/29/16 9:35,35.6,35.6,100.0,260,5,0.0,29.88,M,10.0,M,CLR,M,M,M,M,M,M,M,M,M,M,M,M,M,M,30.67,K8A0 290935Z AUTO 26005KT 10SM CLR 02/02 A2988 RMK AO2
8A0,1/29/16 9:55,35.6,33.8,93.08,260,5,0.0,29.89,M,10.0,M,CLR,M,M,M,M,M,M,M,M,M,M,M,M,M,M,30.67,K8A0 290955Z AUTO 26005KT 10SM CLR 02/01 A2989 RMK AO2
8A0,1/29/16 10:15,35.6,33.8,93.08,250,5,0.0,29.89,M,10.0,M,CLR,M,M,M,M,M,M,M,M,M,M,M,M,M,M,30.67,K8A0 291015Z AUTO 25005KT 10SM CLR 02/01 A2989 RMK AO2
8A0,1/29/16 10:35,35.6,33.8,93.08,260,4,0.0,29.9,M,10.0,M,CLR,M,M,M,M,M,M,M,M,M,M,M,M,M,M,31.62,K8A0 291035Z AUTO 26004KT 10SM CLR 02/01 A2990 RMK AO2
8A0,1/29/16 10:55,35.6,33.8,93.08,270,5,0.0,29.91,M,10.0,M,CLR,M,M,M,M,M,M,M,M,M,M,M,M,M,M,30.67,K8A0 291055Z AUTO 27005KT 10SM CLR 02/01 A2991 RMK AO2
8A0,1/29/16 11:15,33.8,33.8,100.0,270,6,0.0,29.92,M,10.0,M,CLR,M,M,M,M,M,M,M,M,M,M,M,M,M,M,27.7,K8A0 291115Z AUTO 27006KT 10SM CLR 01/01 A2992 RMK AO2
8A0,1/29/16 11:35,33.8,33.8,100.0,270,5,0.0,29.92,M,10.0,M,CLR,M,M,M,M,M,M,M,M,M,M,M,M,M,M,28.53,K8A0 291135Z AUTO 27005KT 10SM CLR 01/01 A2992 RMK AO2
8A0,1/29/16 11:55,33.8,33.8,100.0,280,5,0.0,29.93,M,10.0,M,CLR,M,M,M,M,M,M,M,M,M,M,M,M,M,M,28.53,K8A0 291155Z AUTO 28005KT 10SM CLR 01/01 A2993 RMK AO2
8A0,1/29/16 12:15,33.8,33.8,100.0,270,5,0.0,29.95,M,10.0,M,CLR,M,M,M,M,M,M,M,M,M,M,M,M,M,M,28.53,K8A0 291215Z AUTO 27005KT 10SM CLR 01/01 A2995 RMK AO2
8A0,1/29/16 12:35,33.8,33.8,100.0,270,5,0.0,29.96,M,10.0,M,CLR,M,M,M,M,M,M,M,M,M,M,M,M,M,M,28.53,K8A0 291235Z AUTO 27005KT 10SM CLR 01/01 A2996 RMK AO2
8A0,1/29/16 12:55,33.8,33.8,100.0,280,4,0.0,29.96,M,10.0,M,CLR,M,M,M,M,M,M,M,M,M,M,M,M,M,M,29.52,K8A0 291255Z AUTO 28004KT 10SM CLR 01/01 A2996 RMK AO2
8A0,1/29/16 13:15,33.8,33.8,100.0,270,5,0.0,29.97,M,10.0,M,CLR,M,M,M,M,M,M,M,M,M,M,M,M,M,M,28.53,K8A0 291315Z AUTO 27005KT 10SM CLR 01/01 A2997 RMK AO2
8A0,1/29/16 13:35,33.8,33.8,100.0,290,5,0.0,29.98,M,10.0,M,CLR,M,M,M,M,M,M,M,M,M,M,M,M,M,M,28.53,K8A0 291335Z AUTO 29005KT 10SM CLR 01/01 A2998 RMK AO2
8A0,1/29/16 13:55,37.4,35.6,93.14,300,4,0.0,30.0,M,10.0,M,CLR,M,M,M,M,M,M,M,M,M,M,M,M,M,M,33.73,K8A0 291355Z AUTO 30004KT 10SM CLR 03/02 A3000 RMK AO2
8A0,1/29/16 14:15,37.4,35.6,93.14,320,7,0.0,30.01,M,10.0,M,CLR,M,M,M,M,M,M,M,M,M,M,M,M,M,M,31.36,K8A0 291415Z AUTO 32007KT 10SM CLR 03/02 A3001 RMK AO2
8A0,1/29/16 14:35,41.0,35.6,80.93,320,10,0.0,30.02,M,10.0,14,CLR,M,M,M,M,M,M,M,M,M,M,M,M,M,M,34.25,K8A0 291435Z AUTO 32010G14KT 289V349 10SM CLR 05/02 A3002 RMK AO2
8A0,1/29/16 14:55,41.0,35.6,80.93,360,10,0.0,30.02,M,10.0,M,CLR,M,M,M,M,M,M,M,M,M,M,M,M,M,M,34.25,K8A0 291455Z AUTO 36010KT 10SM CLR 05/02 A3002 RMK AO2
8A0,1/29/16 15:15,41.0,35.6,80.93,340,10,0.0,30.03,M,10.0,14,CLR,M,M,M,M,M,M,M,M,M,M,M,M,M,M,34.25,K8A0 291515Z AUTO 34010G14KT 10SM CLR 05/02 A3003 RMK AO2
8A0,1/29/16 15:35,42.8,35.6,75.5,330,10,0.0,30.03,M,10.0,M,CLR,M,M,M,M,M,M,M,M,M,M,M,M,M,M,36.51,K8A0 291535Z AUTO 33010KT 10SM CLR 06/02 A3003 RMK AO2
8A0,1/29/16 15:55,42.8,35.6,75.5,340,12,0.0,30.03,M,10.0,17,CLR,M,M,M,M,M,M,M,M,M,M,M,M,M,M,35.75,K8A0 291555Z AUTO 34012G17KT 10SM CLR 06/02 A3003 RMK AO2
8A0,1/29/16 16:15,44.6,35.6,70.48,330,7,0.0,30.03,M,10.0,14,CLR,M,M,M,M,M,M,M,M,M,M,M,M,M,M,40.14,K8A0 291615Z AUTO 33007G14KT 299V359 10SM CLR 07/02 A3003 RMK AO2
8A0,1/29/16 16:35,44.6,35.6,70.48,310,7,0.0,30.03,M,10.0,M,CLR,M,M,M,M,M,M,M,M,M,M,M,M,M,M,40.14,K8A0 291635Z AUTO 31007KT 10SM CLR 07/02 A3003 RMK AO2
8A0,1/29/16 16:55,44.6,35.6,70.48,310,8,0.0,30.03,M,10.0,M,CLR,M,M,M,M,M,M,M,M,M,M,M,M,M,M,39.63,K8A0 291655Z AUTO 31008KT 10SM CLR 07/02 A3003 RMK AO2
8A0,1/29/16 17:15,44.6,35.6,70.48,300,7,0.0,30.03,M,10.0,M,CLR,M,M,M,M,M,M,M,M,M,M,M,M,M,M,40.14,K8A0 291715Z AUTO 30007KT 10SM CLR 07/02 A3003 RMK AO2
8A0,1/29/16 17:35,46.4,35.6,65.83,310,7,0.0,30.02,M,10.0,M,CLR,M,M,M,M,M,M,M,M,M,M,M,M,M,M,42.33,K8A0 291735Z AUTO 31007KT 10SM CLR 08/02 A3002 RMK AO2
8A0,1/29/16 17:55,46.4,35.6,65.83,340,6,0.0,30.01,M,10.0,M,CLR,M,M,M,M,M,M,M,M,M,M,M,M,M,M,42.87,K8A0 291755Z AUTO 34006KT 10SM CLR 08/02 A3001 RMK AO2
8A0,1/29/16 18:15,48.2,35.6,61.52,320,6,0.0,30.0,M,10.0,M,CLR,M,M,M,M,M,M,M,M,M,M,M,M,M,M,45.04,K8A0 291815Z AUTO 32006KT 10SM CLR 09/02 A3000 RMK AO2
8A0,1/29/16 18:35,48.2,35.6,61.52,340,4,0.0,30.0,M,10.0,M,CLR,M,M,M,M,M,M,M,M,M,M,M,M,M,M,46.34,K8A0 291835Z AUTO 34004KT 10SM CLR 09/02 A3000 RMK AO2
8A0,1/29/16 18:55,50.0,33.8,53.54,290,9,0.0,30.0,M,10.0,M,CLR,M,M,M,M,M,M,M,M,M,M,M,M,M,M,45.9,K8A0 291855Z AUTO 29009KT 279V339 10SM CLR 10/01 A3000 RMK AO2
8A0,1/29/16 19:15,50.0,35.6,57.52,300,8,0.0,30.0,M,10.0,M,CLR,M,M,M,M,M,M,M,M,M,M,M,M,M,M,46.29,K8A0 291915Z AUTO 30008KT 10SM CLR 10/02 A3000 RMK AO2
8A0,1/29/16 19:35,50.0,35.6,57.52,360,8,0.0,29.99,M,10.0,M,CLR,M,M,M,M,M,M,M,M,M,M,M,M,M,M,46.29,K8A0 291935Z AUTO 36008KT 339V039 10SM CLR 10/02 A2999 RMK AO2
8A0,1/29/16 19:55,50.0,35.6,57.52,330,3,0.0,29.98,M,10.0,M,CLR,M,M,M,M,M,M,M,M,M,M,M,M,M,M,49.27,K8A0 291955Z AUTO 33003KT 10SM CLR 10/02 A2998 RMK AO2
8A0,1/29/16 20:15,51.8,35.6,53.81,330,6,0.0,29.99,M,10.0,M,CLR,M,M,M,M,M,M,M,M,M,M,M,M,M,M,51.8,K8A0 292015Z AUTO 33006KT 10SM CLR 11/02 A2999 RMK AO2
8A0,1/29/16 20:35,51.8,35.6,53.81,310,6,0.0,29.99,M,10.0,M,CLR,M,M,M,M,M,M,M,M,M,M,M,M,M,M,51.8,K8A0 292035Z AUTO 31006KT 10SM CLR 11/02 A2999 RMK AO2
8A0,1/29/16 20:55,51.8,35.6,53.81,260,7,0.0,29.99,M,10.0,M,CLR,M,M,M,M,M,M,M,M,M,M,M,M,M,M,51.8,K8A0 292055Z AUTO 26007KT 10SM CLR 11/02 A2999 RMK AO2
8A0,1/29/16 21:15,51.8,35.6,53.81,250,4,0.0,29.99,M,10.0,M,CLR,M,M,M,M,M,M,M,M,M,M,M,M,M,M,51.8,K8A0 292115Z AUTO 25004KT 10SM CLR 11/02 A2999 RMK AO2
8A0,1/29/16 21:35,51.8,35.6,53.81,350,3,0.0,29.99,M,10.0,M,CLR,M,M,M,M,M,M,M,M,M,M,M,M,M,M,51.8,K8A0 292135Z AUTO 35003KT 10SM CLR 11/02 A2999 RMK AO2
8A0,1/29/16 21:55,51.8,35.6,53.81,270,6,0.0,30.0,M,10.0,M,CLR,M,M,M,M,M,M,M,M,M,M,M,M,M,M,51.8,K8A0 292155Z AUTO 27006KT 10SM CLR 11/02 A3000 RMK AO2
8A0,1/29/16 22:15,51.8,33.8,50.08,260,5,0.0,30.0,M,10.0,M,CLR,M,M,M,M,M,M,M,M,M,M,M,M,M,M,51.8,K8A0 292215Z AUTO 26005KT 10SM CLR 11/01 A3000 RMK AO2
8A0,1/29/16 22:35,51.8,35.6,53.81,270,6,0.0,30.0,M,10.0,M,CLR,M,M,M,M,M,M,M,M,M,M,M,M,M,M,51.8,K8A0 292235Z AUTO 27006KT 10SM CLR 11/02 A3000 RMK AO2
8A0,1/29/16 22:55,50.0,33.8,53.54,280,5,0.0,30.01,M,10.0,M,CLR,M,M,M,M,M,M,M,M,M,M,M,M,M,M,47.77,K8A0 292255Z AUTO 28005KT 10SM CLR 10/01 A3001 RMK AO2
8A0,1/29/16 23:15,50.0,33.8,53.54,290,4,0.0,30.02,M,10.0,M,CLR,M,M,M,M,M,M,M,M,M,M,M,M,M,M,48.44,K8A0 292315Z AUTO 29004KT 10SM CLR 10/01 A3002 RMK AO2
8A0,1/29/16 23:35,46.4,33.8,61.28,0,0,0.0,30.02,M,10.0,M,CLR,M,M,M,M,M,M,M,M,M,M,M,M,M,M,46.4,K8A0 292335Z AUTO 00000KT 10SM CLR 08/01 A3002 RMK AO2
8A0,1/29/16 23:55,46.4,33.8,61.28,350,4,0.0,30.02,M,10.0,M,CLR,M,M,M,M,M,M,M,M,M,M,M,M,M,M,44.24,K8A0 292355Z AUTO 35004KT 10SM CLR 08/01 A3002 RMK AO2
8A0,1/30/16 0:15,44.6,33.8,65.61,350,3,0.0,30.02,M,10.0,M,CLR,M,M,M,M,M,M,M,M,M,M,M,M,M,M,43.09,K8A0 300015Z AUTO 35003KT 10SM CLR 07/01 A3002 RMK AO2
8A0,1/30/16 0:35,42.8,33.8,70.28,30,3,0.0,30.03,M,10.0,M,CLR,M,M,M,M,M,M,M,M,M,M,M,M,M,M,41.03,K8A0 300035Z AUTO 03003KT 10SM CLR 06/01 A3003 RMK AO2
8A0,1/30/16 0:55,42.8,33.8,70.28,30,3,0.0,30.03,M,10.0,M,CLR,M,M,M,M,M,M,M,M,M,M,M,M,M,M,41.03,K8A0 300055Z AUTO 03003KT 10SM CLR 06/01 A3003 RMK AO2
8A0,1/30/16 1:15,42.8,33.8,70.28,10,4,0.0,30.03,M,10.0,M,CLR,M,M,M,M,M,M,M,M,M,M,M,M,M,M,40.03,K8A0 300115Z AUTO 01004KT 10SM CLR 06/01 A3003 RMK AO2
8A0,1/30/16 1:35,42.8,33.8,70.28,10,4,0.0,30.03,M,10.0,M,CLR,M,M,M,M,M,M,M,M,M,M,M,M,M,M,40.03,K8A0 300135Z AUTO 01004KT 10SM CLR 06/01 A3003 RMK AO2
8A0,1/30/16 1:55,42.8,33.8,70.28,30,3,0.0,30.03,M,10.0,M,CLR,M,M,M,M,M,M,M,M,M,M,M,M,M,M,41.03,K8A0 300155Z AUTO 03003KT 10SM CLR 06/01 A3003 RMK AO2
8A0,1/30/16 2:15,39.2,33.8,80.79,0,0,0.0,30.04,M,10.0,M,CLR,M,M,M,M,M,M,M,M,M,M,M,M,M,M,39.2,K8A0 300215Z AUTO 00000KT 10SM CLR 04/01 A3004 RMK AO2
8A0,1/30/16 2:35,39.2,33.8,80.79,130,4,0.0,30.03,M,10.0,M,CLR,M,M,M,M,M,M,M,M,M,M,M,M,M,M,35.83,K8A0 300235Z AUTO 13004KT 10SM CLR 04/01 A3003 RMK AO2
8A0,1/30/16 2:55,39.2,33.8,80.79,110,4,0.0,30.03,M,10.0,M,CLR,M,M,M,M,M,M,M,M,M,M,M,M,M,M,35.83,K8A0 300255Z AUTO 11004KT 10SM CLR 04/01 A3003 RMK AO2
8A0,1/30/16 3:15,39.2,33.8,80.79,110,4,0.0,30.03,M,10.0,M,CLR,M,M,M,M,M,M,M,M,M,M,M,M,M,M,35.83,K8A0 300315Z AUTO 11004KT 10SM CLR 04/01 A3003 RMK AO2
8A0,1/30/16 3:35,39.2,33.8,80.79,120,3,0.0,30.03,M,10.0,M,CLR,M,M,M,M,M,M,M,M,M,M,M,M,M,M,36.92,K8A0 300335Z AUTO 12003KT 10SM CLR 04/01 A3003 RMK AO2
8A0,1/30/16 3:55,37.4,33.8,86.69,120,3,0.0,30.03,M,10.0,M,CLR,M,M,M,M,M,M,M,M,M,M,M,M,M,M,34.86,K8A0 300355Z AUTO 12003KT 10SM CLR 03/01 A3003 RMK AO2
8A0,1/30/16 4:15,37.4,33.8,86.69,110,5,0.0,30.03,M,10.0,M,CLR,M,M,M,M,M,M,M,M,M,M,M,M,M,M,32.81,K8A0 300415Z AUTO 11005KT 10SM CLR 03/01 A3003 RMK AO2
8A0,1/30/16 4:35,41.0,33.8,75.33,110,5,0.0,30.02,M,10.0,M,CLR,M,M,M,M,M,M,M,M,M,M,M,M,M,M,37.08,K8A0 300435Z AUTO 11005KT 10SM CLR 05/01 A3002 RMK AO2
8A0,1/30/16 4:55,39.2,33.8,80.79,100,3,0.0,30.02,M,10.0,M,CLR,M,M,M,M,M,M,M,M,M,M,M,M,M,M,36.92,K8A0 300455Z AUTO 10003KT 10SM CLR 04/01 A3002 RMK AO2
8A0,1/30/16 5:15,39.2,33.8,80.79,120,5,0.0,30.03,M,10.0,M,CLR,M,M,M,M,M,M,M,M,M,M,M,M,M,M,34.95,K8A0 300515Z AUTO 12005KT 10SM CLR 04/01 A3003 RMK AO2
8A0,1/30/16 5:35,41.0,33.8,75.33,120,5,0.0,30.03,M,10.0,M,SCT,M,M,M,12000,M,M,M,M,M,M,M,M,M,M,37.08,K8A0 300535Z AUTO 12005KT 10SM SCT120 05/01 A3003 RMK AO2
8A0,1/30/16 5:55,39.2,33.8,80.79,130,5,0.0,30.03,M,10.0,M,CLR,M,M,M,M,M,M,M,M,M,M,M,M,M,M,34.95,K8A0 300555Z AUTO 13005KT 10SM CLR 04/01 A3003 RMK AO2
8A0,1/30/16 6:15,39.2,33.8,80.79,120,5,0.0,30.03,M,10.0,M,CLR,M,M,M,M,M,M,M,M,M,M,M,M,M,M,34.95,K8A0 300615Z AUTO 12005KT 10SM CLR 04/01 A3003 RMK AO2
8A0,1/30/16 6:35,39.2,33.8,80.79,130,5,0.0,30.03,M,10.0,M,CLR,M,M,M,M,M,M,M,M,M,M,M,M,M,M,34.95,K8A0 300635Z AUTO 13005KT 10SM CLR 04/01 A3003 RMK AO2
8A0,1/30/16 6:55,41.0,33.8,75.33,120,5,0.0,30.02,M,10.0,M,CLR,M,M,M,M,M,M,M,M,M,M,M,M,M,M,37.08,K8A0 300655Z AUTO 12005KT 10SM CLR 05/01 A3002 RMK AO2
8A0,1/30/16 7:15,41.0,33.8,75.33,130,5,0.0,30.02,M,10.0,M,CLR,M,M,M,M,M,M,M,M,M,M,M,M,M,M,37.08,K8A0 300715Z AUTO 13005KT 10SM CLR 05/01 A3002 RMK AO2
8A0,1/30/16 7:35,39.2,33.8,80.79,130,5,0.0,30.01,M,10.0,M,CLR,M,M,M,M,M,M,M,M,M,M,M,M,M,M,34.95,K8A0 300735Z AUTO 13005KT 10SM CLR 04/01 A3001 RMK AO2
8A0,1/30/16 7:55,39.2,33.8,80.79,140,5,0.0,30.01,M,10.0,M,CLR,M,M,M,M,M,M,M,M,M,M,M,M,M,M,34.95,K8A0 300755Z AUTO 14005KT 10SM CLR 04/01 A3001 RMK AO2
8A0,1/30/16 8:15,41.0,33.8,75.33,140,7,0.0,30.01,M,10.0,M,CLR,M,M,M,M,M,M,M,M,M,M,M,M,M,M,35.75,K8A0 300815Z AUTO 14007KT 10SM CLR 05/01 A3001 RMK AO2
8A0,1/30/16 8:35,41.0,33.8,75.33,140,7,0.0,30.01,M,10.0,M,CLR,M,M,M,M,M,M,M,M,M,M,M,M,M,M,35.75,K8A0 300835Z AUTO 14007KT 10SM CLR 05/01 A3001 RMK AO2
8A0,1/30/16 8:55,41.0,33.8,75.33,140,7,0.0,30.01,M,10.0,M,CLR,M,M,M,M,M,M,M,M,M,M,M,M,M,M,35.75,K8A0 300855Z AUTO 14007KT 10SM CLR 05/01 A3001 RMK AO2
8A0,1/30/16 9:15,41.0,33.8,75.33,140,5,0.0,30.01,M,10.0,M,CLR,M,M,M,M,M,M,M,M,M,M,M,M,M,M,37.08,K8A0 300915Z AUTO 14005KT 10SM CLR 05/01 A3001 RMK AO2
8A0,1/30/16 9:35,41.0,33.8,75.33,150,8,0.0,30.0,M,10.0,M,CLR,M,M,M,M,M,M,M,M,M,M,M,M,M,M,35.2,K8A0 300935Z AUTO 15008KT 10SM CLR 05/01 A3000 RMK AO2
8A0,1/30/16 9:55,41.0,33.8,75.33,140,7,0.0,30.01,M,10.0,M,CLR,M,M,M,M,M,M,M,M,M,M,M,M,M,M,35.75,K8A0 300955Z AUTO 14007KT 10SM CLR 05/01 A3001 RMK AO2
8A0,1/30/16 10:15,41.0,33.8,75.33,140,7,0.0,30.0,M,10.0,M,CLR,M,M,M,M,M,M,M,M,M,M,M,M,M,M,35.75,K8A0 301015Z AUTO 14007KT 10SM CLR 05/01 A3000 RMK AO2
8A0,1/30/16 10:35,41.0,33.8,75.33,130,6,0.0,30.0,M,10.0,M,CLR,M,M,M,M,M,M,M,M,M,M,M,M,M,M,36.37,K8A0 301035Z AUTO 13006KT 10SM CLR 05/01 A3000 RMK AO2
8A0,1/30/16 10:55,41.0,33.8,75.33,130,5,0.0,30.0,M,10.0,M,SCT,M,M,M,12000,M,M,M,M,M,M,M,M,M,M,37.08,K8A0 301055Z AUTO 13005KT 10SM SCT120 05/01 A3000 RMK AO2
8A0,1/30/16 11:15,39.2,33.8,80.79,100,3,0.0,30.02,M,10.0,M,CLR,M,M,M,M,M,M,M,M,M,M,M,M,M,M,36.92,K8A0 301115Z AUTO 10003KT 10SM CLR 04/01 A3002 RMK AO2
8A0,1/30/16 11:35,39.2,33.8,80.79,100,3,0.0,30.03,M,10.0,M,CLR,M,M,M,M,M,M,M,M,M,M,M,M,M,M,36.92,K8A0 301135Z AUTO 10003KT 10SM CLR 04/01 A3003 RMK AO2
8A0,1/30/16 11:55,37.4,33.8,86.69,80,3,0.0,30.04,M,10.0,M,CLR,M,M,M,M,M,M,M,M,M,M,M,M,M,M,34.86,K8A0 301155Z AUTO 08003KT 10SM CLR 03/01 A3004 RMK AO2
8A0,1/30/16 12:15,37.4,33.8,86.69,120,5,0.0,30.06,M,10.0,M,CLR,M,M,M,M,M,M,M,M,M,M,M,M,M,M,32.81,K8A0 301215Z AUTO 12005KT 10SM CLR 03/01 A3006 RMK AO2
8A0,1/30/16 12:35,37.4,33.8,86.69,130,6,0.0,30.06,M,10.0,M,CLR,M,M,M,M,M,M,M,M,M,M,M,M,M,M,32.03,K8A0 301235Z AUTO 13006KT 10SM CLR 03/01 A3006 RMK AO2
8A0,1/30/16 12:55,37.4,33.8,86.69,130,5,0.0,30.07,M,10.0,M,CLR,M,M,M,M,M,M,M,M,M,M,M,M,M,M,32.81,K8A0 301255Z AUTO 13005KT 10SM CLR 03/01 A3007 RMK AO2
8A0,1/30/16 13:15,37.4,33.8,86.69,140,6,0.0,30.07,M,10.0,M,CLR,M,M,M,M,M,M,M,M,M,M,M,M,M,M,32.03,K8A0 301315Z AUTO 14006KT 10SM CLR 03/01 A3007 RMK AO2
8A0,1/30/16 13:35,41.0,35.6,80.93,150,6,0.0,30.07,M,10.0,M,CLR,M,M,M,M,M,M,M,M,M,M,M,M,M,M,36.37,K8A0 301335Z AUTO 15006KT 10SM CLR 05/02 A3007 RMK AO2
8A0,1/30/16 13:55,42.8,35.6,75.5,140,6,0.0,30.07,M,10.0,M,CLR,M,M,M,M,M,M,M,M,M,M,M,M,M,M,38.54,K8A0 301355Z AUTO 14006KT 10SM CLR 06/02 A3007 RMK AO2
8A0,1/30/16 14:15,44.6,37.4,75.68,140,6,0.0,30.07,M,10.0,M,CLR,M,M,M,M,M,M,M,M,M,M,M,M,M,M,40.71,K8A0 301415Z AUTO 14006KT 10SM CLR 07/03 A3007 RMK AO2
8A0,1/30/16 14:35,46.4,37.4,70.68,150,7,0.0,30.07,M,10.0,M,CLR,M,M,M,M,M,M,M,M,M,M,M,M,M,M,42.33,K8A0 301435Z AUTO 15007KT 10SM CLR 08/03 A3007 RMK AO2
8A0,1/30/16 14:55,48.2,37.4,66.05,150,8,0.0,30.07,M,10.0,M,CLR,M,M,M,M,M,M,M,M,M,M,M,M,M,M,44.07,K8A0 301455Z AUTO 15008KT 10SM CLR 09/03 A3007 RMK AO2
8A0,1/30/16 15:15,50.0,39.2,66.27,150,8,0.0,30.08,M,10.0,M,CLR,M,M,M,M,M,M,M,M,M,M,M,M,M,M,46.29,K8A0 301515Z AUTO 15008KT 10SM CLR 10/04 A3008 RMK AO2
8A0,1/30/16 15:35,51.8,41.0,66.48,160,6,0.0,30.09,M,10.0,M,CLR,M,M,M,M,M,M,M,M,M,M,M,M,M,M,51.8,K8A0 301535Z AUTO 16006KT 10SM CLR 11/05 A3009 RMK AO2
8A0,1/30/16 15:55,53.6,42.8,66.7,160,6,0.0,30.08,M,10.0,M,CLR,M,M,M,M,M,M,M,M,M,M,M,M,M,M,53.6,K8A0 301555Z AUTO 16006KT 10SM CLR 12/06 A3008 RMK AO2
8A0,1/30/16 16:15,53.6,42.8,66.7,180,7,0.0,30.07,M,10.0,M,CLR,M,M,M,M,M,M,M,M,M,M,M,M,M,M,53.6,K8A0 301615Z AUTO 18007KT 10SM CLR 12/06 A3007 RMK AO2
8A0,1/30/16 16:35,55.4,44.6,66.91,170,7,0.0,30.06,M,10.0,M,CLR,M,M,M,M,M,M,M,M,M,M,M,M,M,M,55.4,K8A0 301635Z AUTO 17007KT 10SM CLR 13/07 A3006 RMK AO2
8A0,1/30/16 16:55,57.2,42.8,58.52,190,7,0.0,30.05,M,10.0,M,CLR,M,M,M,M,M,M,M,M,M,M,M,M,M,M,57.2,K8A0 301655Z AUTO 19007KT 10SM CLR 14/06 A3005 RMK AO2
8A0,1/30/16 17:15,59.0,44.6,58.77,190,6,0.0,30.05,M,10.0,M,CLR,M,M,M,M,M,M,M,M,M,M,M,M,M,M,59.0,K8A0 301715Z AUTO 19006KT 10SM CLR 15/07 A3005 RMK AO2
8A0,1/30/16 17:35,60.8,44.6,55.12,220,14,0.0,30.04,M,10.0,19,CLR,M,M,M,M,M,M,M,M,M,M,M,M,M,M,60.8,K8A0 301735Z AUTO 22014G19KT 10SM CLR 16/07 A3004 RMK AO2
8A0,1/30/16 17:55,62.6,42.8,48.28,220,12,0.0,30.03,M,10.0,19,CLR,M,M,M,M,M,M,M,M,M,M,M,M,M,M,62.6,K8A0 301755Z AUTO 22012G19KT 10SM CLR 17/06 A3003 RMK AO2
8A0,1/30/16 18:15,62.6,42.8,48.28,210,12,0.0,30.02,M,10.0,18,CLR,M,M,M,M,M,M,M,M,M,M,M,M,M,M,62.6,K8A0 301815Z AUTO 21012G18KT 10SM CLR 17/06 A3002 RMK AO2
8A0,1/30/16 18:35,62.6,42.8,48.28,210,10,0.0,30.0,M,10.0,17,CLR,M,M,M,M,M,M,M,M,M,M,M,M,M,M,62.6,K8A0 301835Z AUTO 21010G17KT 10SM CLR 17/06 A3000 RMK AO2
8A0,1/30/16 18:55,64.4,42.8,45.32,190,13,0.0,29.99,M,10.0,17,CLR,M,M,M,M,M,M,M,M,M,M,M,M,M,M,64.4,K8A0 301855Z AUTO 19013G17KT 10SM CLR 18/06 A2999 RMK AO2
8A0,1/30/16 19:15,64.4,41.0,42.28,220,15,0.0,29.98,M,10.0,20,CLR,M,M,M,M,M,M,M,M,M,M,M,M,M,M,64.4,K8A0 301915Z AUTO 22015G20KT 10SM CLR 18/05 A2998 RMK AO2
8A0,1/30/16 19:35,64.4,41.0,42.28,200,14,0.0,29.97,M,10.0,23,CLR,M,M,M,M,M,M,M,M,M,M,M,M,M,M,64.4,K8A0 301935Z AUTO 20014G23KT 10SM CLR 18/05 A2997 RMK AO2
8A0,1/30/16 19:55,64.4,39.2,39.43,210,17,0.0,29.96,M,10.0,23,CLR,M,M,M,M,M,M,M,M,M,M,M,M,M,M,64.4,K8A0 301955Z AUTO 21017G23KT 10SM CLR 18/04 A2996 RMK AO2
8A0,1/30/16 20:15,64.4,41.0,42.28,190,12,0.0,29.95,M,10.0,22,CLR,M,M,M,M,M,M,M,M,M,M,M,M,M,M,64.4,K8A0 302015Z AUTO 19012G22KT 10SM CLR 18/05 A2995 RMK AO2
8A0,1/30/16 20:35,64.4,41.0,42.28,200,13,0.0,29.95,M,10.0,21,CLR,M,M,M,M,M,M,M,M,M,M,M,M,M,M,64.4,K8A0 302035Z AUTO 20013G21KT 179V249 10SM CLR 18/05 A2995 RMK AO2
8A0,1/30/16 20:55,64.4,41.0,42.28,200,10,0.0,29.95,M,10.0,17,CLR,M,M,M,M,M,M,M,M,M,M,M,M,M,M,64.4,K8A0 302055Z AUTO 20010G17KT 10SM CLR 18/05 A2995 RMK AO2
8A0,1/30/16 21:15,66.2,41.0,39.72,190,11,0.0,29.95,M,10.0,M,CLR,M,M,M,M,M,M,M,M,M,M,M,M,M,M,66.2,K8A0 302115Z AUTO 19011KT 10SM CLR 19/05 A2995 RMK AO2
8A0,1/30/16 21:35,64.4,41.0,42.28,200,11,0.0,29.95,M,10.0,17,CLR,M,M,M,M,M,M,M,M,M,M,M,M,M,M,64.4,K8A0 302135Z AUTO 20011G17KT 10SM CLR 18/05 A2995 RMK AO2
8A0,1/30/16 21:55,64.4,41.0,42.28,180,11,0.0,29.95,M,10.0,16,CLR,M,M,M,M,M,M,M,M,M,M,M,M,M,M,64.4,K8A0 302155Z AUTO 18011G16KT 10SM CLR 18/05 A2995 RMK AO2
8A0,1/30/16 22:15,64.4,41.0,42.28,200,9,0.0,29.97,M,10.0,15,CLR,M,M,M,M,M,M,M,M,M,M,M,M,M,M,64.4,K8A0 302215Z AUTO 20009G15KT 10SM CLR 18/05 A2997 RMK AO2
8A0,1/30/16 22:35,62.6,41.0,45.04,190,8,0.0,29.97,M,10.0,15,CLR,M,M,M,M,M,M,M,M,M,M,M,M,M,M,62.6,K8A0 302235Z AUTO 19008G15KT 10SM CLR 17/05 A2997 RMK AO2
8A0,1/30/16 22:55,62.6,41.0,45.04,190,10,0.0,29.97,M,10.0,18,CLR,M,M,M,M,M,M,M,M,M,M,M,M,M,M,62.6,K8A0 302255Z AUTO 19010G18KT 10SM CLR 17/05 A2997 RMK AO2
8A0,1/30/16 23:15,60.8,41.0,48.0,180,8,0.0,29.97,M,10.0,M,CLR,M,M,M,M,M,M,M,M,M,M,M,M,M,M,60.8,K8A0 302315Z AUTO 18008KT 10SM CLR 16/05 A2997 RMK AO2
8A0,1/30/16 23:35,59.0,41.0,51.18,170,7,0.0,29.98,M,10.0,M,CLR,M,M,M,M,M,M,M,M,M,M,M,M,M,M,59.0,K8A0 302335Z AUTO 17007KT 10SM CLR 15/05 A2998 RMK AO2
8A0,1/30/16 23:55,59.0,41.0,51.18,170,8,0.0,29.99,M,10.0,M,CLR,M,M,M,M,M,M,M,M,M,M,M,M,M,M,59.0,K8A0 302355Z AUTO 17008KT 10SM CLR 15/05 A2999 RMK AO2
8A0,1/31/16 0:15,59.0,42.8,54.86,180,9,0.0,29.99,M,10.0,M,CLR,M,M,M,M,M,M,M,M,M,M,M,M,M,M,59.0,K8A0 310015Z AUTO 18009KT 10SM CLR 15/06 A2999 RMK AO2
8A0,1/31/16 0:35,57.2,42.8,58.52,180,9,0.0,30.0,M,10.0,M,CLR,M,M,M,M,M,M,M,M,M,M,M,M,M,M,57.2,K8A0 310035Z AUTO 18009KT 10SM CLR 14/06 A3000 RMK AO2
8A0,1/31/16 0:55,57.2,42.8,58.52,180,9,0.0,30.0,M,10.0,M,CLR,M,M,M,M,M,M,M,M,M,M,M,M,M,M,57.2,K8A0 310055Z AUTO 18009KT 10SM CLR 14/06 A3000 RMK AO2
8A0,1/31/16 1:15,57.2,44.6,62.69,180,8,0.0,30.0,M,10.0,14,CLR,M,M,M,M,M,M,M,M,M,M,M,M,M,M,57.2,K8A0 310115Z AUTO 18008G14KT 10SM CLR 14/07 A3000 RMK AO2
8A0,1/31/16 1:35,55.4,44.6,66.91,170,6,0.0,30.0,M,10.0,M,CLR,M,M,M,M,M,M,M,M,M,M,M,M,M,M,55.4,K8A0 310135Z AUTO 17006KT 10SM CLR 13/07 A3000 RMK AO2
8A0,1/31/16 1:55,55.4,44.6,66.91,160,7,0.0,30.01,M,10.0,M,CLR,M,M,M,M,M,M,M,M,M,M,M,M,M,M,55.4,K8A0 310155Z AUTO 16007KT 10SM CLR 13/07 A3001 RMK AO2
8A0,1/31/16 2:15,55.4,44.6,66.91,160,6,0.0,30.0,M,10.0,M,CLR,M,M,M,M,M,M,M,M,M,M,M,M,M,M,55.4,K8A0 310215Z AUTO 16006KT 10SM CLR 13/07 A3000 RMK AO2
8A0,1/31/16 2:35,53.6,44.6,71.45,160,6,0.0,30.01,M,10.0,M,CLR,M,M,M,M,M,M,M,M,M,M,M,M,M,M,53.6,K8A0 310235Z AUTO 16006KT 10SM CLR 12/07 A3001 RMK AO2
8A0,1/31/16 2:55,55.4,44.6,66.91,170,8,0.0,30.0,M,10.0,M,CLR,M,M,M,M,M,M,M,M,M,M,M,M,M,M,55.4,K8A0 310255Z AUTO 17008KT 10SM CLR 13/07 A3000 RMK AO2
8A0,1/31/16 3:15,53.6,44.6,71.45,180,8,0.0,30.0,M,10.0,M,CLR,M,M,M,M,M,M,M,M,M,M,M,M,M,M,53.6,K8A0 310315Z AUTO 18008KT 10SM CLR 12/07 A3000 RMK AO2
8A0,1/31/16 3:35,55.4,46.4,71.64,180,8,0.0,30.0,M,10.0,M,CLR,M,M,M,M,M,M,M,M,M,M,M,M,M,M,55.4,K8A0 310335Z AUTO 18008KT 10SM CLR 13/08 A3000 RMK AO2
8A0,1/31/16 3:55,55.4,46.4,71.64,180,8,0.0,30.0,M,10.0,M,CLR,M,M,M,M,M,M,M,M,M,M,M,M,M,M,55.4,K8A0 310355Z AUTO 18008KT 10SM CLR 13/08 A3000 RMK AO2
8A0,1/31/16 4:15,53.6,46.4,76.5,170,9,0.0,30.0,M,10.0,M,CLR,M,M,M,M,M,M,M,M,M,M,M,M,M,M,53.6,K8A0 310415Z AUTO 17009KT 10SM CLR 12/08 A3000 RMK AO2
8A0,1/31/16 4:35,53.6,46.4,76.5,180,9,0.0,30.0,M,10.0,14,CLR,M,M,M,M,M,M,M,M,M,M,M,M,M,M,53.6,K8A0 310435Z AUTO 18009G14KT 10SM CLR 12/08 A3000 RMK AO2
8A0,1/31/16 4:55,53.6,46.4,76.5,180,8,0.0,30.0,M,10.0,17,CLR,M,M,M,M,M,M,M,M,M,M,M,M,M,M,53.6,K8A0 310455Z AUTO 18008G17KT 10SM CLR 12/08 A3000 RMK AO2
8A0,1/31/16 5:15,53.6,46.4,76.5,180,8,0.0,30.0,M,10.0,M,CLR,M,M,M,M,M,M,M,M,M,M,M,M,M,M,53.6,K8A0 310515Z AUTO 18008KT 10SM CLR 12/08 A3000 RMK AO2
8A0,1/31/16 5:35,53.6,48.2,81.87,180,9,0.0,30.0,M,10.0,M,CLR,M,M,M,M,M,M,M,M,M,M,M,M,M,M,53.6,K8A0 310535Z AUTO 18009KT 10SM CLR 12/09 A3000 RMK AO2
8A0,1/31/16 5:55,53.6,48.2,81.87,170,8,0.0,30.0,M,10.0,M,CLR,M,M,M,M,M,M,M,M,M,M,M,M,M,M,53.6,K8A0 310555Z AUTO 17008KT 10SM CLR 12/09 A3000 RMK AO2
8A0,1/31/16 6:15,51.8,48.2,87.47,170,7,0.0,30.0,M,10.0,M,CLR,M,M,M,M,M,M,M,M,M,M,M,M,M,M,51.8,K8A0 310615Z AUTO 17007KT 10SM CLR 11/09 A3000 RMK AO2
8A0,1/31/16 6:35,51.8,48.2,87.47,170,6,0.0,30.0,M,10.0,M,CLR,M,M,M,M,M,M,M,M,M,M,M,M,M,M,51.8,K8A0 310635Z AUTO 17006KT 10SM CLR 11/09 A3000 RMK AO2
8A0,1/31/16 6:55,50.0,46.4,87.37,170,5,0.0,30.0,M,10.0,M,CLR,M,M,M,M,M,M,M,M,M,M,M,M,M,M,47.77,K8A0 310655Z AUTO 17005KT 10SM CLR 10/08 A3000 RMK AO2
8A0,1/31/16 7:15,50.0,48.2,93.5,160,4,0.0,30.0,M,10.0,M,CLR,M,M,M,M,M,M,M,M,M,M,M,M,M,M,48.44,K8A0 310715Z AUTO 16004KT 10SM CLR 10/09 A3000 RMK AO2
8A0,1/31/16 7:35,50.0,48.2,93.5,150,6,0.0,30.0,M,10.0,M,CLR,M,M,M,M,M,M,M,M,M,M,M,M,M,M,47.21,K8A0 310735Z AUTO 15006KT 10SM CLR 10/09 A3000 RMK AO2
8A0,1/31/16 7:55,50.0,48.2,93.5,150,6,0.0,29.99,M,10.0,M,CLR,M,M,M,M,M,M,M,M,M,M,M,M,M,M,47.21,K8A0 310755Z AUTO 15006KT 10SM CLR 10/09 A2999 RMK AO2
8A0,1/31/16 8:15,50.0,50.0,100.0,150,6,0.0,29.99,M,10.0,M,CLR,M,M,M,M,M,M,M,M,M,M,M,M,M,M,47.21,K8A0 310815Z AUTO 15006KT 10SM CLR 10/10 A2999 RMK AO2
8A0,1/31/16 8:35,48.2,48.2,100.0,150,5,0.0,29.99,M,10.0,M,CLR,M,M,M,M,M,M,M,M,M,M,M,M,M,M,45.63,K8A0 310835Z AUTO 15005KT 10SM CLR 09/09 A2999 RMK AO2
8A0,1/31/16 8:55,48.2,48.2,100.0,170,7,0.0,29.99,M,10.0,M,SCT,M,M,M,2900,M,M,M,M,M,M,M,M,M,M,44.53,K8A0 310855Z AUTO 17007KT 10SM SCT029 09/09 A2999 RMK AO2
8A0,1/31/16 9:15,50.0,50.0,100.0,180,8,0.0,29.99,M,10.0,M,CLR,M,M,M,M,M,M,M,M,M,M,M,M,M,M,46.29,K8A0 310915Z AUTO 18008KT 10SM CLR 10/10 A2999 RMK AO2
8A0,1/31/16 9:35,50.0,50.0,100.0,190,8,0.0,29.99,M,10.0,M,BKN,M,M,M,2900,M,M,M,M,M,M,M,M,M,M,46.29,K8A0 310935Z AUTO 19008KT 10SM BKN029 10/10 A2999 RMK AO2
8A0,1/31/16 9:55,51.8,51.8,100.0,190,8,0.0,29.99,M,10.0,M,OVC,M,M,M,2900,M,M,M,M,M,M,M,M,M,M,51.8,K8A0 310955Z AUTO 19008KT 10SM OVC029 11/11 A2999 RMK AO2
8A0,1/31/16 10:15,51.8,51.8,100.0,190,8,0.0,29.99,M,10.0,M,OVC,M,M,M,2900,M,M,M,M,M,M,M,M,M,M,51.8,K8A0 311015Z AUTO 19008KT 10SM OVC029 11/11 A2999 RMK AO2
8A0,1/31/16 10:35,51.8,51.8,100.0,190,7,0.0,30.0,M,10.0,M,OVC,M,M,M,2900,M,M,M,M,M,M,M,M,M,M,51.8,K8A0 311035Z AUTO 19007KT 10SM OVC029 11/11 A3000 RMK AO2
8A0,1/31/16 10:55,53.6,51.8,93.6,190,7,0.0,30.0,M,10.0,M,OVC,M,M,M,2900,M,M,M,M,M,M,M,M,M,M,53.6,K8A0 311055Z AUTO 19007KT 10SM OVC029 12/11 A3000 RMK AO2
8A0,1/31/16 11:15,53.6,51.8,93.6,180,9,0.0,30.01,M,10.0,M,OVC,M,M,M,2900,M,M,M,M,M,M,M,M,M,M,53.6,K8A0 311115Z AUTO 18009KT 10SM OVC029 12/11 A3001 RMK AO2
8A0,1/31/16 11:35,53.6,51.8,93.6,190,8,0.0,30.01,M,10.0,M,OVC,M,M,M,2900,M,M,M,M,M,M,M,M,M,M,53.6,K8A0 311135Z AUTO 19008KT 10SM OVC029 12/11 A3001 RMK AO2
8A0,1/31/16 11:55,53.6,53.6,100.0,180,8,0.0,30.01,M,10.0,M,OVC,M,M,M,3100,M,M,M,M,M,M,M,M,M,M,53.6,K8A0 311155Z AUTO 18008KT 10SM OVC031 12/12 A3001 RMK AO2
8A0,1/31/16 12:15,53.6,53.6,100.0,180,8,0.0,30.02,M,10.0,M,OVC,M,M,M,3300,M,M,M,M,M,M,M,M,M,M,53.6,K8A0 311215Z AUTO 18008KT 10SM OVC033 12/12 A3002 RMK AO2
8A0,1/31/16 12:35,53.6,53.6,100.0,180,8,0.0,30.02,M,10.0,M,OVC,M,M,M,3300,M,M,M,M,M,M,M,M,M,M,53.6,K8A0 311235Z AUTO 18008KT 10SM OVC033 12/12 A3002 RMK AO2
8A0,1/31/16 12:55,53.6,53.6,100.0,180,8,0.0,30.02,M,10.0,M,OVC,M,M,M,3300,M,M,M,M,M,M,M,M,M,M,53.6,K8A0 311255Z AUTO 18008KT 10SM OVC033 12/12 A3002 RMK AO2
8A0,1/31/16 13:15,53.6,53.6,100.0,180,9,0.0,30.02,M,10.0,M,OVC,M,M,M,3300,M,M,M,M,M,M,M,M,M,M,53.6,K8A0 311315Z AUTO 18009KT 10SM OVC033 12/12 A3002 RMK AO2
8A0,1/31/16 13:35,53.6,53.6,100.0,180,9,0.0,30.02,M,10.0,14,OVC,M,M,M,3300,M,M,M,M,M,M,M,M,M,M,53.6,K8A0 311335Z AUTO 18009G14KT 10SM OVC033 12/12 A3002 RMK AO2
8A0,1/31/16 13:55,55.4,53.6,93.65,180,9,0.0,30.02,M,10.0,M,OVC,M,M,M,3300,M,M,M,M,M,M,M,M,M,M,55.4,K8A0 311355Z AUTO 18009KT 10SM OVC033 13/12 A3002 RMK AO2
8A0,1/31/16 14:15,55.4,53.6,93.65,190,8,0.0,30.02,M,10.0,M,OVC,M,M,M,3300,M,M,M,M,M,M,M,M,M,M,55.4,K8A0 311415Z AUTO 19008KT 10SM OVC033 13/12 A3002 RMK AO2
8A0,1/31/16 14:35,55.4,53.6,93.65,190,9,0.0,30.01,M,10.0,14,OVC,M,M,M,3300,M,M,M,M,M,M,M,M,M,M,55.4,K8A0 311435Z AUTO 19009G14KT 10SM OVC033 13/12 A3001 RMK AO2
8A0,1/31/16 14:55,57.2,55.4,93.69,210,9,0.0,30.02,M,10.0,15,OVC,M,M,M,3300,M,M,M,M,M,M,M,M,M,M,57.2,K8A0 311455Z AUTO 21009G15KT 10SM OVC033 14/13 A3002 RMK AO2
8A0,1/31/16 15:15,57.2,55.4,93.69,200,11,0.0,30.03,M,10.0,15,OVC,M,M,M,3300,M,M,M,M,M,M,M,M,M,M,57.2,K8A0 311515Z AUTO 20011G15KT 10SM OVC033 14/13 A3003 RMK AO2
8A0,1/31/16 15:35,59.0,55.4,87.83,190,11,0.0,30.03,M,10.0,16,OVC,M,M,M,3300,M,M,M,M,M,M,M,M,M,M,59.0,K8A0 311535Z AUTO 19011G16KT 10SM OVC033 15/13 A3003 RMK AO2
8A0,1/31/16 15:55,59.0,55.4,87.83,190,13,0.0,30.02,M,10.0,16,OVC,M,M,M,3500,M,M,M,M,M,M,M,M,M,M,59.0,K8A0 311555Z AUTO 19013G16KT 10SM OVC035 15/13 A3002 RMK AO2
8A0,1/31/16 16:15,60.8,57.2,87.92,200,9,0.0,30.02,M,10.0,17,OVC,M,M,M,3700,M,M,M,M,M,M,M,M,M,M,60.8,K8A0 311615Z AUTO 20009G17KT 10SM OVC037 16/14 A3002 RMK AO2
8A0,1/31/16 16:35,60.8,57.2,87.92,210,15,0.0,30.02,M,10.0,18,SCT,SCT,OVC,M,1800,2600,3700,M,M,M,M,M,M,M,M,60.8,K8A0 311635Z AUTO 21015G18KT 10SM SCT018 SCT026 OVC037 16/14 A3002 RMK AO2
8A0,1/31/16 16:55,60.8,59.0,93.79,200,11,0.0,30.01,M,10.0,14,BKN,BKN,BKN,M,2000,2500,3500,M,M,M,M,M,M,M,M,60.8,K8A0 311655Z AUTO 20011G14KT 10SM BKN020 BKN025 BKN035 16/15 A3001 RMK AO2
8A0,1/31/16 17:15,60.8,59.0,93.79,210,9,0.0,30.0,M,10.0,M,SCT,SCT,BKN,M,2200,3000,3500,M,M,M,M,M,M,M,M,60.8,K8A0 311715Z AUTO 21009KT 169V229 10SM SCT022 SCT030 BKN035 16/15 A3000 RMK AO2
8A0,1/31/16 17:35,62.6,57.2,82.5,210,17,0.0,29.99,M,10.0,21,SCT,SCT,BKN,M,2300,2800,3800,M,M,M,M,M,M,M,M,62.6,K8A0 311735Z AUTO 21017G21KT 10SM SCT023 SCT028 BKN038 17/14 A2999 RMK AO2
8A0,1/31/16 17:55,62.6,57.2,82.5,240,11,0.0,29.97,M,10.0,22,BKN,OVC,M,M,3100,3800,M,M,M,M,M,M,M,M,M,62.6,K8A0 311755Z AUTO 24011G22KT 10SM BKN031 OVC038 17/14 A2997 RMK AO2
8A0,1/31/16 18:15,62.6,57.2,82.5,220,11,0.0,29.96,M,10.0,M,OVC,M,M,M,3100,M,M,M,M,M,M,M,M,M,M,62.6,K8A0 311815Z AUTO 22011KT 10SM OVC031 17/14 A2996 RMK AO2
8A0,1/31/16 18:35,64.4,55.4,72.56,220,14,0.0,29.94,M,10.0,19,SCT,BKN,M,M,3100,4100,M,M,M,M,M,M,M,M,M,64.4,K8A0 311835Z AUTO 22014G19KT 189V249 10SM SCT031 BKN041 18/13 A2994 RMK AO2
8A0,1/31/16 18:55,68.0,55.4,64.04,220,20,0.0,29.94,M,10.0,28,BKN,M,M,M,4200,M,M,M,M,M,M,M,M,M,M,68.0,K8A0 311855Z AUTO 22020G28KT 10SM BKN042 20/13 A2994 RMK AO2
8A0,1/31/16 19:15,68.0,55.4,64.04,210,21,0.0,29.93,M,10.0,29,SCT,M,M,M,4200,M,M,M,M,M,M,M,M,M,M,68.0,K8A0 311915Z AUTO 21021G29KT 10SM SCT042 20/13 A2993 RMK AO2
8A0,1/31/16 19:35,68.0,55.4,64.04,220,13,0.0,29.93,M,10.0,25,CLR,M,M,M,M,M,M,M,M,M,M,M,M,M,M,68.0,K8A0 311935Z AUTO 22013G25KT 10SM CLR 20/13 A2993 RMK AO2
8A0,1/31/16 19:55,64.4,55.4,72.56,200,16,0.0,29.93,M,10.0,21,SCT,SCT,M,M,4200,4900,M,M,M,M,M,M,M,M,M,64.4,K8A0 311955Z AUTO 20016G21KT 10SM SCT042 SCT049 18/13 A2993 RMK AO2
8A0,1/31/16 20:15,64.4,55.4,72.56,200,13,0.0,29.92,M,10.0,18,SCT,M,M,M,4200,M,M,M,M,M,M,M,M,M,M,64.4,K8A0 312015Z AUTO 20013G18KT 10SM SCT042 18/13 A2992 RMK AO2
8A0,1/31/16 20:35,68.0,55.4,64.04,220,17,0.0,29.91,M,10.0,23,SCT,M,M,M,4900,M,M,M,M,M,M,M,M,M,M,68.0,K8A0 312035Z AUTO 22017G23KT 10SM SCT049 20/13 A2991 RMK AO2
8A0,1/31/16 20:55,68.0,55.4,64.04,200,15,0.0,29.91,M,10.0,22,BKN,M,M,M,4700,M,M,M,M,M,M,M,M,M,M,68.0,K8A0 312055Z AUTO 20015G22KT 10SM BKN047 20/13 A2991 RMK AO2
8A0,1/31/16 21:15,66.2,55.4,68.15,190,16,0.0,29.9,M,10.0,23,BKN,M,M,M,4700,M,M,M,M,M,M,M,M,M,M,66.2,K8A0 312115Z AUTO 19016G23KT 10SM BKN047 19/13 A2990 RMK AO2
8A0,1/31/16 21:35,68.0,55.4,64.04,210,11,0.0,29.9,M,10.0,20,SCT,M,M,M,4700,M,M,M,M,M,M,M,M,M,M,68.0,K8A0 312135Z AUTO 21011G20KT 10SM SCT047 20/13 A2990 RMK AO2
8A0,1/31/16 21:55,68.0,55.4,64.04,220,11,0.0,29.91,M,10.0,19,SCT,SCT,M,M,4200,5000,M,M,M,M,M,M,M,M,M,68.0,K8A0 312155Z AUTO 22011G19KT 10SM SCT042 SCT050 20/13 A2991 RMK AO2
8A0,1/31/16 22:15,66.2,55.4,68.15,200,10,0.0,29.92,M,10.0,15,BKN,M,M,M,4800,M,M,M,M,M,M,M,M,M,M,66.2,K8A0 312215Z AUTO 20010G15KT 10SM BKN048 19/13 A2992 RMK AO2
8A0,1/31/16 22:35,64.4,55.4,72.56,200,9,0.0,29.92,M,10.0,M,SCT,OVC,M,M,4500,5000,M,M,M,M,M,M,M,M,M,64.4,K8A0 312235Z AUTO 20009KT 10SM SCT045 OVC050 18/13 A2992 RMK AO2
8A0,1/31/16 22:55,64.4,59.0,82.62,170,7,0.0,29.92,M,10.0,M,SCT,OVC,M,M,4700,6000,M,M,M,M,M,M,M,M,M,64.4,K8A0 312255Z AUTO 17007KT 10SM SCT047 OVC060 18/15 A2992 RMK AO2
8A0,1/31/16 23:15,64.4,59.0,82.62,170,5,0.0,29.92,M,10.0,M,SCT,OVC,M,M,4700,6000,M,M,M,M,M,M,M,M,M,64.4,K8A0 312315Z AUTO 17005KT 10SM SCT047 OVC060 18/15 A2992 RMK AO2
8A0,1/31/16 23:35,62.6,59.0,88.0,170,4,0.0,29.92,M,10.0,M,SCT,OVC,M,M,4800,6000,M,M,M,M,M,M,M,M,M,62.6,K8A0 312335Z AUTO 17004KT 10SM SCT048 OVC060 17/15 A2992 RMK AO2
8A0,1/31/16 23:55,62.6,59.0,88.0,160,4,0.0,29.92,M,10.0,M,SCT,BKN,M,M,4700,6000,M,M,M,M,M,M,M,M,M,62.6,K8A0 312355Z AUTO 16004KT 10SM SCT047 BKN060 17/15 A2992 RMK AO2
8A0,2/1/16 0:15,62.6,59.0,88.0,160,7,0.0,29.92,M,10.0,M,BKN,M,M,M,6000,M,M,M,M,M,M,M,M,M,M,62.6,K8A0 010015Z AUTO 16007KT 10SM BKN060 17/15 A2992 RMK AO2
8A0,2/1/16 0:35,62.6,59.0,88.0,160,6,0.0,29.92,M,10.0,M,BKN,M,M,M,6000,M,M,M,M,M,M,M,M,M,M,62.6,K8A0 010035Z AUTO 16006KT 10SM BKN060 17/15 A2992 RMK AO2
8A0,2/1/16 0:55,62.6,59.0,88.0,170,7,0.0,29.92,M,10.0,M,SCT,M,M,M,6000,M,M,M,M,M,M,M,M,M,M,62.6,K8A0 010055Z AUTO 17007KT 10SM SCT060 17/15 A2992 RMK AO2
8A0,2/1/16 1:15,60.8,59.0,93.79,170,9,0.0,29.92,M,10.0,M,CLR,M,M,M,M,M,M,M,M,M,M,M,M,M,M,60.8,K8A0 010115Z AUTO 17009KT 10SM CLR 16/15 A2992 RMK AO2
8A0,2/1/16 1:35,60.8,59.0,93.79,180,11,0.0,29.91,M,10.0,15,CLR,M,M,M,M,M,M,M,M,M,M,M,M,M,M,60.8,K8A0 010135Z AUTO 18011G15KT 10SM CLR 16/15 A2991 RMK AO2
8A0,2/1/16 1:55,62.6,60.8,93.83,180,11,0.0,29.91,M,10.0,M,CLR,M,M,M,M,M,M,M,M,M,M,M,M,M,M,62.6,K8A0 010155Z AUTO 18011KT 10SM CLR 17/16 A2991 RMK AO2
8A0,2/1/16 2:15,62.6,60.8,93.83,180,10,0.0,29.92,M,10.0,17,CLR,M,M,M,M,M,M,M,M,M,M,M,M,M,M,62.6,K8A0 010215Z AUTO 18010G17KT 10SM CLR 17/16 A2992 RMK AO2
8A0,2/1/16 2:35,62.6,60.8,93.83,200,10,0.0,29.93,M,10.0,M,CLR,M,M,M,M,M,M,M,M,M,M,M,M,M,M,62.6,K8A0 010235Z AUTO 20010KT 10SM CLR 17/16 A2993 RMK AO2
8A0,2/1/16 2:55,60.8,60.8,100.0,190,8,0.0,29.94,M,10.0,M,CLR,M,M,M,M,M,M,M,M,M,M,M,M,M,M,60.8,K8A0 010255Z AUTO 19008KT 10SM CLR 16/16 A2994 RMK AO2
8A0,2/1/16 3:15,60.8,60.8,100.0,180,7,0.0,29.94,M,10.0,M,SCT,M,M,M,5500,M,M,M,M,M,M,M,M,M,M,60.8,K8A0 010315Z AUTO 18007KT 10SM SCT055 16/16 A2994 RMK AO2
8A0,2/1/16 3:35,60.8,59.0,93.79,170,4,0.0,29.94,M,10.0,M,SCT,BKN,M,M,3800,5500,M,M,M,M,M,M,M,M,M,60.8,K8A0 010335Z AUTO 17004KT 10SM SCT038 BKN055 16/15 A2994 RMK AO2
8A0,2/1/16 3:55,60.8,60.8,100.0,180,7,0.0,29.94,M,10.0,M,SCT,SCT,OVC,M,3000,3700,5500,M,M,M,M,M,M,M,M,60.8,K8A0 010355Z AUTO 18007KT 10SM SCT030 SCT037 OVC055 16/16 A2994 RMK AO2
8A0,2/1/16 4:15,60.8,60.8,100.0,180,9,0.0,29.94,M,10.0,M,SCT,SCT,BKN,M,2900,3800,4800,M,M,M,M,M,M,M,M,60.8,K8A0 010415Z AUTO 18009KT 10SM SCT029 SCT038 BKN048 16/16 A2994 RMK AO2
8A0,2/1/16 4:35,60.8,60.8,100.0,240,7,0.0,29.95,M,10.0,M,BKN,BKN,OVC,M,1800,3000,4300,M,M,M,M,M,M,M,M,60.8,K8A0 010435Z AUTO 24007KT 10SM BKN018 BKN030 OVC043 16/16 A2995 RMK AO2
8A0,2/1/16 4:55,60.8,60.8,100.0,180,7,0.0,29.95,M,10.0,M,BKN,BKN,OVC,M,1800,3200,6000,M,M,M,M,M,M,M,M,60.8,K8A0 010455Z AUTO 18007KT 10SM BKN018 BKN032 OVC060 16/16 A2995 RMK AO2
8A0,2/1/16 5:15,60.8,60.8,100.0,180,6,0.0,29.95,M,10.0,M,SCT,SCT,OVC,M,1800,2500,6000,M,M,M,M,M,M,M,M,60.8,K8A0 010515Z AUTO 18006KT 10SM SCT018 SCT025 OVC060 16/16 A2995 RMK AO2
8A0,2/1/16 5:35,60.8,60.8,100.0,170,5,0.0,29.94,M,10.0,M,SCT,BKN,OVC,M,2000,2800,6000,M,M,M,M,M,M,M,M,60.8,K8A0 010535Z AUTO 17005KT 10SM SCT020 BKN028 OVC060 16/16 A2994 RMK AO2
8A0,2/1/16 5:55,60.8,60.8,100.0,180,6,0.0,29.94,M,10.0,M,SCT,BKN,OVC,M,1700,2200,2800,M,M,M,M,M,M,M,M,60.8,K8A0 010555Z AUTO 18006KT 10SM SCT017 BKN022 OVC028 16/16 A2994 RMK AO2 LTG DSNT NW
8A0,2/1/16 6:15,60.8,60.8,100.0,170,6,0.0,29.94,M,10.0,M,BKN,OVC,M,M,2000,2400,M,M,M,M,M,M,M,M,M,60.8,K8A0 010615Z AUTO 17006KT 10SM BKN020 OVC024 16/16 A2994 RMK AO2
8A0,2/1/16 6:35,60.8,60.8,100.0,180,6,0.0,29.93,M,10.0,M,OVC,M,M,M,1800,M,M,M,M,M,M,M,M,M,M,60.8,K8A0 010635Z AUTO 18006KT 10SM OVC018 16/16 A2993 RMK AO2
8A0,2/1/16 6:55,60.8,60.8,100.0,170,5,0.0,29.93,M,10.0,M,OVC,M,M,M,1800,M,M,M,M,M,M,M,M,M,M,60.8,K8A0 010655Z AUTO 17005KT 10SM OVC018 16/16 A2993 RMK AO2
8A0,2/1/16 7:15,60.8,60.8,100.0,180,4,0.0,29.93,M,10.0,M,OVC,M,M,M,1800,M,M,M,M,M,M,M,M,M,M,60.8,K8A0 010715Z AUTO 18004KT 10SM OVC018 16/16 A2993 RMK AO2
8A0,2/1/16 7:35,60.8,60.8,100.0,180,3,0.0,29.93,M,10.0,M,OVC,M,M,M,1600,M,M,M,M,M,M,M,M,M,M,60.8,K8A0 010735Z AUTO 18003KT 10SM OVC016 16/16 A2993 RMK AO2
8A0,2/1/16 7:55,60.8,60.8,100.0,200,4,0.0,29.93,M,10.0,M,OVC,M,M,M,1600,M,M,M,M,M,M,M,M,M,M,60.8,K8A0 010755Z AUTO 20004KT 10SM OVC016 16/16 A2993 RMK AO2
8A0,2/1/16 8:15,60.8,60.8,100.0,180,6,0.0,29.93,M,10.0,M,OVC,M,M,M,1400,M,M,M,M,M,M,M,M,M,M,60.8,K8A0 010815Z AUTO 18006KT 10SM OVC014 16/16 A2993 RMK AO2
8A0,2/1/16 8:35,60.8,60.8,100.0,200,5,0.0,29.92,M,10.0,M,OVC,M,M,M,1400,M,M,M,M,M,M,M,M,M,M,60.8,K8A0 010835Z AUTO 20005KT 10SM OVC014 16/16 A2992 RMK AO2
8A0,2/1/16 8:55,60.8,60.8,100.0,200,6,0.0,29.92,M,10.0,M,OVC,M,M,M,1600,M,M,M,M,M,M,M,M,M,M,60.8,K8A0 010855Z AUTO 20006KT 10SM OVC016 16/16 A2992 RMK AO2
8A0,2/1/16 9:15,60.8,60.8,100.0,210,7,0.0,29.92,M,10.0,M,OVC,M,M,M,1400,M,M,M,M,M,M,M,M,M,M,60.8,K8A0 010915Z AUTO 21007KT 10SM OVC014 16/16 A2992 RMK AO2
8A0,2/1/16 9:35,60.8,60.8,100.0,220,6,0.0,29.92,M,10.0,M,OVC,M,M,M,1400,M,M,M,M,M,M,M,M,M,M,60.8,K8A0 010935Z AUTO 22006KT 10SM OVC014 16/16 A2992 RMK AO2
8A0,2/1/16 9:55,60.8,60.8,100.0,220,6,0.0,29.92,M,10.0,M,BKN,BKN,OVC,M,1400,2100,7000,M,M,M,M,M,M,M,M,60.8,K8A0 010955Z AUTO 22006KT 10SM BKN014 BKN021 OVC070 16/16 A2992 RMK AO2
8A0,2/1/16 10:15,60.8,60.8,100.0,210,5,0.0,29.92,M,10.0,M,BKN,BKN,OVC,M,1200,2300,7000,M,M,M,M,M,M,M,M,60.8,K8A0 011015Z AUTO 21005KT 10SM BKN012 BKN023 OVC070 16/16 A2992 RMK AO2
8A0,2/1/16 10:35,60.8,60.8,100.0,210,4,0.0,29.92,M,10.0,M,OVC,M,M,M,1200,M,M,M,M,M,M,M,M,M,M,60.8,K8A0 011035Z AUTO 21004KT 10SM OVC012 16/16 A2992 RMK AO2
8A0,2/1/16 10:55,59.0,59.0,100.0,170,6,0.0,29.92,M,10.0,M,OVC,M,M,M,1200,M,M,M,M,M,M,M,M,M,M,59.0,K8A0 011055Z AUTO 17006KT 10SM OVC012 15/15 A2992 RMK AO2
8A0,2/1/16 11:15,59.0,59.0,100.0,180,5,0.0,29.92,M,10.0,M,BKN,M,M,M,1200,M,M,M,M,M,M,M,M,M,M,59.0,K8A0 011115Z AUTO 18005KT 10SM BKN012 15/15 A2992 RMK AO2
8A0,2/1/16 11:35,59.0,59.0,100.0,200,5,0.0,29.93,M,10.0,M,SCT,BKN,M,M,1200,2400,M,M,M,M,M,M,M,M,M,59.0,K8A0 011135Z AUTO 20005KT 10SM SCT012 BKN024 15/15 A2993 RMK AO2
8A0,2/1/16 11:55,59.0,59.0,100.0,200,6,0.0,29.93,M,10.0,M,BKN,BKN,OVC,M,1200,1800,2400,M,M,M,M,M,M,M,M,59.0,K8A0 011155Z AUTO 20006KT 10SM BKN012 BKN018 OVC024 15/15 A2993 RMK AO2
8A0,2/1/16 12:15,59.0,59.0,100.0,210,4,0.0,29.94,M,10.0,M,OVC,M,M,M,1200,M,M,M,M,M,M,M,M,M,M,59.0,K8A0 011215Z AUTO 21004KT 10SM OVC012 15/15 A2994 RMK AO2
8A0,2/1/16 12:35,59.0,59.0,100.0,210,5,0.0,29.94,M,10.0,M,OVC,M,M,M,1000,M,M,M,#NAME?,M,M,M,M,M,M,59.0,K8A0 011235Z AUTO 21005KT 10SM -RA OVC010 15/15 A2994 RMK AO2
8A0,2/1/16 12:55,59.0,59.0,100.0,190,6,0.0,29.94,M,7.0,M,SCT,SCT,BKN,M,1000,2400,6000,M,M,M,M,M,M,M,M,59.0,K8A0 011255Z AUTO 19006KT 7SM SCT010 SCT024 BKN060 15/15 A2994 RMK AO2
8A0,2/1/16 13:15,59.0,59.0,100.0,190,6,0.0,29.94,M,7.0,M,SCT,SCT,BKN,M,1100,2800,4600,M,M,M,M,M,M,M,M,59.0,K8A0 011315Z AUTO 19006KT 7SM SCT011 SCT028 BKN046 15/15 A2994 RMK AO2
8A0,2/1/16 13:35,59.0,59.0,100.0,190,5,0.0,29.95,M,7.0,M,SCT,SCT,M,M,1100,2800,M,M,M,M,M,M,M,M,M,59.0,K8A0 011335Z AUTO 19005KT 7SM SCT011 SCT028 15/15 A2995 RMK AO2
8A0,2/1/16 13:55,60.8,60.8,100.0,200,6,0.0,29.95,M,10.0,M,BKN,BKN,M,M,1100,1900,M,M,M,M,M,M,M,M,M,60.8,K8A0 011355Z AUTO 20006KT 10SM BKN011 BKN019 16/16 A2995 RMK AO2
8A0,2/1/16 14:15,60.8,60.8,100.0,190,7,0.0,29.95,M,10.0,M,OVC,M,M,M,1100,M,M,M,M,M,M,M,M,M,M,60.8,K8A0 011415Z AUTO 19007KT 10SM OVC011 16/16 A2995 RMK AO2
8A0,2/1/16 14:35,60.8,60.8,100.0,200,8,0.0,29.95,M,10.0,M,OVC,M,M,M,1100,M,M,M,M,M,M,M,M,M,M,60.8,K8A0 011435Z AUTO 20008KT 10SM OVC011 16/16 A2995 RMK AO2
8A0,2/1/16 14:55,60.8,60.8,100.0,210,8,0.0,29.96,M,10.0,M,OVC,M,M,M,1300,M,M,M,M,M,M,M,M,M,M,60.8,K8A0 011455Z AUTO 21008KT 10SM OVC013 16/16 A2996 RMK AO2
8A0,2/1/16 15:15,60.8,60.8,100.0,210,8,0.0,29.97,M,10.0,M,OVC,M,M,M,1300,M,M,M,M,M,M,M,M,M,M,60.8,K8A0 011515Z AUTO 21008KT 10SM OVC013 16/16 A2997 RMK AO2
8A0,2/1/16 15:35,60.8,60.8,100.0,210,8,0.0,29.97,M,7.0,M,OVC,M,M,M,1300,M,M,M,M,M,M,M,M,M,M,60.8,K8A0 011535Z AUTO 21008KT 7SM OVC013 16/16 A2997 RMK AO2
8A0,2/1/16 15:55,62.6,62.6,100.0,220,7,0.0,29.97,M,7.0,M,OVC,M,M,M,1300,M,M,M,M,M,M,M,M,M,M,62.6,K8A0 011555Z AUTO 22007KT 7SM OVC013 17/17 A2997 RMK AO2
8A0,2/1/16 16:15,62.6,62.6,100.0,210,8,0.0,29.97,M,10.0,M,BKN,BKN,BKN,M,1300,2000,3300,M,M,M,M,M,M,M,M,62.6,K8A0 011615Z AUTO 21008KT 10SM BKN013 BKN020 BKN033 17/17 A2997 RMK AO2
8A0,2/1/16 16:35,64.4,62.6,93.88,230,14,0.0,29.97,M,10.0,19,BKN,BKN,BKN,M,1500,2000,2600,M,M,M,M,M,M,M,M,64.4,K8A0 011635Z AUTO 23014G19KT 10SM BKN015 BKN020 BKN026 18/17 A2997 RMK AO2
8A0,2/1/16 16:55,64.4,62.6,93.88,210,10,0.0,29.96,M,10.0,16,SCT,SCT,BKN,M,1700,2600,3800,M,M,M,M,M,M,M,M,64.4,K8A0 011655Z AUTO 21010G16KT 10SM SCT017 SCT026 BKN038 18/17 A2996 RMK AO2
8A0,2/1/16 17:15,66.2,62.6,88.18,220,11,0.0,29.95,M,10.0,M,SCT,SCT,SCT,M,1700,2200,3800,M,M,M,M,M,M,M,M,66.2,K8A0 011715Z AUTO 22011KT 10SM SCT017 SCT022 SCT038 19/17 A2995 RMK AO2
8A0,2/1/16 17:35,66.2,62.6,88.18,230,9,0.0,29.94,M,10.0,15,SCT,BKN,BKN,M,1900,2500,3000,M,M,M,M,M,M,M,M,66.2,K8A0 011735Z AUTO 23009G15KT 10SM SCT019 BKN025 BKN030 19/17 A2994 RMK AO2
8A0,2/1/16 17:55,68.0,62.6,82.86,220,12,0.0,29.94,M,10.0,18,BKN,BKN,OVC,M,2100,3000,4000,M,M,M,M,M,M,M,M,68.0,K8A0 011755Z AUTO 22012G18KT 10SM BKN021 BKN030 OVC040 20/17 A2994 RMK AO2
8A0,2/1/16 18:15,66.2,62.6,88.18,230,8,0.0,29.93,M,10.0,16,SCT,BKN,OVC,M,2100,2800,4300,M,M,M,M,M,M,M,M,66.2,K8A0 011815Z AUTO 23008G16KT 10SM SCT021 BKN028 OVC043 19/17 A2993 RMK AO2
8A0,2/1/16 18:35,66.2,62.6,88.18,240,14,0.0,29.93,M,10.0,M,SCT,BKN,OVC,M,2100,3400,4600,M,M,M,M,M,M,M,M,66.2,K8A0 011835Z AUTO 24014KT 10SM SCT021 BKN034 OVC046 19/17 A2993 RMK AO2
8A0,2/1/16 18:55,64.4,62.6,93.88,240,9,0.0,29.92,M,10.0,M,SCT,BKN,OVC,M,3700,4300,4900,M,M,M,M,M,M,M,M,64.4,K8A0 011855Z AUTO 24009KT 10SM SCT037 BKN043 OVC049 18/17 A2992 RMK AO2
8A0,2/1/16 19:15,68.0,62.6,82.86,270,9,0.0,29.92,M,10.0,M,SCT,BKN,OVC,M,2200,4100,4900,M,M,M,M,M,M,M,M,68.0,K8A0 011915Z AUTO 27009KT 10SM SCT022 BKN041 OVC049 20/17 A2992 RMK AO2
8A0,2/1/16 19:35,68.0,62.6,82.86,230,9,0.0,29.92,M,10.0,M,BKN,BKN,OVC,M,2600,3100,4900,M,M,M,M,M,M,M,M,68.0,K8A0 011935Z AUTO 23009KT 10SM BKN026 BKN031 OVC049 20/17 A2992 RMK AO2
8A0,2/1/16 19:55,68.0,62.6,82.86,240,10,0.0,29.91,M,10.0,M,SCT,BKN,OVC,M,2400,2900,7500,M,M,M,M,M,M,M,M,68.0,K8A0 011955Z AUTO 24010KT 10SM SCT024 BKN029 OVC075 20/17 A2991 RMK AO2
8A0,2/1/16 20:15,68.0,62.6,82.86,230,5,0.0,29.9,M,10.0,14,SCT,SCT,SCT,M,2600,4500,5000,M,M,M,M,M,M,M,M,68.0,K8A0 012015Z AUTO 23005G14KT 10SM SCT026 SCT045 SCT050 20/17 A2990 RMK AO2
8A0,2/1/16 20:35,69.8,62.6,77.9,240,6,0.0,29.9,M,10.0,M,SCT,SCT,BKN,M,2800,3500,4400,M,M,M,M,M,M,M,M,69.8,K8A0 012035Z AUTO 24006KT 189V249 10SM SCT028 SCT035 BKN044 21/17 A2990 RMK AO2
8A0,2/1/16 20:55,68.0,62.6,82.86,280,7,0.0,29.91,M,10.0,M,BKN,BKN,OVC,M,3100,3700,4300,M,M,M,M,M,M,M,M,68.0,K8A0 012055Z AUTO 28007KT 10SM BKN031 BKN037 OVC043 20/17 A2991 RMK AO2
8A0,2/1/16 21:15,68.0,62.6,82.86,270,7,0.0,29.91,M,10.0,M,SCT,BKN,OVC,M,3300,4100,7500,M,M,M,M,M,M,M,M,68.0,K8A0 012115Z AUTO 27007KT 10SM SCT033 BKN041 OVC075 20/17 A2991 RMK AO2
8A0,2/1/16 21:35,68.0,62.6,82.86,230,5,0.0,29.91,M,10.0,M,SCT,SCT,M,M,4900,7500,M,M,M,M,M,M,M,M,M,68.0,K8A0 012135Z AUTO 23005KT 10SM SCT049 SCT075 20/17 A2991 RMK AO2
8A0,2/1/16 21:55,68.0,62.6,82.86,250,5,0.0,29.91,M,10.0,M,SCT,M,M,M,7500,M,M,M,M,M,M,M,M,M,M,68.0,K8A0 012155Z AUTO 25005KT 10SM SCT075 20/17 A2991 RMK AO2
8A0,2/1/16 22:15,68.0,62.6,82.86,250,3,0.0,29.92,M,10.0,M,SCT,M,M,M,7500,M,M,M,M,M,M,M,M,M,M,68.0,K8A0 012215Z AUTO 25003KT 10SM SCT075 20/17 A2992 RMK AO2
8A0,2/1/16 22:35,68.0,62.6,82.86,260,3,0.0,29.92,M,10.0,M,BKN,M,M,M,7500,M,M,M,M,M,M,M,M,M,M,68.0,K8A0 012235Z AUTO 26003KT 10SM BKN075 20/17 A2992 RMK AO2
8A0,2/1/16 22:55,68.0,62.6,82.86,260,3,0.0,29.92,M,10.0,M,SCT,M,M,M,7500,M,M,M,M,M,M,M,M,M,M,68.0,K8A0 012255Z AUTO 26003KT 10SM SCT075 20/17 A2992 RMK AO2
8A0,2/1/16 23:15,64.4,60.8,88.09,260,3,0.0,29.92,M,10.0,M,CLR,M,M,M,M,M,M,M,M,M,M,M,M,M,M,64.4,K8A0 012315Z AUTO 26003KT 10SM CLR 18/16 A2992 RMK AO2
8A0,2/1/16 23:35,64.4,60.8,88.09,290,3,0.0,29.93,M,10.0,M,CLR,M,M,M,M,M,M,M,M,M,M,M,M,M,M,64.4,K8A0 012335Z AUTO 29003KT 10SM CLR 18/16 A2993 RMK AO2
8A0,2/1/16 23:55,62.6,60.8,93.83,0,0,0.0,29.94,M,10.0,M,BKN,M,M,M,7000,M,M,M,M,M,M,M,M,M,M,62.6,K8A0 012355Z AUTO 00000KT 10SM BKN070 17/16 A2994 RMK AO2
8A0,2/2/16 0:15,60.8,60.8,100.0,0,0,0.0,29.94,M,10.0,M,SCT,BKN,M,M,6000,7000,M,M,M,M,M,M,M,M,M,60.8,K8A0 020015Z AUTO 00000KT 10SM SCT060 BKN070 16/16 A2994 RMK AO2
8A0,2/2/16 0:35,60.8,60.8,100.0,0,0,0.0,29.94,M,10.0,M,SCT,M,M,M,6000,M,M,M,M,M,M,M,M,M,M,60.8,K8A0 020035Z AUTO 00000KT 10SM SCT060 16/16 A2994 RMK AO2
8A0,2/2/16 0:55,59.0,59.0,100.0,20,6,0.0,29.94,M,7.0,M,SCT,M,M,M,5500,M,M,M,M,M,M,M,M,M,M,59.0,K8A0 020055Z AUTO 02006KT 7SM SCT055 15/15 A2994 RMK AO2
8A0,2/2/16 1:15,59.0,59.0,100.0,40,5,0.0,29.95,M,7.0,M,BKN,M,M,M,5500,M,M,M,M,M,M,M,M,M,M,59.0,K8A0 020115Z AUTO 04005KT 7SM BKN055 15/15 A2995 RMK AO2
8A0,2/2/16 1:35,59.0,59.0,100.0,40,5,0.0,29.95,M,7.0,M,BKN,BKN,M,M,4300,5500,M,M,M,M,M,M,M,M,M,59.0,K8A0 020135Z AUTO 04005KT 7SM BKN043 BKN055 15/15 A2995 RMK AO2
8A0,2/2/16 1:55,60.8,60.8,100.0,40,6,0.0,29.95,M,7.0,M,SCT,BKN,OVC,M,4300,5000,5500,M,M,M,M,M,M,M,M,60.8,K8A0 020155Z AUTO 04006KT 7SM SCT043 BKN050 OVC055 16/16 A2995 RMK AO2
8A0,2/2/16 2:15,59.0,59.0,100.0,40,4,0.0,29.95,M,7.0,M,SCT,SCT,SCT,M,4100,4800,5500,M,M,M,M,M,M,M,M,59.0,K8A0 020215Z AUTO 04004KT 7SM SCT041 SCT048 SCT055 15/15 A2995 RMK AO2
8A0,2/2/16 2:35,59.0,59.0,100.0,50,5,0.0,29.95,M,7.0,M,SCT,SCT,M,M,4200,5500,M,M,M,M,M,M,M,M,M,59.0,K8A0 020235Z AUTO 05005KT 7SM SCT042 SCT055 15/15 A2995 RMK AO2
8A0,2/2/16 2:55,57.2,57.2,100.0,60,3,0.0,29.95,M,7.0,M,SCT,M,M,M,5500,M,M,M,M,M,M,M,M,M,M,57.2,K8A0 020255Z AUTO 06003KT 7SM SCT055 14/14 A2995 RMK AO2
8A0,2/2/16 3:15,57.2,57.2,100.0,60,4,0.0,29.95,M,5.0,M,SCT,SCT,SCT,M,4100,4700,5500,M,BR,M,M,M,M,M,M,57.2,K8A0 020315Z AUTO 06004KT 5SM BR SCT041 SCT047 SCT055 14/14 A2995 RMK AO2
8A0,2/2/16 3:35,57.2,57.2,100.0,70,3,0.0,29.96,M,5.0,M,SCT,M,M,M,5500,M,M,M,BR,M,M,M,M,M,M,57.2,K8A0 020335Z AUTO 07003KT 5SM BR SCT055 14/14 A2996 RMK AO2
8A0,2/2/16 3:55,57.2,57.2,100.0,70,4,0.0,29.96,M,5.0,M,SCT,SCT,SCT,M,3900,4700,5500,M,BR,M,M,M,M,M,M,57.2,K8A0 020355Z AUTO 07004KT 5SM BR SCT039 SCT047 SCT055 14/14 A2996 RMK AO2
8A0,2/2/16 4:15,57.2,57.2,100.0,0,0,0.0,29.96,M,5.0,M,SCT,M,M,M,3900,M,M,M,BR,M,M,M,M,M,M,57.2,K8A0 020415Z AUTO 00000KT 5SM BR SCT039 14/14 A2996 RMK AO2
8A0,2/2/16 4:35,55.4,55.4,100.0,80,3,0.0,29.95,M,5.0,M,CLR,M,M,M,M,M,M,M,BR,M,M,M,M,M,M,55.4,K8A0 020435Z AUTO 08003KT 5SM BR CLR 13/13 A2995 RMK AO2
8A0,2/2/16 4:55,55.4,55.4,100.0,90,4,0.0,29.95,M,5.0,M,CLR,M,M,M,M,M,M,M,BR,M,M,M,M,M,M,55.4,K8A0 020455Z AUTO 09004KT 5SM BR CLR 13/13 A2995 RMK AO2
8A0,2/2/16 5:15,55.4,55.4,100.0,90,4,0.0,29.95,M,7.0,M,SCT,M,M,M,6000,M,M,M,M,M,M,M,M,M,M,55.4,K8A0 020515Z AUTO 09004KT 7SM SCT060 13/13 A2995 RMK AO2
8A0,2/2/16 5:35,55.4,55.4,100.0,90,4,0.0,29.96,M,5.0,M,SCT,M,M,M,6000,M,M,M,BR,M,M,M,M,M,M,55.4,K8A0 020535Z AUTO 09004KT 5SM BR SCT060 13/13 A2996 RMK AO2
8A0,2/2/16 5:55,55.4,55.4,100.0,0,0,0.0,29.96,M,4.0,M,CLR,M,M,M,M,M,M,M,BR,M,M,M,M,M,M,55.4,K8A0 020555Z AUTO 00000KT 4SM BR CLR 13/13 A2996 RMK AO2
8A0,2/2/16 6:15,55.4,55.4,100.0,0,0,0.0,29.96,M,5.0,M,BKN,BKN,M,M,900,1300,M,M,BR,M,M,M,M,M,M,55.4,K8A0 020615Z AUTO 00000KT 5SM BR BKN009 BKN013 13/13 A2996 RMK AO2
8A0,2/2/16 6:35,57.2,57.2,100.0,120,3,0.0,29.96,M,5.0,M,OVC,M,M,M,700,M,M,M,BR,M,M,M,M,M,M,57.2,K8A0 020635Z AUTO 12003KT 5SM BR OVC007 14/14 A2996 RMK AO2
8A0,2/2/16 6:55,59.0,59.0,100.0,0,0,0.0,29.97,M,5.0,M,OVC,M,M,M,700,M,M,M,BR,M,M,M,M,M,M,59.0,K8A0 020655Z AUTO 00000KT 5SM BR OVC007 15/15 A2997 RMK AO2
8A0,2/2/16 7:15,59.0,59.0,100.0,0,0,0.0,29.97,M,5.0,M,OVC,M,M,M,400,M,M,M,BR,M,M,M,M,M,M,59.0,K8A0 020715Z AUTO 00000KT 5SM BR OVC004 15/15 A2997 RMK AO2
8A0,2/2/16 7:35,59.0,59.0,100.0,0,0,0.0,29.97,M,5.0,M,OVC,M,M,M,400,M,M,M,BR,M,M,M,M,M,M,59.0,K8A0 020735Z AUTO 00000KT 5SM BR OVC004 15/15 A2997 RMK AO2
8A0,2/2/16 7:55,59.0,59.0,100.0,100,3,0.0,29.96,M,5.0,M,OVC,M,M,M,600,M,M,M,BR,M,M,M,M,M,M,59.0,K8A0 020755Z AUTO 10003KT 5SM BR OVC006 15/15 A2996 RMK AO2
8A0,2/2/16 8:15,59.0,59.0,100.0,0,0,0.0,29.97,M,5.0,M,OVC,M,M,M,600,M,M,M,BR,M,M,M,M,M,M,59.0,K8A0 020815Z AUTO 00000KT 5SM BR OVC006 15/15 A2997 RMK AO2
8A0,2/2/16 8:35,59.0,59.0,100.0,130,3,0.0,29.97,M,5.0,M,OVC,M,M,M,400,M,M,M,BR,M,M,M,M,M,M,59.0,K8A0 020835Z AUTO 13003KT 5SM BR OVC004 15/15 A2997 RMK AO2
8A0,2/2/16 8:55,59.0,59.0,100.0,130,3,0.0,29.96,M,5.0,M,OVC,M,M,M,400,M,M,M,BR,M,M,M,M,M,M,59.0,K8A0 020855Z AUTO 13003KT 5SM BR OVC004 15/15 A2996 RMK AO2
8A0,2/2/16 9:15,59.0,59.0,100.0,120,5,0.0,29.97,M,4.0,M,OVC,M,M,M,400,M,M,M,BR,M,M,M,M,M,M,59.0,K8A0 020915Z AUTO 12005KT 4SM BR OVC004 15/15 A2997 RMK AO2
8A0,2/2/16 9:35,59.0,59.0,100.0,0,0,0.0,29.97,M,2.5,M,OVC,M,M,M,400,M,M,M,BR,M,M,M,M,M,M,59.0,K8A0 020935Z AUTO 00000KT 2 1/2SM BR OVC004 15/15 A2997 RMK AO2
8A0,2/2/16 9:55,59.0,59.0,100.0,0,0,0.0,29.97,M,2.0,M,OVC,M,M,M,400,M,M,M,BR,M,M,M,M,M,M,59.0,K8A0 020955Z AUTO 00000KT 2SM BR OVC004 15/15 A2997 RMK AO2
8A0,2/2/16 10:15,59.0,59.0,100.0,0,0,0.0,29.97,M,2.0,M,OVC,M,M,M,200,M,M,M,BR,M,M,M,M,M,M,59.0,K8A0 021015Z AUTO 00000KT 2SM BR OVC002 15/15 A2997 RMK AO2
8A0,2/2/16 10:35,59.0,59.0,100.0,120,3,0.0,29.97,M,3.0,M,OVC,M,M,M,200,M,M,M,BR,M,M,M,M,M,M,59.0,K8A0 021035Z AUTO 12003KT 3SM BR OVC002 15/15 A2997 RMK AO2
8A0,2/2/16 10:55,59.0,59.0,100.0,100,6,0.0,29.95,M,3.0,M,OVC,M,M,M,200,M,M,M,BR,M,M,M,M,M,M,59.0,K8A0 021055Z AUTO 10006KT 3SM BR OVC002 15/15 A2995 RMK AO2
8A0,2/2/16 11:15,59.0,59.0,100.0,130,7,0.0,29.95,M,3.0,M,OVC,M,M,M,200,M,M,M,BR,M,M,M,M,M,M,59.0,K8A0 021115Z AUTO 13007KT 099V159 3SM BR OVC002 15/15 A2995 RMK AO2
8A0,2/2/16 11:35,59.0,59.0,100.0,120,4,0.0,29.96,M,2.0,M,OVC,M,M,M,200,M,M,M,BR,M,M,M,M,M,M,59.0,K8A0 021135Z AUTO 12004KT 2SM BR OVC002 15/15 A2996 RMK AO2
8A0,2/2/16 11:55,59.0,59.0,100.0,120,3,0.0,29.97,M,4.0,M,OVC,M,M,M,200,M,M,M,BR,M,M,M,M,M,M,59.0,K8A0 021155Z AUTO 12003KT 4SM BR OVC002 15/15 A2997 RMK AO2
8A0,2/2/16 12:15,60.8,60.8,100.0,150,4,0.0,29.99,M,5.0,M,OVC,M,M,M,400,M,M,M,BR,M,M,M,M,M,M,60.8,K8A0 021215Z AUTO 15004KT 5SM BR OVC004 16/16 A2999 RMK AO2
8A0,2/2/16 12:35,60.8,60.8,100.0,140,6,0.0,29.98,M,7.0,M,OVC,M,M,M,400,M,M,M,M,M,M,M,M,M,M,60.8,K8A0 021235Z AUTO 14006KT 7SM OVC004 16/16 A2998 RMK AO2
8A0,2/2/16 12:55,60.8,60.8,100.0,160,6,0.0,29.99,M,7.0,M,OVC,M,M,M,400,M,M,M,M,M,M,M,M,M,M,60.8,K8A0 021255Z AUTO 16006KT 7SM OVC004 16/16 A2999 RMK AO2
8A0,2/2/16 13:15,60.8,60.8,100.0,140,4,0.0,29.99,M,5.0,M,OVC,M,M,M,400,M,M,M,BR,M,M,M,M,M,M,60.8,K8A0 021315Z AUTO 14004KT 5SM BR OVC004 16/16 A2999 RMK AO2
8A0,2/2/16 13:35,60.8,60.8,100.0,140,7,0.0,29.98,M,5.0,M,OVC,M,M,M,400,M,M,M,BR,M,M,M,M,M,M,60.8,K8A0 021335Z AUTO 14007KT 079V179 5SM BR OVC004 16/16 A2998 RMK AO2
8A0,2/2/16 13:55,60.8,60.8,100.0,140,6,0.0,29.99,M,7.0,M,BKN,OVC,M,M,400,900,M,M,M,M,M,M,M,M,M,60.8,K8A0 021355Z AUTO 14006KT 7SM BKN004 OVC009 16/16 A2999 RMK AO2
8A0,2/2/16 14:15,60.8,60.8,100.0,130,5,0.0,30.0,M,10.0,M,OVC,M,M,M,700,M,M,M,M,M,M,M,M,M,M,60.8,K8A0 021415Z AUTO 13005KT 10SM OVC007 16/16 A3000 RMK AO2
8A0,2/2/16 14:35,62.6,62.6,100.0,130,4,0.0,29.99,M,10.0,15,SCT,OVC,M,M,700,9000,M,M,M,M,M,M,M,M,M,62.6,K8A0 021435Z AUTO 13004G15KT 10SM SCT007 OVC090 17/17 A2999 RMK AO2
8A0,2/2/16 14:55,62.6,62.6,100.0,130,7,0.0,29.99,M,10.0,M,OVC,M,M,M,10000,M,M,M,M,M,M,M,M,M,M,62.6,K8A0 021455Z AUTO 13007KT 099V169 10SM OVC100 17/17 A2999 RMK AO2
8A0,2/2/16 15:15,62.6,62.6,100.0,150,6,0.0,30.0,M,10.0,M,SCT,OVC,M,M,1500,10000,M,M,M,M,M,M,M,M,M,62.6,K8A0 021515Z AUTO 15006KT 10SM SCT015 OVC100 17/17 A3000 RMK AO2
8A0,2/2/16 15:35,62.6,62.6,100.0,140,9,0.0,29.99,M,10.0,15,BKN,BKN,M,M,7000,10000,M,M,M,M,M,M,M,M,M,62.6,K8A0 021535Z AUTO 14009G15KT 10SM BKN070 BKN100 17/17 A2999 RMK AO2
8A0,2/2/16 15:55,64.4,62.6,93.88,160,10,0.0,29.98,M,10.0,19,SCT,M,M,M,7000,M,M,M,M,M,M,M,M,M,M,64.4,K8A0 021555Z AUTO 16010G19KT 119V179 10SM SCT070 18/17 A2998 RMK AO2
8A0,2/2/16 16:15,68.0,62.6,82.86,150,9,0.0,29.97,M,10.0,21,CLR,M,M,M,M,M,M,M,M,M,M,M,M,M,M,68.0,K8A0 021615Z AUTO 15009G21KT 129V189 10SM CLR 20/17 A2997 RMK AO2
8A0,2/2/16 16:35,68.0,62.6,82.86,160,15,0.0,29.97,M,10.0,21,SCT,M,M,M,11000,M,M,M,M,M,M,M,M,M,M,68.0,K8A0 021635Z AUTO 16015G21KT 10SM SCT110 20/17 A2997 RMK AO2
8A0,2/2/16 16:55,68.0,62.6,82.86,150,14,0.0,29.95,M,10.0,19,SCT,M,M,M,11000,M,M,M,M,M,M,M,M,M,M,68.0,K8A0 021655Z AUTO 15014G19KT 10SM SCT110 20/17 A2995 RMK AO2
8A0,2/2/16 17:15,69.8,62.6,77.9,170,13,0.0,29.94,M,10.0,22,SCT,M,M,M,11000,M,M,M,M,M,M,M,M,M,M,69.8,K8A0 021715Z AUTO 17013G22KT 10SM SCT110 21/17 A2994 RMK AO2
8A0,2/2/16 17:35,69.8,60.8,73.09,150,11,0.0,29.93,M,10.0,20,SCT,BKN,M,M,8000,10000,M,M,M,M,M,M,M,M,M,69.8,K8A0 021735Z AUTO 15011G20KT 10SM SCT080 BKN100 21/16 A2993 RMK AO2
8A0,2/2/16 17:55,69.8,60.8,73.09,160,11,0.0,29.92,M,10.0,23,OVC,M,M,M,10000,M,M,M,M,M,M,M,M,M,M,69.8,K8A0 021755Z AUTO 16011G23KT 119V179 10SM OVC100 21/16 A2992 RMK AO2
8A0,2/2/16 18:15,71.6,62.6,73.27,150,11,0.0,29.9,M,10.0,21,OVC,M,M,M,9000,M,M,M,M,M,M,M,M,M,M,71.6,K8A0 021815Z AUTO 15011G21KT 119V179 10SM OVC090 22/17 A2990 RMK AO2
8A0,2/2/16 18:35,73.4,60.8,64.69,160,16,0.0,29.88,M,10.0,24,SCT,M,M,M,9000,M,M,M,M,M,M,M,M,M,M,73.4,K8A0 021835Z AUTO 16016G24KT 10SM SCT090 23/16 A2988 RMK AO2
8A0,2/2/16 18:55,73.4,60.8,64.69,160,17,0.0,29.88,M,10.0,26,SCT,SCT,M,M,4800,12000,M,M,M,M,M,M,M,M,M,73.4,K8A0 021855Z AUTO 16017G26KT 10SM SCT048 SCT120 23/16 A2988 RMK AO2
8A0,2/2/16 19:15,73.4,60.8,64.69,160,13,0.0,29.87,M,10.0,26,SCT,SCT,BKN,M,5000,6500,10000,M,M,M,M,M,M,M,M,73.4,K8A0 021915Z AUTO 16013G26KT 119V189 10SM SCT050 SCT065 BKN100 23/16 A2987 RMK AO2
8A0,2/2/16 19:35,73.4,60.8,64.69,170,16,0.0,29.86,M,10.0,28,BKN,BKN,OVC,M,5000,5500,10000,M,M,M,M,M,M,M,M,73.4,K8A0 021935Z AUTO 17016G28KT 10SM BKN050 BKN055 OVC100 23/16 A2986 RMK AO2
8A0,2/2/16 19:55,71.6,62.6,73.27,170,15,0.0,29.85,M,10.0,24,SCT,BKN,BKN,M,2600,5000,7500,M,#NAME?,M,M,M,M,M,M,71.6,K8A0 021955Z AUTO 17015G24KT 10SM -DZ SCT026 BKN050 BKN075 22/17 A2985 RMK AO2
8A0,2/2/16 20:15,73.4,60.8,64.69,160,14,0.0,29.84,M,10.0,24,SCT,SCT,M,M,4700,7000,M,M,M,M,M,M,M,M,M,73.4,K8A0 022015Z AUTO 16014G24KT 10SM SCT047 SCT070 23/16 A2984 RMK AO2
8A0,2/2/16 20:35,71.6,60.8,68.75,150,12,0.0,29.83,M,10.0,22,SCT,SCT,M,M,4800,11000,M,M,M,M,M,M,M,M,M,71.6,K8A0 022035Z AUTO 15012G22KT 10SM SCT048 SCT110 22/16 A2983 RMK AO2
8A0,2/2/16 20:55,71.6,60.8,68.75,160,16,0.0,29.84,M,10.0,26,SCT,OVC,M,M,4800,9000,M,M,M,M,M,M,M,M,M,71.6,K8A0 022055Z AUTO 16016G26KT 10SM SCT048 OVC090 22/16 A2984 RMK AO2 LTG DSNT W
8A0,2/2/16 21:15,71.6,60.8,68.75,160,13,0.0,29.83,M,10.0,26,SCT,SCT,OVC,M,4600,8000,9000,M,M,M,M,M,M,M,M,71.6,K8A0 022115Z AUTO 16013G26KT 10SM SCT046 SCT080 OVC090 22/16 A2983 RMK AO2
8A0,2/2/16 21:35,71.6,60.8,68.75,170,16,0.0,29.83,M,10.0,24,BKN,BKN,OVC,M,4600,5000,10000,M,M,M,M,M,M,M,M,71.6,K8A0 022135Z AUTO 17016G24KT 10SM BKN046 BKN050 OVC100 22/16 A2983 RMK AO2 LTG DSNT NW
8A0,2/2/16 21:55,68.0,62.6,82.86,160,8,0.0,29.85,M,7.0,18,BKN,BKN,OVC,M,4400,6000,10000,M,RA,M,M,M,M,M,M,68.0,K8A0 022155Z AUTO 16008G18KT 7SM RA BKN044 BKN060 OVC100 20/17 A2985 RMK AO2
8A0,2/2/16 22:15,64.4,64.4,100.0,150,8,0.0,29.85,M,7.0,M,BKN,BKN,OVC,M,3800,4600,6000,M,RA,M,M,M,M,M,M,64.4,K8A0 022215Z AUTO 15008KT 7SM RA BKN038 BKN046 OVC060 18/18 A2985 RMK AO2
8A0,2/2/16 22:35,64.4,64.4,100.0,170,7,0.0,29.86,M,10.0,M,BKN,BKN,OVC,M,3800,4600,10000,M,#NAME?,M,M,M,M,M,M,64.4,K8A0 022235Z AUTO 17007KT 10SM -RA BKN038 BKN046 OVC100 18/18 A2986 RMK AO2
8A0,2/2/16 22:55,64.4,64.4,100.0,150,8,0.02,29.86,M,7.0,14,SCT,BKN,OVC,M,1600,3900,6500,M,#NAME?,M,M,M,M,M,M,64.4,K8A0 022255Z AUTO 15008G14KT 129V189 7SM -RA SCT016 BKN039 OVC065 18/18 A2986 RMK AO2 P0002
8A0,2/2/16 23:15,64.4,64.4,100.0,140,7,0.01,29.85,M,10.0,M,SCT,BKN,OVC,M,3400,3900,11000,M,#NAME?,M,M,M,M,M,M,64.4,K8A0 022315Z AUTO 14007KT 109V169 10SM -RA SCT034 BKN039 OVC110 18/18 A2985 RMK AO2 P0001
8A0,2/2/16 23:35,62.6,62.6,100.0,140,8,0.06,29.85,M,4.0,16,SCT,BKN,OVC,M,2000,3600,7500,M,#NAME?,M,M,M,M,M,M,62.6,K8A0 022335Z AUTO 14008G16KT 119V179 4SM +RA SCT020 BKN036 OVC075 17/17 A2985 RMK AO2 P0006
8A0,2/2/16 23:55,62.6,62.6,100.0,140,11,0.08,29.85,M,7.0,19,SCT,BKN,OVC,M,3100,3800,7500,M,#NAME?,M,M,M,M,M,M,62.6,K8A0 022355Z AUTO 14011G19KT 7SM -RA SCT031 BKN038 OVC075 17/17 A2985 RMK AO2 P0008
8A0,2/3/16 0:15,62.6,62.6,100.0,140,11,0.0,29.85,M,10.0,17,BKN,BKN,BKN,M,3200,4200,7500,M,M,M,M,M,M,M,M,62.6,K8A0 030015Z AUTO 14011G17KT 10SM BKN032 BKN042 BKN075 17/17 A2985 RMK AO2
8A0,2/3/16 0:35,62.6,62.6,100.0,150,13,0.0,29.84,M,10.0,19,SCT,SCT,BKN,M,2500,3300,3900,M,M,M,M,M,M,M,M,62.6,K8A0 030035Z AUTO 15013G19KT 10SM SCT025 SCT033 BKN039 17/17 A2984 RMK AO2 LTG DSNT NW
8A0,2/3/16 0:55,62.6,62.6,100.0,150,9,0.0,29.85,M,10.0,17,BKN,BKN,BKN,M,2500,3000,3800,M,M,M,M,M,M,M,M,62.6,K8A0 030055Z AUTO 15009G17KT 10SM BKN025 BKN030 BKN038 17/17 A2985 RMK AO2
8A0,2/3/16 1:15,64.4,64.4,100.0,150,13,0.0,29.84,M,10.0,21,BKN,OVC,M,M,2100,2900,M,M,M,M,M,M,M,M,M,64.4,K8A0 030115Z AUTO 15013G21KT 10SM BKN021 OVC029 18/18 A2984 RMK AO2 LTG DSNT NW
8A0,2/3/16 1:35,64.4,64.4,100.0,150,12,0.0,29.84,M,7.0,19,BKN,OVC,M,M,1900,2600,M,M,RA,M,M,M,M,M,M,64.4,K8A0 030135Z AUTO 15012G19KT 119V179 7SM RA BKN019 OVC026 18/18 A2984 RMK AO2
8A0,2/3/16 1:55,62.6,62.6,100.0,150,12,0.0,29.83,M,10.0,22,SCT,BKN,OVC,M,1500,2100,2800,M,#NAME?,M,M,M,M,M,M,62.6,K8A0 030155Z AUTO 15012G22KT 129V189 10SM -RA SCT015 BKN021 OVC028 17/17 A2983 RMK AO2 LTG DSNT W AND NW
8A0,2/3/16 2:15,62.6,62.6,100.0,150,14,0.0,29.83,M,10.0,21,SCT,BKN,OVC,M,1300,1800,2400,M,#NAME?,M,M,M,M,M,M,62.6,K8A0 030215Z AUTO 15014G21KT 10SM -RA SCT013 BKN018 OVC024 17/17 A2983 RMK AO2 LTG DSNT NW
8A0,2/3/16 2:35,62.6,62.6,100.0,150,14,0.0,29.83,M,10.0,26,BKN,OVC,M,M,1500,1900,M,M,RA,M,M,M,M,M,M,62.6,K8A0 030235Z AUTO 15014G26KT 10SM RA BKN015 OVC019 17/17 A2983 RMK AO2 LTG DSNT NW
8A0,2/3/16 2:55,62.6,62.6,100.0,140,10,0.04,29.81,M,4.0,20,BKN,BKN,OVC,M,1500,1900,2800,M,#NAME?,M,M,M,M,M,M,62.6,K8A0 030255Z AUTO 14010G20KT 099V169 4SM +RA BKN015 BKN019 OVC028 17/17 A2981 RMK AO2 P0004 LTG DSNT NW
8A0,2/3/16 3:15,62.6,62.6,100.0,150,12,0.03,29.81,M,4.0,18,BKN,BKN,OVC,M,1500,2100,2500,M,#NAME?,M,M,M,M,M,M,62.6,K8A0 030315Z AUTO 15012G18KT 4SM +RA BKN015 BKN021 OVC025 17/17 A2981 RMK AO2 P0003 LTG DSNT NW
8A0,2/3/16 3:35,62.6,62.6,100.0,150,13,0.05,29.8,M,7.0,22,BKN,BKN,OVC,M,1000,1800,2500,M,#NAME?,M,M,M,M,M,M,62.6,K8A0 030335Z AUTO 15013G22KT 7SM -RA BKN010 BKN018 OVC025 17/17 A2980 RMK AO2 P0005
8A0,2/3/16 3:55,62.6,62.6,100.0,160,13,0.08,29.81,M,4.0,21,BKN,OVC,M,M,1200,1900,M,M,#NAME?,M,M,M,M,M,M,62.6,K8A0 030355Z AUTO 16013G21KT 4SM +RA BKN012 OVC019 17/17 A2981 RMK AO2 P0008 LTG DSNT N
8A0,2/3/16 4:15,62.6,62.6,100.0,160,11,0.0,29.8,M,10.0,19,BKN,OVC,M,M,1200,1600,M,M,#NAME?,M,M,M,M,M,M,62.6,K8A0 030415Z AUTO 16011G19KT 10SM -RA BKN012 OVC016 17/17 A2980 RMK AO2
8A0,2/3/16 4:35,62.6,62.6,100.0,160,16,0.01,29.8,M,7.0,26,BKN,OVC,M,M,1000,1400,M,M,RA,M,M,M,M,M,M,62.6,K8A0 030435Z AUTO 16016G26KT 7SM RA BKN010 OVC014 17/17 A2980 RMK AO2 P0001 LTG DSNT NW
8A0,2/3/16 4:55,62.6,62.6,100.0,160,12,0.04,29.79,M,10.0,17,BKN,OVC,M,M,1100,1600,M,M,#NAME?,M,M,M,M,M,M,62.6,K8A0 030455Z AUTO 16012G17KT 139V199 10SM -VCTSRA BKN011 OVC016 17/17 A2979 RMK AO2 P0004
8A0,2/3/16 5:15,62.6,62.6,100.0,170,16,0.01,29.79,M,5.0,21,BKN,BKN,OVC,M,1100,1900,7000,M,RA,M,M,M,M,M,M,62.6,K8A0 030515Z AUTO 17016G21KT 5SM RA BKN011 BKN019 OVC070 17/17 A2979 RMK AO2 P0001
8A0,2/3/16 5:35,64.4,64.4,100.0,180,14,0.07,29.8,M,3.0,21,BKN,BKN,OVC,M,1200,2000,3200,M,#NAME?,M,M,M,M,M,M,64.4,K8A0 030535Z AUTO 18014G21KT 3SM +RA BKN012 BKN020 OVC032 18/18 A2980 RMK AO2 P0007 LTG DSNT W
8A0,2/3/16 5:55,64.4,64.4,100.0,160,10,0.14,29.77,M,3.0,18,SCT,OVC,M,M,1000,1500,M,M,#NAME?,M,M,M,M,M,M,64.4,K8A0 030555Z AUTO 16010G18KT 3SM +RA SCT010 OVC015 18/18 A2977 RMK AO2 P0014
8A0,2/3/16 6:15,64.4,64.4,100.0,170,15,0.07,29.76,M,2.5,21,SCT,BKN,OVC,M,800,1500,2000,M,#NAME?,M,M,M,M,M,M,64.4,K8A0 030615Z AUTO 17015G21KT 2 1/2SM +RA SCT008 BKN015 OVC020 18/18 A2976 RMK AO2 P0007
8A0,2/3/16 6:35,64.4,64.4,100.0,180,14,0.12,29.77,M,3.0,37,BKN,OVC,M,M,1100,1700,M,M,#NAME?,M,M,M,M,M,M,64.4,K8A0 030635Z AUTO 18014G37KT 3SM +RA BKN011 OVC017 18/18 A2977 RMK AO2 P0012 LTG DSNT SW AND NW
8A0,2/3/16 6:55,64.4,64.4,100.0,170,15,0.18,29.76,M,3.0,26,BKN,OVC,M,M,1100,1600,M,M,#NAME?,M,M,M,M,M,M,64.4,K8A0 030655Z AUTO 17015G26KT 3SM +VCTSRA BKN011 OVC016 18/18 A2976 RMK AO2 P0018 LTG DSNT SE W AND NW
8A0,2/3/16 7:15,64.4,64.4,100.0,190,14,0.02,29.77,M,7.0,22,SCT,BKN,OVC,M,600,2200,2700,M,#NAME?,M,M,M,M,M,M,64.4,K8A0 030715Z AUTO 19014G22KT 7SM -RA SCT006 BKN022 OVC027 18/18 A2977 RMK AO2 P0002 LTG DSNT SW THRU N
8A0,2/3/16 7:35,64.4,64.4,100.0,190,11,0.02,29.76,M,10.0,15,SCT,BKN,OVC,M,1800,2600,3500,M,TSRA,M,M,M,M,M,M,64.4,K8A0 030735Z AUTO 19011G15KT 10SM TSRA SCT018 BKN026 OVC035 18/18 A2976 RMK AO2 P0002 LTG DSNT SW THRU NE
8A0,2/3/16 7:55,64.4,64.4,100.0,260,17,0.3,29.77,M,1.75,25,SCT,BKN,OVC,M,500,1300,2400,M,#NAME?,M,M,M,M,M,M,64.4,K8A0 030755Z AUTO 26017G25KT 1 3/4SM +TSRA SCT005 BKN013 OVC024 18/18 A2977 RMK AO2 P0030 LTG DSNT N THRU SE
8A0,2/3/16 8:15,60.8,60.8,100.0,270,19,0.06,29.81,M,4.0,28,SCT,BKN,OVC,M,800,1400,2800,M,RA,M,M,M,M,M,M,60.8,K8A0 030815Z AUTO 27019G28KT 4SM RA SCT008 BKN014 OVC028 16/16 A2981 RMK AO2 P0006 LTG DSNT SE AND S
8A0,2/3/16 8:35,55.4,55.4,100.0,270,15,0.12,29.84,M,5.0,18,SCT,BKN,OVC,M,900,2800,4000,M,#NAME?,M,M,M,M,M,M,55.4,K8A0 030835Z AUTO 27015G18KT 5SM +RA SCT009 BKN028 OVC040 13/13 A2984 RMK AO2 P0012 LTG DSNT NE AND SE
8A0,2/3/16 8:55,55.4,55.4,100.0,280,10,0.22,29.86,M,5.0,M,SCT,BKN,OVC,M,600,3000,4600,M,VCTSRA,M,M,M,M,M,M,55.4,K8A0 030855Z AUTO 28010KT 5SM VCTSRA SCT006 BKN030 OVC046 13/13 A2986 RMK AO2 P0022 LTG DSNT NE AND SE
8A0,2/3/16 9:15,55.4,55.4,100.0,280,5,0.01,29.86,M,10.0,M,SCT,BKN,OVC,M,800,9000,11000,M,RA,M,M,M,M,M,M,55.4,K8A0 030915Z AUTO 28005KT 10SM RA SCT008 BKN090 OVC110 13/13 A2986 RMK AO2 P0001 LTG DSNT SE
8A0,2/3/16 9:35,53.6,53.6,100.0,230,7,0.02,29.87,M,10.0,M,SCT,BKN,OVC,M,900,5000,9000,M,RA,M,M,M,M,M,M,53.6,K8A0 030935Z AUTO 23007KT 10SM RA SCT009 BKN050 OVC090 12/12 A2987 RMK AO2 P0002
8A0,2/3/16 9:55,53.6,53.6,100.0,250,8,0.03,29.87,M,10.0,M,SCT,BKN,OVC,M,1100,4800,6000,M,#NAME?,M,M,M,M,M,M,53.6,K8A0 030955Z AUTO 25008KT 10SM -RA SCT011 BKN048 OVC060 12/12 A2987 RMK AO2 P0003
8A0,2/3/16 10:15,53.6,53.6,100.0,260,6,0.0,29.87,M,10.0,M,SCT,BKN,OVC,M,4600,5000,10000,M,#NAME?,M,M,M,M,M,M,53.6,K8A0 031015Z AUTO 26006KT 10SM -RA SCT046 BKN050 OVC100 12/12 A2987 RMK AO2
8A0,2/3/16 10:35,51.8,51.8,100.0,250,7,0.02,29.9,M,10.0,M,SCT,BKN,OVC,M,4400,6000,10000,M,#NAME?,M,M,M,M,M,M,51.8,K8A0 031035Z AUTO 25007KT 10SM -RA SCT044 BKN060 OVC100 11/11 A2990 RMK AO2 P0002
8A0,2/3/16 10:55,51.8,51.8,100.0,270,7,0.05,29.89,M,7.0,M,SCT,BKN,OVC,M,900,3400,5000,M,RA,M,M,M,M,M,M,51.8,K8A0 031055Z AUTO 27007KT 7SM RA SCT009 BKN034 OVC050 11/11 A2989 RMK AO2 P0005
8A0,2/3/16 11:15,51.8,51.8,100.0,280,6,0.02,29.88,M,7.0,M,SCT,BKN,OVC,M,1100,4900,7000,M,RA,M,M,M,M,M,M,51.8,K8A0 031115Z AUTO 28006KT 7SM RA SCT011 BKN049 OVC070 11/11 A2988 RMK AO2 P0002
8A0,2/3/16 11:35,51.8,51.8,100.0,270,3,0.04,29.87,M,10.0,M,SCT,SCT,OVC,M,1200,5000,10000,M,RA,M,M,M,M,M,M,51.8,K8A0 031135Z AUTO 27003KT 10SM RA SCT012 SCT050 OVC100 11/11 A2987 RMK AO2 P0004
8A0,2/3/16 11:55,51.8,51.8,100.0,230,3,0.06,29.9,M,7.0,M,SCT,BKN,OVC,M,1000,6000,9000,M,RA,M,M,M,M,M,M,51.8,K8A0 031155Z AUTO 23003KT 7SM RA SCT010 BKN060 OVC090 11/11 A2990 RMK AO2 P0006
8A0,2/3/16 12:15,51.8,51.8,100.0,0,0,0.01,29.86,M,7.0,M,SCT,BKN,OVC,M,6000,8000,10000,M,#NAME?,M,M,M,M,M,M,51.8,K8A0 031215Z AUTO 00000KT 7SM -DZ SCT060 BKN080 OVC100 11/11 A2986 RMK AO2 P0001
8A0,2/3/16 12:35,51.8,51.8,100.0,0,0,0.01,29.91,M,10.0,M,SCT,BKN,OVC,M,1400,9000,10000,M,#NAME?,M,M,M,M,M,M,51.8,K8A0 031235Z AUTO 00000KT 10SM -RA SCT014 BKN090 OVC100 11/11 A2991 RMK AO2 P0001
8A0,2/3/16 12:55,51.8,51.8,100.0,0,0,0.01,29.9,M,10.0,M,BKN,OVC,M,M,1400,9000,M,M,M,M,M,M,M,M,M,51.8,K8A0 031255Z AUTO 00000KT 10SM BKN014 OVC090 11/11 A2990 RMK AO2 P0001
8A0,2/3/16 13:15,51.8,51.8,100.0,0,0,0.0,29.9,M,10.0,M,SCT,BKN,M,M,1200,9500,M,M,M,M,M,M,M,M,M,51.8,K8A0 031315Z AUTO 00000KT 10SM SCT012 BKN095 11/11 A2990 RMK AO2
8A0,2/3/16 13:35,51.8,51.8,100.0,190,4,0.0,29.92,M,7.0,M,SCT,M,M,M,11000,M,M,M,M,M,M,M,M,M,M,51.8,K8A0 031335Z AUTO 19004KT 7SM SCT110 11/11 A2992 RMK AO2
8A0,2/3/16 13:55,51.8,51.8,100.0,200,3,0.0,29.92,M,10.0,M,SCT,M,M,M,11000,M,M,M,M,M,M,M,M,M,M,51.8,K8A0 031355Z AUTO 20003KT 10SM SCT110 11/11 A2992 RMK AO2
8A0,2/3/16 14:15,51.8,51.8,100.0,220,4,0.0,29.92,M,10.0,M,SCT,SCT,M,M,400,11000,M,M,M,M,M,M,M,M,M,51.8,K8A0 031415Z AUTO 22004KT 10SM SCT004 SCT110 11/11 A2992 RMK AO2
8A0,2/3/16 14:35,51.8,51.8,100.0,250,4,0.0,29.92,M,10.0,M,CLR,M,M,M,M,M,M,M,M,M,M,M,M,M,M,51.8,K8A0 031435Z AUTO 25004KT 10SM CLR 11/11 A2992 RMK AO2
8A0,2/3/16 14:55,51.8,51.8,100.0,240,6,0.0,29.92,M,10.0,M,CLR,M,M,M,M,M,M,M,M,M,M,M,M,M,M,51.8,K8A0 031455Z AUTO 24006KT 10SM CLR 11/11 A2992 RMK AO2
8A0,2/3/16 15:15,51.8,51.8,100.0,260,7,0.0,29.93,M,10.0,M,CLR,M,M,M,M,M,M,M,M,M,M,M,M,M,M,51.8,K8A0 031515Z AUTO 26007KT 10SM CLR 11/11 A2993 RMK AO2
8A0,2/3/16 15:35,51.8,51.8,100.0,250,6,0.0,29.94,M,10.0,M,SCT,M,M,M,10000,M,M,M,M,M,M,M,M,M,M,51.8,K8A0 031535Z AUTO 25006KT 10SM SCT100 11/11 A2994 RMK AO2
8A0,2/3/16 15:55,53.6,53.6,100.0,250,6,0.0,29.95,M,10.0,M,BKN,M,M,M,10000,M,M,M,M,M,M,M,M,M,M,53.6,K8A0 031555Z AUTO 25006KT 10SM BKN100 12/12 A2995 RMK AO2
8A0,2/3/16 16:15,55.4,51.8,87.65,260,7,0.0,29.96,M,10.0,M,CLR,M,M,M,M,M,M,M,M,M,M,M,M,M,M,55.4,K8A0 031615Z AUTO 26007KT 10SM CLR 13/11 A2996 RMK AO2
8A0,2/3/16 16:35,55.4,51.8,87.65,260,5,0.0,29.95,M,10.0,M,CLR,M,M,M,M,M,M,M,M,M,M,M,M,M,M,55.4,K8A0 031635Z AUTO 26005KT 10SM CLR 13/11 A2995 RMK AO2
8A0,2/3/16 16:55,57.2,51.8,82.12,260,9,0.0,29.94,M,10.0,M,SCT,M,M,M,11000,M,M,M,M,M,M,M,M,M,M,57.2,K8A0 031655Z AUTO 26009KT 10SM SCT110 14/11 A2994 RMK AO2
8A0,2/3/16 17:15,59.0,51.8,76.98,250,8,0.0,29.93,M,10.0,M,SCT,M,M,M,11000,M,M,M,M,M,M,M,M,M,M,59.0,K8A0 031715Z AUTO 25008KT 229V289 10SM SCT110 15/11 A2993 RMK AO2
8A0,2/3/16 17:35,59.0,50.0,72.01,290,8,0.0,29.94,M,10.0,M,BKN,M,M,M,10000,M,M,M,M,M,M,M,M,M,M,59.0,K8A0 031735Z AUTO 29008KT 10SM BKN100 15/10 A2994 RMK AO2
8A0,2/3/16 17:55,59.0,50.0,72.01,250,6,0.0,29.94,M,10.0,14,SCT,M,M,M,10000,M,M,M,M,M,M,M,M,M,M,59.0,K8A0 031755Z AUTO 25006G14KT 10SM SCT100 15/10 A2994 RMK AO2
8A0,2/3/16 18:15,60.8,46.4,59.01,270,9,0.0,29.92,M,10.0,M,BKN,BKN,M,M,10000,12000,M,M,M,M,M,M,M,M,M,60.8,K8A0 031815Z AUTO 27009KT 10SM BKN100 BKN120 16/08 A2992 RMK AO2
8A0,2/3/16 18:35,60.8,46.4,59.01,270,11,0.0,29.92,M,10.0,M,BKN,BKN,M,M,10000,12000,M,M,M,M,M,M,M,M,M,60.8,K8A0 031835Z AUTO 27011KT 10SM BKN100 BKN120 16/08 A2992 RMK AO2
8A0,2/3/16 18:55,59.0,46.4,62.92,260,10,0.0,29.93,M,10.0,M,BKN,BKN,M,M,10000,12000,M,M,M,M,M,M,M,M,M,59.0,K8A0 031855Z AUTO 26010KT 10SM BKN100 BKN120 15/08 A2993 RMK AO2
8A0,2/3/16 19:15,60.8,46.4,59.01,260,10,0.0,29.93,M,10.0,M,BKN,M,M,M,9000,M,M,M,M,M,M,M,M,M,M,60.8,K8A0 031915Z AUTO 26010KT 10SM BKN090 16/08 A2993 RMK AO2
8A0,2/3/16 19:35,60.8,46.4,59.01,260,8,0.0,29.93,M,10.0,M,SCT,SCT,M,M,10000,12000,M,M,M,M,M,M,M,M,M,60.8,K8A0 031935Z AUTO 26008KT 10SM SCT100 SCT120 16/08 A2993 RMK AO2
8A0,2/3/16 19:55,59.0,46.4,62.92,260,10,0.0,29.92,M,10.0,M,BKN,BKN,M,M,10000,12000,M,M,M,M,M,M,M,M,M,59.0,K8A0 031955Z AUTO 26010KT 10SM BKN100 BKN120 15/08 A2992 RMK AO2
8A0,2/3/16 20:15,59.0,44.6,58.77,250,7,0.0,29.92,M,10.0,M,BKN,M,M,M,10000,M,M,M,M,M,M,M,M,M,M,59.0,K8A0 032015Z AUTO 25007KT 10SM BKN100 15/07 A2992 RMK AO2
8A0,2/3/16 20:35,59.0,44.6,58.77,250,9,0.0,29.93,M,10.0,M,OVC,M,M,M,10000,M,M,M,M,M,M,M,M,M,M,59.0,K8A0 032035Z AUTO 25009KT 10SM OVC100 15/07 A2993 RMK AO2
8A0,2/3/16 20:55,59.0,42.8,54.86,260,9,0.0,29.94,M,10.0,M,OVC,M,M,M,10000,M,M,M,M,M,M,M,M,M,M,59.0,K8A0 032055Z AUTO 26009KT 10SM OVC100 15/06 A2994 RMK AO2
8A0,2/3/16 21:15,59.0,42.8,54.86,280,8,0.0,29.94,M,10.0,M,BKN,M,M,M,9000,M,M,M,M,M,M,M,M,M,M,59.0,K8A0 032115Z AUTO 28008KT 10SM BKN090 15/06 A2994 RMK AO2
8A0,2/3/16 21:35,59.0,42.8,54.86,270,8,0.0,29.95,M,10.0,M,SCT,M,M,M,9000,M,M,M,M,M,M,M,M,M,M,59.0,K8A0 032135Z AUTO 27008KT 10SM SCT090 15/06 A2995 RMK AO2
8A0,2/3/16 21:55,59.0,44.6,58.77,240,7,0.0,29.95,M,10.0,M,CLR,M,M,M,M,M,M,M,M,M,M,M,M,M,M,59.0,K8A0 032155Z AUTO 24007KT 10SM CLR 15/07 A2995 RMK AO2
8A0,2/3/16 22:15,59.0,44.6,58.77,260,4,0.0,29.95,M,10.0,M,CLR,M,M,M,M,M,M,M,M,M,M,M,M,M,M,59.0,K8A0 032215Z AUTO 26004KT 10SM CLR 15/07 A2995 RMK AO2
8A0,2/3/16 22:35,59.0,42.8,54.86,270,7,0.0,29.96,M,10.0,M,CLR,M,M,M,M,M,M,M,M,M,M,M,M,M,M,59.0,K8A0 032235Z AUTO 27007KT 10SM CLR 15/06 A2996 RMK AO2
8A0,2/3/16 22:55,57.2,42.8,58.52,280,6,0.0,29.97,M,10.0,M,BKN,M,M,M,9500,M,M,M,M,M,M,M,M,M,M,57.2,K8A0 032255Z AUTO 28006KT 10SM BKN095 14/06 A2997 RMK AO2
8A0,2/3/16 23:15,55.4,41.0,58.27,310,9,0.0,29.97,M,10.0,M,OVC,M,M,M,9500,M,M,M,M,M,M,M,M,M,M,55.4,K8A0 032315Z AUTO 31009KT 10SM OVC095 13/05 A2997 RMK AO2
8A0,2/3/16 23:35,53.6,39.2,58.02,310,5,0.0,29.98,M,10.0,M,OVC,M,M,M,8500,M,M,M,M,M,M,M,M,M,M,53.6,K8A0 032335Z AUTO 31005KT 10SM OVC085 12/04 A2998 RMK AO2
8A0,2/3/16 23:55,53.6,37.4,54.07,290,6,0.0,30.0,M,10.0,M,BKN,M,M,M,9500,M,M,M,M,M,M,M,M,M,M,53.6,K8A0 032355Z AUTO 29006KT 10SM BKN095 12/03 A3000 RMK AO2
8A0,2/4/16 0:15,53.6,37.4,54.07,280,6,0.0,30.02,M,10.0,M,SCT,M,M,M,9500,M,M,M,M,M,M,M,M,M,M,53.6,K8A0 040015Z AUTO 28006KT 10SM SCT095 12/03 A3002 RMK AO2
8A0,2/4/16 0:35,51.8,37.4,57.77,290,3,0.0,30.02,M,10.0,M,CLR,M,M,M,M,M,M,M,M,M,M,M,M,M,M,51.8,K8A0 040035Z AUTO 29003KT 10SM CLR 11/03 A3002 RMK AO2
8A0,2/4/16 0:55,51.8,37.4,57.77,290,4,0.0,30.03,M,10.0,M,CLR,M,M,M,M,M,M,M,M,M,M,M,M,M,M,51.8,K8A0 040055Z AUTO 29004KT 10SM CLR 11/03 A3003 RMK AO2
8A0,2/4/16 1:15,51.8,37.4,57.77,310,4,0.0,30.03,M,10.0,M,CLR,M,M,M,M,M,M,M,M,M,M,M,M,M,M,51.8,K8A0 040115Z AUTO 31004KT 10SM CLR 11/03 A3003 RMK AO2
8A0,2/4/16 1:35,50.0,37.4,61.76,300,4,0.0,30.04,M,10.0,M,CLR,M,M,M,M,M,M,M,M,M,M,M,M,M,M,48.44,K8A0 040135Z AUTO 30004KT 10SM CLR 10/03 A3004 RMK AO2
8A0,2/4/16 1:55,50.0,37.4,61.76,290,5,0.0,30.04,M,10.0,M,SCT,M,M,M,9500,M,M,M,M,M,M,M,M,M,M,47.77,K8A0 040155Z AUTO 29005KT 10SM SCT095 10/03 A3004 RMK AO2
8A0,2/4/16 2:15,50.0,37.4,61.76,300,6,0.0,30.05,M,10.0,M,SCT,M,M,M,9500,M,M,M,M,M,M,M,M,M,M,47.21,K8A0 040215Z AUTO 30006KT 10SM SCT095 10/03 A3005 RMK AO2
8A0,2/4/16 2:35,50.0,37.4,61.76,300,6,0.0,30.06,M,10.0,M,SCT,M,M,M,9500,M,M,M,M,M,M,M,M,M,M,47.21,K8A0 040235Z AUTO 30006KT 10SM SCT095 10/03 A3006 RMK AO2
8A0,2/4/16 2:55,48.2,37.4,66.05,310,7,0.0,30.05,M,10.0,M,CLR,M,M,M,M,M,M,M,M,M,M,M,M,M,M,44.53,K8A0 040255Z AUTO 31007KT 10SM CLR 09/03 A3005 RMK AO2
8A0,2/4/16 3:15,48.2,35.6,61.52,320,9,0.0,30.06,M,10.0,16,CLR,M,M,M,M,M,M,M,M,M,M,M,M,M,M,43.66,K8A0 040315Z AUTO 32009G16KT 10SM CLR 09/02 A3006 RMK AO2
8A0,2/4/16 3:35,46.4,37.4,70.68,320,8,0.0,30.07,M,10.0,M,CLR,M,M,M,M,M,M,M,M,M,M,M,M,M,M,41.85,K8A0 040335Z AUTO 32008KT 10SM CLR 08/03 A3007 RMK AO2
8A0,2/4/16 3:55,44.6,37.4,75.68,330,8,0.0,30.08,M,10.0,M,CLR,M,M,M,M,M,M,M,M,M,M,M,M,M,M,39.63,K8A0 040355Z AUTO 33008KT 10SM CLR 07/03 A3008 RMK AO2
8A0,2/4/16 4:15,44.6,37.4,75.68,330,8,0.0,30.1,M,10.0,M,CLR,M,M,M,M,M,M,M,M,M,M,M,M,M,M,39.63,K8A0 040415Z AUTO 33008KT 10SM CLR 07/03 A3010 RMK AO2
8A0,2/4/16 4:35,42.8,35.6,75.5,330,10,0.0,30.11,M,10.0,18,CLR,M,M,M,M,M,M,M,M,M,M,M,M,M,M,36.51,K8A0 040435Z AUTO 33010G18KT 10SM CLR 06/02 A3011 RMK AO2
8A0,2/4/16 4:55,42.8,35.6,75.5,330,10,0.0,30.12,M,10.0,16,CLR,M,M,M,M,M,M,M,M,M,M,M,M,M,M,36.51,K8A0 040455Z AUTO 33010G16KT 10SM CLR 06/02 A3012 RMK AO2
8A0,2/4/16 5:15,41.0,35.6,80.93,330,9,0.0,30.12,M,10.0,16,CLR,M,M,M,M,M,M,M,M,M,M,M,M,M,M,34.7,K8A0 040515Z AUTO 33009G16KT 10SM CLR 05/02 A3012 RMK AO2
8A0,2/4/16 5:35,41.0,35.6,80.93,330,12,0.0,30.12,M,10.0,M,CLR,M,M,M,M,M,M,M,M,M,M,M,M,M,M,33.46,K8A0 040535Z AUTO 33012KT 10SM CLR 05/02 A3012 RMK AO2
8A0,2/4/16 5:55,41.0,35.6,80.93,340,9,0.0,30.12,M,10.0,16,CLR,M,M,M,M,M,M,M,M,M,M,M,M,M,M,34.7,K8A0 040555Z AUTO 34009G16KT 10SM CLR 05/02 A3012 RMK AO2
8A0,2/4/16 6:15,39.2,35.6,86.79,340,9,0.0,30.12,M,10.0,M,CLR,M,M,M,M,M,M,M,M,M,M,M,M,M,M,32.47,K8A0 040615Z AUTO 34009KT 10SM CLR 04/02 A3012 RMK AO2
8A0,2/4/16 6:35,39.2,35.6,86.79,340,8,0.0,30.13,M,10.0,14,CLR,M,M,M,M,M,M,M,M,M,M,M,M,M,M,32.98,K8A0 040635Z AUTO 34008G14KT 10SM CLR 04/02 A3013 RMK AO2
8A0,2/4/16 6:55,37.4,33.8,86.69,340,11,0.0,30.13,M,10.0,15,CLR,M,M,M,M,M,M,M,M,M,M,M,M,M,M,29.29,K8A0 040655Z AUTO 34011G15KT 10SM CLR 03/01 A3013 RMK AO2
8A0,2/4/16 7:15,37.4,33.8,86.69,340,11,0.0,30.14,M,10.0,M,CLR,M,M,M,M,M,M,M,M,M,M,M,M,M,M,29.29,K8A0 040715Z AUTO 34011KT 10SM CLR 03/01 A3014 RMK AO2
8A0,2/4/16 7:35,37.4,33.8,86.69,350,7,0.0,30.14,M,10.0,M,CLR,M,M,M,M,M,M,M,M,M,M,M,M,M,M,31.36,K8A0 040735Z AUTO 35007KT 10SM CLR 03/01 A3014 RMK AO2
8A0,2/4/16 7:55,37.4,32.0,80.65,350,8,0.0,30.14,M,10.0,M,CLR,M,M,M,M,M,M,M,M,M,M,M,M,M,M,30.76,K8A0 040755Z AUTO 35008KT 10SM CLR 03/00 A3014 RMK AO2
8A0,2/4/16 8:15,37.4,32.0,80.65,340,9,0.0,30.13,M,10.0,M,CLR,M,M,M,M,M,M,M,M,M,M,M,M,M,M,30.23,K8A0 040815Z AUTO 34009KT 10SM CLR 03/00 A3013 RMK AO2
8A0,2/4/16 8:35,35.6,32.0,86.59,350,8,0.0,30.13,M,10.0,M,CLR,M,M,M,M,M,M,M,M,M,M,M,M,M,M,28.55,K8A0 040835Z AUTO 35008KT 10SM CLR 02/00 A3013 RMK AO2
8A0,2/4/16 8:55,35.6,32.0,86.59,350,8,0.0,30.14,M,10.0,M,CLR,M,M,M,M,M,M,M,M,M,M,M,M,M,M,28.55,K8A0 040855Z AUTO 35008KT 10SM CLR 02/00 A3014 RMK AO2
8A0,2/4/16 9:15,35.6,32.0,86.59,350,9,0.0,30.13,M,10.0,M,CLR,M,M,M,M,M,M,M,M,M,M,M,M,M,M,27.99,K8A0 040915Z AUTO 35009KT 10SM CLR 02/00 A3013 RMK AO2
8A0,2/4/16 9:35,35.6,32.0,86.59,350,7,0.0,30.13,M,10.0,M,CLR,M,M,M,M,M,M,M,M,M,M,M,M,M,M,29.17,K8A0 040935Z AUTO 35007KT 10SM CLR 02/00 A3013 RMK AO2
8A0,2/4/16 9:55,35.6,32.0,86.59,350,8,0.0,30.13,M,10.0,M,CLR,M,M,M,M,M,M,M,M,M,M,M,M,M,M,28.55,K8A0 040955Z AUTO 35008KT 10SM CLR 02/00 A3013 RMK AO2
8A0,2/4/16 10:15,35.6,32.0,86.59,350,7,0.0,30.13,M,10.0,M,CLR,M,M,M,M,M,M,M,M,M,M,M,M,M,M,29.17,K8A0 041015Z AUTO 35007KT 10SM CLR 02/00 A3013 RMK AO2
8A0,2/4/16 10:35,35.6,32.0,86.59,350,7,0.0,30.14,M,10.0,M,CLR,M,M,M,M,M,M,M,M,M,M,M,M,M,M,29.17,K8A0 041035Z AUTO 35007KT 10SM CLR 02/00 A3014 RMK AO2
8A0,2/4/16 10:55,35.6,32.0,86.59,340,6,0.0,30.14,M,10.0,M,CLR,M,M,M,M,M,M,M,M,M,M,M,M,M,M,29.87,K8A0 041055Z AUTO 34006KT 10SM CLR 02/00 A3014 RMK AO2
8A0,2/4/16 11:15,33.8,32.0,93.03,350,7,0.0,30.15,M,10.0,M,CLR,M,M,M,M,M,M,M,M,M,M,M,M,M,M,26.97,K8A0 041115Z AUTO 35007KT 10SM CLR 01/00 A3015 RMK AO2
8A0,2/4/16 11:35,33.8,32.0,93.03,350,5,0.0,30.16,M,10.0,M,CLR,M,M,M,M,M,M,M,M,M,M,M,M,M,M,28.53,K8A0 041135Z AUTO 35005KT 10SM CLR 01/00 A3016 RMK AO2
8A0,2/4/16 11:55,33.8,32.0,93.03,340,6,0.0,30.16,M,10.0,M,CLR,M,M,M,M,M,M,M,M,M,M,M,M,M,M,27.7,K8A0 041155Z AUTO 34006KT 10SM CLR 01/00 A3016 RMK AO2
8A0,2/4/16 12:15,33.8,32.0,93.03,340,6,0.0,30.16,M,10.0,M,CLR,M,M,M,M,M,M,M,M,M,M,M,M,M,M,27.7,K8A0 041215Z AUTO 34006KT 10SM CLR 01/00 A3016 RMK AO2
8A0,2/4/16 12:35,33.8,32.0,93.03,340,5,0.0,30.16,M,10.0,M,CLR,M,M,M,M,M,M,M,M,M,M,M,M,M,M,28.53,K8A0 041235Z AUTO 34005KT 10SM CLR 01/00 A3016 RMK AO2
8A0,2/4/16 12:55,33.8,32.0,93.03,340,4,0.0,30.17,M,10.0,M,CLR,M,M,M,M,M,M,M,M,M,M,M,M,M,M,29.52,K8A0 041255Z AUTO 34004KT 10SM CLR 01/00 A3017 RMK AO2
8A0,2/4/16 13:15,33.8,32.0,93.03,350,6,0.0,30.17,M,10.0,M,CLR,M,M,M,M,M,M,M,M,M,M,M,M,M,M,27.7,K8A0 041315Z AUTO 35006KT 10SM CLR 01/00 A3017 RMK AO2
8A0,2/4/16 13:35,33.8,32.0,93.03,350,6,0.0,30.17,M,10.0,M,CLR,M,M,M,M,M,M,M,M,M,M,M,M,M,M,27.7,K8A0 041335Z AUTO 35006KT 10SM CLR 01/00 A3017 RMK AO2
8A0,2/4/16 13:55,35.6,32.0,86.59,350,7,0.0,30.18,M,10.0,M,CLR,M,M,M,M,M,M,M,M,M,M,M,M,M,M,29.17,K8A0 041355Z AUTO 35007KT 10SM CLR 02/00 A3018 RMK AO2
8A0,2/4/16 14:15,35.6,32.0,86.59,350,9,0.0,30.18,M,10.0,M,CLR,M,M,M,M,M,M,M,M,M,M,M,M,M,M,27.99,K8A0 041415Z AUTO 35009KT 10SM CLR 02/00 A3018 RMK AO2
8A0,2/4/16 14:35,37.4,32.0,80.65,10,10,0.0,30.19,M,10.0,M,CLR,M,M,M,M,M,M,M,M,M,M,M,M,M,M,29.74,K8A0 041435Z AUTO 01010KT 10SM CLR 03/00 A3019 RMK AO2
8A0,2/4/16 14:55,37.4,32.0,80.65,360,14,0.0,30.2,M,10.0,18,CLR,M,M,M,M,M,M,M,M,M,M,M,M,M,M,28.12,K8A0 041455Z AUTO 36014G18KT 10SM CLR 03/00 A3020 RMK AO2
8A0,2/4/16 15:15,37.4,32.0,80.65,360,11,0.0,30.21,M,10.0,15,CLR,M,M,M,M,M,M,M,M,M,M,M,M,M,M,29.29,K8A0 041515Z AUTO 36011G15KT 329V029 10SM CLR 03/00 A3021 RMK AO2
8A0,2/4/16 15:35,37.4,32.0,80.65,360,11,0.0,30.21,M,10.0,M,CLR,M,M,M,M,M,M,M,M,M,M,M,M,M,M,29.29,K8A0 041535Z AUTO 36011KT 10SM CLR 03/00 A3021 RMK AO2
8A0,2/4/16 15:55,39.2,32.0,75.16,320,8,0.0,30.22,M,10.0,15,CLR,M,M,M,M,M,M,M,M,M,M,M,M,M,M,32.98,K8A0 041555Z AUTO 32008G15KT 10SM CLR 04/00 A3022 RMK AO2
8A0,2/4/16 16:15,39.2,32.0,75.16,330,10,0.0,30.22,M,10.0,M,CLR,M,M,M,M,M,M,M,M,M,M,M,M,M,M,32.0,K8A0 041615Z AUTO 33010KT 10SM CLR 04/00 A3022 RMK AO2
8A0,2/4/16 16:35,41.0,32.0,70.08,350,13,0.0,30.22,M,10.0,16,CLR,M,M,M,M,M,M,M,M,M,M,M,M,M,M,33.1,K8A0 041635Z AUTO 35013G16KT 10SM CLR 05/00 A3022 RMK AO2
8A0,2/4/16 16:55,41.0,32.0,70.08,330,9,0.0,30.21,M,10.0,15,CLR,M,M,M,M,M,M,M,M,M,M,M,M,M,M,34.7,K8A0 041655Z AUTO 33009G15KT 10SM CLR 05/00 A3021 RMK AO2
8A0,2/4/16 17:15,41.0,32.0,70.08,330,11,0.0,30.21,M,10.0,15,CLR,M,M,M,M,M,M,M,M,M,M,M,M,M,M,33.84,K8A0 041715Z AUTO 33011G15KT 10SM CLR 05/00 A3021 RMK AO2
8A0,2/4/16 17:35,42.8,32.0,65.38,350,10,0.0,30.2,M,10.0,16,CLR,M,M,M,M,M,M,M,M,M,M,M,M,M,M,36.51,K8A0 041735Z AUTO 35010G16KT 10SM CLR 06/00 A3020 RMK AO2
8A0,2/4/16 17:55,42.8,33.8,70.28,330,8,0.0,30.19,M,10.0,14,CLR,M,M,M,M,M,M,M,M,M,M,M,M,M,M,37.42,K8A0 041755Z AUTO 33008G14KT 10SM CLR 06/01 A3019 RMK AO2
8A0,2/4/16 18:15,42.8,32.0,65.38,330,8,0.0,30.18,M,10.0,15,CLR,M,M,M,M,M,M,M,M,M,M,M,M,M,M,37.42,K8A0 041815Z AUTO 33008G15KT 10SM CLR 06/00 A3018 RMK AO2
8A0,2/4/16 18:35,42.8,32.0,65.38,350,12,0.0,30.18,M,10.0,15,CLR,M,M,M,M,M,M,M,M,M,M,M,M,M,M,35.75,K8A0 041835Z AUTO 35012G15KT 10SM CLR 06/00 A3018 RMK AO2
8A0,2/4/16 18:55,44.6,32.0,61.03,350,14,0.0,30.17,M,10.0,17,CLR,M,M,M,M,M,M,M,M,M,M,M,M,M,M,37.4,K8A0 041855Z AUTO 35014G17KT 10SM CLR 07/00 A3017 RMK AO2
8A0,2/4/16 19:15,44.6,32.0,61.03,350,9,0.0,30.17,M,10.0,14,CLR,M,M,M,M,M,M,M,M,M,M,M,M,M,M,39.18,K8A0 041915Z AUTO 35009G14KT 309V009 10SM CLR 07/00 A3017 RMK AO2
8A0,2/4/16 19:35,44.6,32.0,61.03,360,12,0.0,30.17,M,10.0,16,CLR,M,M,M,M,M,M,M,M,M,M,M,M,M,M,38.04,K8A0 041935Z AUTO 36012G16KT 10SM CLR 07/00 A3017 RMK AO2
8A0,2/4/16 19:55,44.6,32.0,61.03,350,10,0.0,30.17,M,10.0,M,CLR,M,M,M,M,M,M,M,M,M,M,M,M,M,M,38.77,K8A0 041955Z AUTO 35010KT 10SM CLR 07/00 A3017 RMK AO2
8A0,2/4/16 20:15,44.6,32.0,61.03,340,8,0.0,30.16,M,10.0,14,CLR,M,M,M,M,M,M,M,M,M,M,M,M,M,M,39.63,K8A0 042015Z AUTO 34008G14KT 10SM CLR 07/00 A3016 RMK AO2
8A0,2/4/16 20:35,44.6,32.0,61.03,320,9,0.0,30.16,M,10.0,17,CLR,M,M,M,M,M,M,M,M,M,M,M,M,M,M,39.18,K8A0 042035Z AUTO 32009G17KT 10SM CLR 07/00 A3016 RMK AO2
8A0,2/4/16 20:55,44.6,32.0,61.03,330,12,0.0,30.17,M,10.0,M,CLR,M,M,M,M,M,M,M,M,M,M,M,M,M,M,38.04,K8A0 042055Z AUTO 33012KT 10SM CLR 07/00 A3017 RMK AO2
8A0,2/4/16 21:15,44.6,32.0,61.03,300,10,0.0,30.17,M,10.0,16,CLR,M,M,M,M,M,M,M,M,M,M,M,M,M,M,38.77,K8A0 042115Z AUTO 30010G16KT 10SM CLR 07/00 A3017 RMK AO2
8A0,2/4/16 21:35,44.6,32.0,61.03,340,13,0.0,30.18,M,10.0,M,CLR,M,M,M,M,M,M,M,M,M,M,M,M,M,M,37.71,K8A0 042135Z AUTO 34013KT 10SM CLR 07/00 A3018 RMK AO2
8A0,2/4/16 21:55,42.8,32.0,65.38,330,9,0.0,30.18,M,10.0,14,CLR,M,M,M,M,M,M,M,M,M,M,M,M,M,M,36.94,K8A0 042155Z AUTO 33009G14KT 289V349 10SM CLR 06/00 A3018 RMK AO2
8A0,2/4/16 22:15,42.8,32.0,65.38,330,13,0.0,30.19,M,10.0,18,CLR,M,M,M,M,M,M,M,M,M,M,M,M,M,M,35.4,K8A0 042215Z AUTO 33013G18KT 10SM CLR 06/00 A3019 RMK AO2
8A0,2/4/16 22:35,42.8,32.0,65.38,320,11,0.0,30.19,M,10.0,16,CLR,M,M,M,M,M,M,M,M,M,M,M,M,M,M,36.11,K8A0 042235Z AUTO 32011G16KT 10SM CLR 06/00 A3019 RMK AO2
8A0,2/4/16 22:55,41.0,30.2,65.16,320,11,0.0,30.2,M,10.0,18,CLR,M,M,M,M,M,M,M,M,M,M,M,M,M,M,33.84,K8A0 042255Z AUTO 32011G18KT 10SM CLR 05/M01 A3020 RMK AO2
8A0,2/4/16 23:15,41.0,30.2,65.16,320,11,0.0,30.21,M,10.0,M,CLR,M,M,M,M,M,M,M,M,M,M,M,M,M,M,33.84,K8A0 042315Z AUTO 32011KT 10SM CLR 05/M01 A3021 RMK AO2
8A0,2/4/16 23:35,41.0,30.2,65.16,320,8,0.0,30.23,M,10.0,M,CLR,M,M,M,M,M,M,M,M,M,M,M,M,M,M,35.2,K8A0 042335Z AUTO 32008KT 10SM CLR 05/M01 A3023 RMK AO2
8A0,2/4/16 23:55,39.2,30.2,69.88,310,7,0.0,30.23,M,10.0,M,CLR,M,M,M,M,M,M,M,M,M,M,M,M,M,M,33.56,K8A0 042355Z AUTO 31007KT 10SM CLR 04/M01 A3023 RMK AO2
8A0,2/5/16 0:15,37.4,30.2,74.98,330,6,0.0,30.25,M,10.0,M,CLR,M,M,M,M,M,M,M,M,M,M,M,M,M,M,32.03,K8A0 050015Z AUTO 33006KT 10SM CLR 03/M01 A3025 RMK AO2
8A0,2/5/16 0:35,37.4,28.4,69.67,330,5,0.0,30.25,M,10.0,M,CLR,M,M,M,M,M,M,M,M,M,M,M,M,M,M,32.81,K8A0 050035Z AUTO 33005KT 10SM CLR 03/M02 A3025 RMK AO2
8A0,2/5/16 0:55,37.4,28.4,69.67,330,9,0.0,30.26,M,10.0,M,CLR,M,M,M,M,M,M,M,M,M,M,M,M,M,M,30.23,K8A0 050055Z AUTO 33009KT 10SM CLR 03/M02 A3026 RMK AO2
8A0,2/5/16 1:15,37.4,28.4,69.67,330,8,0.0,30.26,M,10.0,14,CLR,M,M,M,M,M,M,M,M,M,M,M,M,M,M,30.76,K8A0 050115Z AUTO 33008G14KT 10SM CLR 03/M02 A3026 RMK AO2
8A0,2/5/16 1:35,37.4,28.4,69.67,320,6,0.0,30.27,M,10.0,M,CLR,M,M,M,M,M,M,M,M,M,M,M,M,M,M,32.03,K8A0 050135Z AUTO 32006KT 10SM CLR 03/M02 A3027 RMK AO2
8A0,2/5/16 1:55,37.4,28.4,69.67,320,6,0.0,30.28,M,10.0,M,CLR,M,M,M,M,M,M,M,M,M,M,M,M,M,M,32.03,K8A0 050155Z AUTO 32006KT 10SM CLR 03/M02 A3028 RMK AO2
8A0,2/5/16 2:15,37.4,28.4,69.67,310,6,0.0,30.29,M,10.0,M,CLR,M,M,M,M,M,M,M,M,M,M,M,M,M,M,32.03,K8A0 050215Z AUTO 31006KT 10SM CLR 03/M02 A3029 RMK AO2
8A0,2/5/16 2:35,35.6,28.4,74.8,320,6,0.0,30.3,M,10.0,M,CLR,M,M,M,M,M,M,M,M,M,M,M,M,M,M,29.87,K8A0 050235Z AUTO 32006KT 10SM CLR 02/M02 A3030 RMK AO2
8A0,2/5/16 2:55,35.6,26.6,69.46,320,9,0.0,30.3,M,10.0,M,CLR,M,M,M,M,M,M,M,M,M,M,M,M,M,M,27.99,K8A0 050255Z AUTO 32009KT 10SM CLR 02/M03 A3030 RMK AO2
8A0,2/5/16 3:15,35.6,26.6,69.46,320,8,0.0,30.31,M,10.0,15,CLR,M,M,M,M,M,M,M,M,M,M,M,M,M,M,28.55,K8A0 050315Z AUTO 32008G15KT 10SM CLR 02/M03 A3031 RMK AO2
8A0,2/5/16 3:35,35.6,26.6,69.46,330,9,0.0,30.32,M,10.0,14,CLR,M,M,M,M,M,M,M,M,M,M,M,M,M,M,27.99,K8A0 050335Z AUTO 33009G14KT 10SM CLR 02/M03 A3032 RMK AO2
8A0,2/5/16 3:55,35.6,24.8,64.46,340,13,0.0,30.33,M,10.0,16,CLR,M,M,M,M,M,M,M,M,M,M,M,M,M,M,26.18,K8A0 050355Z AUTO 34013G16KT 10SM CLR 02/M04 A3033 RMK AO2
8A0,2/5/16 4:15,35.6,26.6,69.46,330,13,0.0,30.33,M,10.0,16,CLR,M,M,M,M,M,M,M,M,M,M,M,M,M,M,26.18,K8A0 050415Z AUTO 33013G16KT 10SM CLR 02/M03 A3033 RMK AO2
8A0,2/5/16 4:35,35.6,24.8,64.46,350,11,0.0,30.34,M,10.0,19,CLR,M,M,M,M,M,M,M,M,M,M,M,M,M,M,27.02,K8A0 050435Z AUTO 35011G19KT 10SM CLR 02/M04 A3034 RMK AO2
8A0,2/5/16 4:55,33.8,26.6,74.63,330,12,0.0,30.34,M,10.0,15,CLR,M,M,M,M,M,M,M,M,M,M,M,M,M,M,24.29,K8A0 050455Z AUTO 33012G15KT 10SM CLR 01/M03 A3034 RMK AO2
8A0,2/5/16 5:15,33.8,26.6,74.63,350,9,0.0,30.34,M,10.0,14,CLR,M,M,M,M,M,M,M,M,M,M,M,M,M,M,25.75,K8A0 050515Z AUTO 35009G14KT 10SM CLR 01/M03 A3034 RMK AO2
8A0,2/5/16 5:35,33.8,26.6,74.63,360,8,0.0,30.34,M,10.0,M,CLR,M,M,M,M,M,M,M,M,M,M,M,M,M,M,26.33,K8A0 050535Z AUTO 36008KT 10SM CLR 01/M03 A3034 RMK AO2
8A0,2/5/16 5:55,33.8,26.6,74.63,340,7,0.0,30.35,M,10.0,M,CLR,M,M,M,M,M,M,M,M,M,M,M,M,M,M,26.97,K8A0 050555Z AUTO 34007KT 10SM CLR 01/M03 A3035 RMK AO2
8A0,2/5/16 6:15,33.8,26.6,74.63,340,6,0.0,30.35,M,10.0,M,CLR,M,M,M,M,M,M,M,M,M,M,M,M,M,M,27.7,K8A0 050615Z AUTO 34006KT 10SM CLR 01/M03 A3035 RMK AO2
8A0,2/5/16 6:35,33.8,24.8,69.25,340,10,0.0,30.35,M,10.0,M,CLR,M,M,M,M,M,M,M,M,M,M,M,M,M,M,25.23,K8A0 050635Z AUTO 34010KT 10SM CLR 01/M04 A3035 RMK AO2
8A0,2/5/16 6:55,32.0,26.6,80.22,340,8,0.0,30.36,M,10.0,M,CLR,M,M,M,M,M,M,M,M,M,M,M,M,M,M,24.11,K8A0 050655Z AUTO 34008KT 10SM CLR 00/M03 A3036 RMK AO2
8A0,2/5/16 7:15,32.0,24.8,74.44,330,6,0.0,30.36,M,10.0,M,CLR,M,M,M,M,M,M,M,M,M,M,M,M,M,M,25.53,K8A0 050715Z AUTO 33006KT 10SM CLR 00/M04 A3036 RMK AO2
8A0,2/5/16 7:35,32.0,26.6,80.22,350,8,0.0,30.36,M,10.0,M,CLR,M,M,M,M,M,M,M,M,M,M,M,M,M,M,24.11,K8A0 050735Z AUTO 35008KT 10SM CLR 00/M03 A3036 RMK AO2
8A0,2/5/16 7:55,32.0,26.6,80.22,350,8,0.0,30.35,M,10.0,M,CLR,M,M,M,M,M,M,M,M,M,M,M,M,M,M,24.11,K8A0 050755Z AUTO 35008KT 10SM CLR 00/M03 A3035 RMK AO2
8A0,2/5/16 8:15,32.0,24.8,74.44,340,8,0.0,30.37,M,10.0,M,CLR,M,M,M,M,M,M,M,M,M,M,M,M,M,M,24.11,K8A0 050815Z AUTO 34008KT 10SM CLR 00/M04 A3037 RMK AO2
8A0,2/5/16 8:35,32.0,24.8,74.44,350,7,0.0,30.37,M,10.0,M,CLR,M,M,M,M,M,M,M,M,M,M,M,M,M,M,24.78,K8A0 050835Z AUTO 35007KT 10SM CLR 00/M04 A3037 RMK AO2
8A0,2/5/16 8:55,32.0,24.8,74.44,360,8,0.0,30.36,M,10.0,M,CLR,M,M,M,M,M,M,M,M,M,M,M,M,M,M,24.11,K8A0 050855Z AUTO 36008KT 10SM CLR 00/M04 A3036 RMK AO2
8A0,2/5/16 9:15,32.0,24.8,74.44,10,7,0.0,30.34,M,10.0,M,CLR,M,M,M,M,M,M,M,M,M,M,M,M,M,M,24.78,K8A0 050915Z AUTO 01007KT 10SM CLR 00/M04 A3034 RMK AO2
8A0,2/5/16 9:35,30.2,24.8,80.07,20,6,0.0,30.33,M,10.0,M,CLR,M,M,M,M,M,M,M,M,M,M,M,M,M,M,23.36,K8A0 050935Z AUTO 02006KT 10SM CLR M01/M04 A3033 RMK AO2
8A0,2/5/16 9:55,30.2,24.8,80.07,10,5,0.0,30.33,M,10.0,M,CLR,M,M,M,M,M,M,M,M,M,M,M,M,M,M,24.26,K8A0 050955Z AUTO 01005KT 10SM CLR M01/M04 A3033 RMK AO2
8A0,2/5/16 10:15,30.2,24.8,80.07,20,4,0.0,30.34,M,10.0,M,CLR,M,M,M,M,M,M,M,M,M,M,M,M,M,M,25.32,K8A0 051015Z AUTO 02004KT 10SM CLR M01/M04 A3034 RMK AO2
8A0,2/5/16 10:35,30.2,24.8,80.07,360,6,0.0,30.34,M,10.0,M,CLR,M,M,M,M,M,M,M,M,M,M,M,M,M,M,23.36,K8A0 051035Z AUTO 36006KT 10SM CLR M01/M04 A3034 RMK AO2
8A0,2/5/16 10:55,30.2,24.8,80.07,350,5,0.0,30.35,M,10.0,M,CLR,M,M,M,M,M,M,M,M,M,M,M,M,M,M,24.26,K8A0 051055Z AUTO 35005KT 10SM CLR M01/M04 A3035 RMK AO2
8A0,2/5/16 11:15,30.2,26.6,86.28,350,6,0.0,30.37,M,10.0,M,CLR,M,M,M,M,M,M,M,M,M,M,M,M,M,M,23.36,K8A0 051115Z AUTO 35006KT 10SM CLR M01/M03 A3037 RMK AO2
8A0,2/5/16 11:35,30.2,26.6,86.28,350,6,0.0,30.37,M,10.0,M,CLR,M,M,M,M,M,M,M,M,M,M,M,M,M,M,23.36,K8A0 051135Z AUTO 35006KT 10SM CLR M01/M03 A3037 RMK AO2
8A0,2/5/16 11:55,30.2,26.6,86.28,350,7,0.0,30.38,M,10.0,M,CLR,M,M,M,M,M,M,M,M,M,M,M,M,M,M,22.59,K8A0 051155Z AUTO 35007KT 10SM CLR M01/M03 A3038 RMK AO2
8A0,2/5/16 12:15,30.2,26.6,86.28,360,6,0.0,30.38,M,10.0,M,CLR,M,M,M,M,M,M,M,M,M,M,M,M,M,M,23.36,K8A0 051215Z AUTO 36006KT 10SM CLR M01/M03 A3038 RMK AO2
8A0,2/5/16 12:35,30.2,26.6,86.28,360,5,0.0,30.39,M,10.0,M,CLR,M,M,M,M,M,M,M,M,M,M,M,M,M,M,24.26,K8A0 051235Z AUTO 36005KT 10SM CLR M01/M03 A3039 RMK AO2
8A0,2/5/16 12:55,30.2,26.6,86.28,360,5,0.0,30.39,M,10.0,M,CLR,M,M,M,M,M,M,M,M,M,M,M,M,M,M,24.26,K8A0 051255Z AUTO 36005KT 10SM CLR M01/M03 A3039 RMK AO2
8A0,2/5/16 13:15,30.2,26.6,86.28,360,5,0.0,30.41,M,10.0,M,CLR,M,M,M,M,M,M,M,M,M,M,M,M,M,M,24.26,K8A0 051315Z AUTO 36005KT 10SM CLR M01/M03 A3041 RMK AO2
8A0,2/5/16 13:35,32.0,26.6,80.22,360,7,0.0,30.41,M,10.0,M,CLR,M,M,M,M,M,M,M,M,M,M,M,M,M,M,24.78,K8A0 051335Z AUTO 36007KT 10SM CLR 00/M03 A3041 RMK AO2
8A0,2/5/16 13:55,32.0,26.6,80.22,10,6,0.0,30.41,M,10.0,M,CLR,M,M,M,M,M,M,M,M,M,M,M,M,M,M,25.53,K8A0 051355Z AUTO 01006KT 10SM CLR 00/M03 A3041 RMK AO2
8A0,2/5/16 14:15,32.0,26.6,80.22,10,8,0.0,30.42,M,10.0,M,CLR,M,M,M,M,M,M,M,M,M,M,M,M,M,M,24.11,K8A0 051415Z AUTO 01008KT 10SM CLR 00/M03 A3042 RMK AO2
8A0,2/5/16 14:35,33.8,26.6,74.63,20,6,0.0,30.41,M,10.0,M,CLR,M,M,M,M,M,M,M,M,M,M,M,M,M,M,27.7,K8A0 051435Z AUTO 02006KT 10SM CLR 01/M03 A3041 RMK AO2
8A0,2/5/16 14:55,35.6,26.6,69.46,40,11,0.0,30.42,M,10.0,15,CLR,M,M,M,M,M,M,M,M,M,M,M,M,M,M,27.02,K8A0 051455Z AUTO 04011G15KT 10SM CLR 02/M03 A3042 RMK AO2
8A0,2/5/16 15:15,37.4,26.6,64.7,30,14,0.0,30.42,M,10.0,17,CLR,M,M,M,M,M,M,M,M,M,M,M,M,M,M,28.12,K8A0 051515Z AUTO 03014G17KT 10SM CLR 03/M03 A3042 RMK AO2
8A0,2/5/16 15:35,37.4,24.8,60.04,20,9,0.0,30.44,M,10.0,M,CLR,M,M,M,M,M,M,M,M,M,M,M,M,M,M,30.23,K8A0 051535Z AUTO 02009KT 10SM CLR 03/M04 A3044 RMK AO2
8A0,2/5/16 15:55,39.2,23.0,51.89,10,13,0.0,30.45,M,10.0,M,CLR,M,M,M,M,M,M,M,M,M,M,M,M,M,M,30.79,K8A0 051555Z AUTO 01013KT 10SM CLR 04/M05 A3045 RMK AO2
8A0,2/5/16 16:15,41.0,23.0,48.39,30,11,0.0,30.45,M,10.0,18,CLR,M,M,M,M,M,M,M,M,M,M,M,M,M,M,33.84,K8A0 051615Z AUTO 03011G18KT 10SM CLR 05/M05 A3045 RMK AO2
8A0,2/5/16 16:35,41.0,24.8,52.17,30,11,0.0,30.45,M,10.0,18,CLR,M,M,M,M,M,M,M,M,M,M,M,M,M,M,33.84,K8A0 051635Z AUTO 03011G18KT 10SM CLR 05/M04 A3045 RMK AO2
8A0,2/5/16 16:55,41.0,23.0,48.39,20,11,0.0,30.44,M,10.0,18,CLR,M,M,M,M,M,M,M,M,M,M,M,M,M,M,33.84,K8A0 051655Z AUTO 02011G18KT 10SM CLR 05/M05 A3044 RMK AO2
8A0,2/5/16 17:15,42.8,24.8,48.67,30,10,0.0,30.44,M,10.0,18,CLR,M,M,M,M,M,M,M,M,M,M,M,M,M,M,36.51,K8A0 051715Z AUTO 03010G18KT 10SM CLR 06/M04 A3044 RMK AO2
8A0,2/5/16 17:35,42.8,23.0,45.14,20,10,0.0,30.43,M,10.0,17,CLR,M,M,M,M,M,M,M,M,M,M,M,M,M,M,36.51,K8A0 051735Z AUTO 02010G17KT 10SM CLR 06/M05 A3043 RMK AO2
8A0,2/5/16 17:55,42.8,23.0,45.14,10,5,0.0,30.42,M,10.0,M,CLR,M,M,M,M,M,M,M,M,M,M,M,M,M,M,39.22,K8A0 051755Z AUTO 01005KT 10SM CLR 06/M05 A3042 RMK AO2
8A0,2/5/16 18:15,44.6,24.8,45.44,30,7,0.0,30.41,M,10.0,M,CLR,M,M,M,M,M,M,M,M,M,M,M,M,M,M,40.14,K8A0 051815Z AUTO 03007KT 10SM CLR 07/M04 A3041 RMK AO2
8A0,2/5/16 18:35,44.6,26.6,48.96,60,6,0.0,30.4,M,10.0,M,CLR,M,M,M,M,M,M,M,M,M,M,M,M,M,M,40.71,K8A0 051835Z AUTO 06006KT 10SM CLR 07/M03 A3040 RMK AO2
8A0,2/5/16 18:55,44.6,26.6,48.96,350,6,0.0,30.39,M,10.0,M,CLR,M,M,M,M,M,M,M,M,M,M,M,M,M,M,40.71,K8A0 051855Z AUTO 35006KT 10SM CLR 07/M03 A3039 RMK AO2
8A0,2/5/16 19:15,44.6,24.8,45.44,360,6,0.0,30.38,M,10.0,M,CLR,M,M,M,M,M,M,M,M,M,M,M,M,M,M,40.71,K8A0 051915Z AUTO 36006KT 10SM CLR 07/M04 A3038 RMK AO2
8A0,2/5/16 19:35,44.6,24.8,45.44,10,7,0.0,30.37,M,10.0,M,CLR,M,M,M,M,M,M,M,M,M,M,M,M,M,M,40.14,K8A0 051935Z AUTO 01007KT 10SM CLR 07/M04 A3037 RMK AO2
8A0,2/5/16 19:55,44.6,24.8,45.44,310,6,0.0,30.37,M,10.0,M,CLR,M,M,M,M,M,M,M,M,M,M,M,M,M,M,40.71,K8A0 051955Z AUTO 31006KT 10SM CLR 07/M04 A3037 RMK AO2
8A0,2/5/16 20:15,44.6,26.6,48.96,340,7,0.0,30.37,M,10.0,M,CLR,M,M,M,M,M,M,M,M,M,M,M,M,M,M,40.14,K8A0 052015Z AUTO 34007KT 259V349 10SM CLR 07/M03 A3037 RMK AO2
8A0,2/5/16 20:35,44.6,24.8,45.44,330,3,0.0,30.37,M,10.0,M,CLR,M,M,M,M,M,M,M,M,M,M,M,M,M,M,43.09,K8A0 052035Z AUTO 33003KT 10SM CLR 07/M04 A3037 RMK AO2
8A0,2/5/16 20:55,46.4,26.6,45.73,310,8,0.0,30.37,M,10.0,M,CLR,M,M,M,M,M,M,M,M,M,M,M,M,M,M,41.85,K8A0 052055Z AUTO 31008KT 10SM CLR 08/M03 A3037 RMK AO2
8A0,2/5/16 21:15,46.4,24.8,42.44,310,7,0.0,30.37,M,10.0,M,CLR,M,M,M,M,M,M,M,M,M,M,M,M,M,M,42.33,K8A0 052115Z AUTO 31007KT 10SM CLR 08/M04 A3037 RMK AO2
8A0,2/5/16 21:35,44.6,24.8,45.44,330,7,0.0,30.37,M,10.0,M,CLR,M,M,M,M,M,M,M,M,M,M,M,M,M,M,40.14,K8A0 052135Z AUTO 33007KT 10SM CLR 07/M04 A3037 RMK AO2
8A0,2/5/16 21:55,44.6,24.8,45.44,360,4,0.0,30.36,M,10.0,M,CLR,M,M,M,M,M,M,M,M,M,M,M,M,M,M,42.13,K8A0 052155Z AUTO 36004KT 10SM CLR 07/M04 A3036 RMK AO2
8A0,2/5/16 22:15,44.6,26.6,48.96,10,5,0.0,30.36,M,10.0,M,CLR,M,M,M,M,M,M,M,M,M,M,M,M,M,M,41.36,K8A0 052215Z AUTO 01005KT 10SM CLR 07/M03 A3036 RMK AO2
8A0,2/5/16 22:35,44.6,26.6,48.96,360,4,0.0,30.36,M,10.0,M,CLR,M,M,M,M,M,M,M,M,M,M,M,M,M,M,42.13,K8A0 052235Z AUTO 36004KT 10SM CLR 07/M03 A3036 RMK AO2
8A0,2/5/16 22:55,44.6,26.6,48.96,0,0,0.0,30.36,M,10.0,M,CLR,M,M,M,M,M,M,M,M,M,M,M,M,M,M,44.6,K8A0 052255Z AUTO 00000KT 10SM CLR 07/M03 A3036 RMK AO2
8A0,2/5/16 23:15,42.8,24.8,48.67,320,4,0.0,30.36,M,10.0,M,CLR,M,M,M,M,M,M,M,M,M,M,M,M,M,M,40.03,K8A0 052315Z AUTO 32004KT 10SM CLR 06/M04 A3036 RMK AO2
8A0,2/5/16 23:35,42.8,24.8,48.67,330,4,0.0,30.37,M,10.0,M,CLR,M,M,M,M,M,M,M,M,M,M,M,M,M,M,40.03,K8A0 052335Z AUTO 33004KT 10SM CLR 06/M04 A3037 RMK AO2
8A0,2/5/16 23:55,41.0,24.8,52.17,340,3,0.0,30.37,M,10.0,M,CLR,M,M,M,M,M,M,M,M,M,M,M,M,M,M,38.98,K8A0 052355Z AUTO 34003KT 10SM CLR 05/M04 A3037 RMK AO2
8A0,2/6/16 0:15,41.0,24.8,52.17,340,4,0.0,30.37,M,10.0,M,CLR,M,M,M,M,M,M,M,M,M,M,M,M,M,M,37.93,K8A0 060015Z AUTO 34004KT 10SM CLR 05/M04 A3037 RMK AO2
8A0,2/6/16 0:35,41.0,24.8,52.17,340,6,0.0,30.37,M,10.0,M,CLR,M,M,M,M,M,M,M,M,M,M,M,M,M,M,36.37,K8A0 060035Z AUTO 34006KT 10SM CLR 05/M04 A3037 RMK AO2
8A0,2/6/16 0:55,39.2,24.8,55.95,340,4,0.0,30.37,M,10.0,M,CLR,M,M,M,M,M,M,M,M,M,M,M,M,M,M,35.83,K8A0 060055Z AUTO 34004KT 10SM CLR 04/M04 A3037 RMK AO2
8A0,2/6/16 1:15,39.2,24.8,55.95,330,4,0.0,30.37,M,10.0,M,CLR,M,M,M,M,M,M,M,M,M,M,M,M,M,M,35.83,K8A0 060115Z AUTO 33004KT 10SM CLR 04/M04 A3037 RMK AO2
8A0,2/6/16 1:35,37.4,26.6,64.7,340,4,0.0,30.36,M,10.0,M,CLR,M,M,M,M,M,M,M,M,M,M,M,M,M,M,33.73,K8A0 060135Z AUTO 34004KT 10SM CLR 03/M03 A3036 RMK AO2
8A0,2/6/16 1:55,37.4,26.6,64.7,350,4,0.0,30.36,M,10.0,M,CLR,M,M,M,M,M,M,M,M,M,M,M,M,M,M,33.73,K8A0 060155Z AUTO 35004KT 10SM CLR 03/M03 A3036 RMK AO2
8A0,2/6/16 2:15,37.4,26.6,64.7,350,3,0.0,30.36,M,10.0,M,CLR,M,M,M,M,M,M,M,M,M,M,M,M,M,M,34.86,K8A0 060215Z AUTO 35003KT 10SM CLR 03/M03 A3036 RMK AO2
8A0,2/6/16 2:35,35.6,28.4,74.8,360,4,0.0,30.36,M,7.0,M,CLR,M,M,M,M,M,M,M,M,M,M,M,M,M,M,31.62,K8A0 060235Z AUTO 36004KT 7SM CLR 02/M02 A3036 RMK AO2
8A0,2/6/16 2:55,35.6,26.6,69.46,360,5,0.0,30.36,M,10.0,M,CLR,M,M,M,M,M,M,M,M,M,M,M,M,M,M,30.67,K8A0 060255Z AUTO 36005KT 10SM CLR 02/M03 A3036 RMK AO2
8A0,2/6/16 3:15,35.6,26.6,69.46,350,5,0.0,30.36,M,10.0,M,CLR,M,M,M,M,M,M,M,M,M,M,M,M,M,M,30.67,K8A0 060315Z AUTO 35005KT 10SM CLR 02/M03 A3036 RMK AO2
8A0,2/6/16 3:35,35.6,26.6,69.46,360,4,0.0,30.36,M,10.0,M,CLR,M,M,M,M,M,M,M,M,M,M,M,M,M,M,31.62,K8A0 060335Z AUTO 36004KT 10SM CLR 02/M03 A3036 RMK AO2
8A0,2/6/16 3:55,33.8,28.4,80.36,360,5,0.0,30.36,M,10.0,M,CLR,M,M,M,M,M,M,M,M,M,M,M,M,M,M,28.53,K8A0 060355Z AUTO 36005KT 10SM CLR 01/M02 A3036 RMK AO2
8A0,2/6/16 4:15,33.8,26.6,74.63,360,4,0.0,30.36,M,10.0,M,CLR,M,M,M,M,M,M,M,M,M,M,M,M,M,M,29.52,K8A0 060415Z AUTO 36004KT 10SM CLR 01/M03 A3036 RMK AO2
8A0,2/6/16 4:35,35.6,24.8,64.46,360,4,0.0,30.36,M,10.0,M,CLR,M,M,M,M,M,M,M,M,M,M,M,M,M,M,31.62,K8A0 060435Z AUTO 36004KT 10SM CLR 02/M04 A3036 RMK AO2
8A0,2/6/16 4:55,33.8,28.4,80.36,360,3,0.0,30.36,M,10.0,M,CLR,M,M,M,M,M,M,M,M,M,M,M,M,M,M,30.75,K8A0 060455Z AUTO 36003KT 10SM CLR 01/M02 A3036 RMK AO2
8A0,2/6/16 5:15,33.8,24.8,69.25,10,3,0.0,30.37,M,10.0,M,CLR,M,M,M,M,M,M,M,M,M,M,M,M,M,M,30.75,K8A0 060515Z AUTO 01003KT 10SM CLR 01/M04 A3037 RMK AO2
8A0,2/6/16 5:35,33.8,23.0,64.23,40,3,0.0,30.36,M,10.0,M,CLR,M,M,M,M,M,M,M,M,M,M,M,M,M,M,30.75,K8A0 060535Z AUTO 04003KT 10SM CLR 01/M05 A3036 RMK AO2
8A0,2/6/16 5:55,32.0,28.4,86.39,70,3,0.0,30.37,M,10.0,M,CLR,M,M,M,M,M,M,M,M,M,M,M,M,M,M,28.69,K8A0 060555Z AUTO 07003KT 10SM CLR 00/M02 A3037 RMK AO2
8A0,2/6/16 6:15,32.0,24.8,74.44,0,0,0.0,30.37,M,10.0,M,CLR,M,M,M,M,M,M,M,M,M,M,M,M,M,M,32.0,K8A0 060615Z AUTO 00000KT 10SM CLR 00/M04 A3037 RMK AO2
8A0,2/6/16 6:35,32.0,26.6,80.22,0,0,0.0,30.36,M,10.0,M,CLR,M,M,M,M,M,M,M,M,M,M,M,M,M,M,32.0,K8A0 060635Z AUTO 00000KT 10SM CLR 00/M03 A3036 RMK AO2
8A0,2/6/16 6:55,32.0,26.6,80.22,90,4,0.0,30.35,M,10.0,M,CLR,M,M,M,M,M,M,M,M,M,M,M,M,M,M,27.42,K8A0 060655Z AUTO 09004KT 10SM CLR 00/M03 A3035 RMK AO2
8A0,2/6/16 7:15,32.0,26.6,80.22,90,4,0.0,30.34,M,10.0,M,CLR,M,M,M,M,M,M,M,M,M,M,M,M,M,M,27.42,K8A0 060715Z AUTO 09004KT 10SM CLR 00/M03 A3034 RMK AO2
8A0,2/6/16 7:35,32.0,26.6,80.22,90,5,0.0,30.34,M,10.0,M,CLR,M,M,M,M,M,M,M,M,M,M,M,M,M,M,26.4,K8A0 060735Z AUTO 09005KT 10SM CLR 00/M03 A3034 RMK AO2
8A0,2/6/16 7:55,32.0,26.6,80.22,100,3,0.0,30.33,M,10.0,M,CLR,M,M,M,M,M,M,M,M,M,M,M,M,M,M,28.69,K8A0 060755Z AUTO 10003KT 10SM CLR 00/M03 A3033 RMK AO2
8A0,2/6/16 8:15,32.0,23.0,69.04,0,0,0.0,30.33,M,10.0,M,CLR,M,M,M,M,M,M,M,M,M,M,M,M,M,M,32.0,K8A0 060815Z AUTO 00000KT 10SM CLR 00/M05 A3033 RMK AO2
8A0,2/6/16 8:35,30.2,26.6,86.28,0,0,0.0,30.33,M,10.0,M,CLR,M,M,M,M,M,M,M,M,M,M,M,M,M,M,30.2,K8A0 060835Z AUTO 00000KT 10SM CLR M01/M03 A3033 RMK AO2
8A0,2/6/16 8:55,30.2,26.6,86.28,40,3,0.0,30.33,M,10.0,M,CLR,M,M,M,M,M,M,M,M,M,M,M,M,M,M,26.63,K8A0 060855Z AUTO 04003KT 10SM CLR M01/M03 A3033 RMK AO2
8A0,2/6/16 9:15,30.2,28.4,92.92,10,3,0.0,30.34,M,10.0,M,CLR,M,M,M,M,M,M,M,M,M,M,M,M,M,M,26.63,K8A0 060915Z AUTO 01003KT 10SM CLR M01/M02 A3034 RMK AO2
8A0,2/6/16 9:35,30.2,26.6,86.28,30,4,0.0,30.33,M,10.0,M,CLR,M,M,M,M,M,M,M,M,M,M,M,M,M,M,25.32,K8A0 060935Z AUTO 03004KT 10SM CLR M01/M03 A3033 RMK AO2
8A0,2/6/16 9:55,28.4,26.6,92.86,10,4,0.0,30.33,M,10.0,M,CLR,M,M,M,M,M,M,M,M,M,M,M,M,M,M,23.22,K8A0 060955Z AUTO 01004KT 10SM CLR M02/M03 A3033 RMK AO2
8A0,2/6/16 10:15,30.2,26.6,86.28,20,4,0.0,30.33,M,10.0,M,CLR,M,M,M,M,M,M,M,M,M,M,M,M,M,M,25.32,K8A0 061015Z AUTO 02004KT 10SM CLR M01/M03 A3033 RMK AO2
8A0,2/6/16 10:35,28.4,28.4,100.0,20,5,0.0,30.33,M,10.0,M,CLR,M,M,M,M,M,M,M,M,M,M,M,M,M,M,22.12,K8A0 061035Z AUTO 02005KT 10SM CLR M02/M02 A3033 RMK AO2
8A0,2/6/16 10:55,32.0,26.6,80.22,20,5,0.0,30.34,M,10.0,M,CLR,M,M,M,M,M,M,M,M,M,M,M,M,M,M,26.4,K8A0 061055Z AUTO 02005KT 10SM CLR 00/M03 A3034 RMK AO2
8A0,2/6/16 11:15,32.0,28.4,86.39,30,4,0.0,30.34,M,10.0,M,CLR,M,M,M,M,M,M,M,M,M,M,M,M,M,M,27.42,K8A0 061115Z AUTO 03004KT 10SM CLR 00/M02 A3034 RMK AO2
8A0,2/6/16 11:35,32.0,28.4,86.39,30,4,0.0,30.34,M,10.0,M,CLR,M,M,M,M,M,M,M,M,M,M,M,M,M,M,27.42,K8A0 061135Z AUTO 03004KT 10SM CLR 00/M02 A3034 RMK AO2
8A0,2/6/16 11:55,32.0,28.4,86.39,40,4,0.0,30.34,M,10.0,M,CLR,M,M,M,M,M,M,M,M,M,M,M,M,M,M,27.42,K8A0 061155Z AUTO 04004KT 10SM CLR 00/M02 A3034 RMK AO2
8A0,2/6/16 12:15,32.0,28.4,86.39,40,5,0.0,30.34,M,10.0,M,CLR,M,M,M,M,M,M,M,M,M,M,M,M,M,M,26.4,K8A0 061215Z AUTO 04005KT 10SM CLR 00/M02 A3034 RMK AO2
8A0,2/6/16 12:35,32.0,28.4,86.39,50,4,0.0,30.35,M,10.0,M,CLR,M,M,M,M,M,M,M,M,M,M,M,M,M,M,27.42,K8A0 061235Z AUTO 05004KT 10SM CLR 00/M02 A3035 RMK AO2
8A0,2/6/16 12:55,32.0,28.4,86.39,40,4,0.0,30.36,M,10.0,M,SCT,M,M,M,12000,M,M,M,M,M,M,M,M,M,M,27.42,K8A0 061255Z AUTO 04004KT 10SM SCT120 00/M02 A3036 RMK AO2
8A0,2/6/16 13:15,32.0,30.2,92.97,30,3,0.0,30.36,M,10.0,M,BKN,M,M,M,12000,M,M,M,M,M,M,M,M,M,M,28.69,K8A0 061315Z AUTO 03003KT 10SM BKN120 00/M01 A3036 RMK AO2
8A0,2/6/16 13:35,32.0,30.2,92.97,20,3,0.0,30.36,M,10.0,M,SCT,M,M,M,12000,M,M,M,M,M,M,M,M,M,M,28.69,K8A0 061335Z AUTO 02003KT 10SM SCT120 00/M01 A3036 RMK AO2
8A0,2/6/16 13:55,32.0,30.2,92.97,30,4,0.0,30.37,M,10.0,M,CLR,M,M,M,M,M,M,M,M,M,M,M,M,M,M,27.42,K8A0 061355Z AUTO 03004KT 10SM CLR 00/M01 A3037 RMK AO2
8A0,2/6/16 14:15,33.8,30.2,86.49,50,5,0.0,30.37,M,10.0,M,CLR,M,M,M,M,M,M,M,M,M,M,M,M,M,M,28.53,K8A0 061415Z AUTO 05005KT 10SM CLR 01/M01 A3037 RMK AO2
8A0,2/6/16 14:35,35.6,28.4,74.8,50,4,0.0,30.37,M,10.0,M,CLR,M,M,M,M,M,M,M,M,M,M,M,M,M,M,31.62,K8A0 061435Z AUTO 05004KT 10SM CLR 02/M02 A3037 RMK AO2
8A0,2/6/16 14:55,37.4,30.2,74.98,70,5,0.0,30.36,M,10.0,M,CLR,M,M,M,M,M,M,M,M,M,M,M,M,M,M,32.81,K8A0 061455Z AUTO 07005KT 10SM CLR 03/M01 A3036 RMK AO2
8A0,2/6/16 15:15,37.4,28.4,69.67,60,5,0.0,30.37,M,10.0,M,CLR,M,M,M,M,M,M,M,M,M,M,M,M,M,M,32.81,K8A0 061515Z AUTO 06005KT 10SM CLR 03/M02 A3037 RMK AO2
8A0,2/6/16 15:35,37.4,28.4,69.67,80,3,0.0,30.37,M,10.0,M,CLR,M,M,M,M,M,M,M,M,M,M,M,M,M,M,34.86,K8A0 061535Z AUTO 08003KT 10SM CLR 03/M02 A3037 RMK AO2
8A0,2/6/16 15:55,41.0,28.4,60.54,100,6,0.0,30.37,M,10.0,M,CLR,M,M,M,M,M,M,M,M,M,M,M,M,M,M,36.37,K8A0 061555Z AUTO 10006KT 10SM CLR 05/M02 A3037 RMK AO2
8A0,2/6/16 16:15,41.0,28.4,60.54,90,8,0.0,30.37,M,10.0,M,CLR,M,M,M,M,M,M,M,M,M,M,M,M,M,M,35.2,K8A0 061615Z AUTO 09008KT 10SM CLR 05/M02 A3037 RMK AO2
8A0,2/6/16 16:35,42.8,28.4,56.48,90,7,0.0,30.36,M,10.0,M,CLR,M,M,M,M,M,M,M,M,M,M,M,M,M,M,37.94,K8A0 061635Z AUTO 09007KT 10SM CLR 06/M02 A3036 RMK AO2
8A0,2/6/16 16:55,42.8,28.4,56.48,100,3,0.0,30.36,M,10.0,M,CLR,M,M,M,M,M,M,M,M,M,M,M,M,M,M,41.03,K8A0 061655Z AUTO 10003KT 10SM CLR 06/M02 A3036 RMK AO2
8A0,2/6/16 17:15,42.8,28.4,56.48,0,0,0.0,30.35,M,10.0,M,CLR,M,M,M,M,M,M,M,M,M,M,M,M,M,M,42.8,K8A0 061715Z AUTO 00000KT 10SM CLR 06/M02 A3035 RMK AO2
8A0,2/6/16 17:35,42.8,28.4,56.48,0,0,0.0,30.34,M,10.0,M,CLR,M,M,M,M,M,M,M,M,M,M,M,M,M,M,42.8,K8A0 061735Z AUTO 00000KT 10SM CLR 06/M02 A3034 RMK AO2
8A0,2/6/16 17:55,44.6,28.4,52.72,70,3,0.0,30.34,M,10.0,M,CLR,M,M,M,M,M,M,M,M,M,M,M,M,M,M,43.09,K8A0 061755Z AUTO 07003KT 10SM CLR 07/M02 A3034 RMK AO2
8A0,2/6/16 18:15,44.6,28.4,52.72,100,4,0.0,30.32,M,10.0,M,CLR,M,M,M,M,M,M,M,M,M,M,M,M,M,M,42.13,K8A0 061815Z AUTO 10004KT 10SM CLR 07/M02 A3032 RMK AO2
8A0,2/6/16 18:35,44.6,28.4,52.72,0,0,0.0,30.31,M,10.0,M,CLR,M,M,M,M,M,M,M,M,M,M,M,M,M,M,44.6,K8A0 061835Z AUTO 00000KT 10SM CLR 07/M02 A3031 RMK AO2
8A0,2/6/16 18:55,44.6,28.4,52.72,0,0,0.0,30.3,M,10.0,M,CLR,M,M,M,M,M,M,M,M,M,M,M,M,M,M,44.6,K8A0 061855Z AUTO 00000KT 10SM CLR 07/M02 A3030 RMK AO2
8A0,2/6/16 19:15,44.6,26.6,48.96,0,0,0.0,30.29,M,10.0,M,SCT,M,M,M,12000,M,M,M,M,M,M,M,M,M,M,44.6,K8A0 061915Z AUTO 00000KT 10SM SCT120 07/M03 A3029 RMK AO2
8A0,2/6/16 19:35,46.4,28.4,49.24,70,4,0.0,30.28,M,10.0,M,SCT,M,M,M,12000,M,M,M,M,M,M,M,M,M,M,44.24,K8A0 061935Z AUTO 07004KT 10SM SCT120 08/M02 A3028 RMK AO2
8A0,2/6/16 19:55,46.4,26.6,45.73,40,3,0.0,30.28,M,10.0,M,SCT,M,M,M,12000,M,M,M,M,M,M,M,M,M,M,45.15,K8A0 061955Z AUTO 04003KT 10SM SCT120 08/M03 A3028 RMK AO2
8A0,2/6/16 20:15,46.4,26.6,45.73,40,6,0.0,30.27,M,10.0,M,CLR,M,M,M,M,M,M,M,M,M,M,M,M,M,M,42.87,K8A0 062015Z AUTO 04006KT 10SM CLR 08/M03 A3027 RMK AO2
8A0,2/6/16 20:35,46.4,28.4,49.24,20,6,0.0,30.27,M,10.0,M,CLR,M,M,M,M,M,M,M,M,M,M,M,M,M,M,42.87,K8A0 062035Z AUTO 02006KT 10SM CLR 08/M02 A3027 RMK AO2
8A0,2/6/16 20:55,46.4,26.6,45.73,20,4,0.0,30.26,M,10.0,M,CLR,M,M,M,M,M,M,M,M,M,M,M,M,M,M,44.24,K8A0 062055Z AUTO 02004KT 10SM CLR 08/M03 A3026 RMK AO2
8A0,2/6/16 21:15,46.4,26.6,45.73,20,3,0.0,30.26,M,10.0,M,CLR,M,M,M,M,M,M,M,M,M,M,M,M,M,M,45.15,K8A0 062115Z AUTO 02003KT 10SM CLR 08/M03 A3026 RMK AO2
8A0,2/6/16 21:35,46.4,30.2,53.0,360,6,0.0,30.26,M,10.0,M,CLR,M,M,M,M,M,M,M,M,M,M,M,M,M,M,42.87,K8A0 062135Z AUTO 36006KT 10SM CLR 08/M01 A3026 RMK AO2
8A0,2/6/16 21:55,46.4,30.2,53.0,10,6,0.0,30.26,M,10.0,M,CLR,M,M,M,M,M,M,M,M,M,M,M,M,M,M,42.87,K8A0 062155Z AUTO 01006KT 10SM CLR 08/M01 A3026 RMK AO2
8A0,2/6/16 22:15,46.4,30.2,53.0,360,6,0.0,30.26,M,10.0,M,CLR,M,M,M,M,M,M,M,M,M,M,M,M,M,M,42.87,K8A0 062215Z AUTO 36006KT 10SM CLR 08/M01 A3026 RMK AO2
8A0,2/6/16 22:35,44.6,28.4,52.72,360,7,0.0,30.26,M,10.0,M,CLR,M,M,M,M,M,M,M,M,M,M,M,M,M,M,40.14,K8A0 062235Z AUTO 36007KT 10SM CLR 07/M02 A3026 RMK AO2
8A0,2/6/16 22:55,42.8,28.4,56.48,20,6,0.0,30.26,M,10.0,M,CLR,M,M,M,M,M,M,M,M,M,M,M,M,M,M,38.54,K8A0 062255Z AUTO 02006KT 10SM CLR 06/M02 A3026 RMK AO2
8A0,2/6/16 23:15,42.8,28.4,56.48,20,5,0.0,30.26,M,10.0,M,CLR,M,M,M,M,M,M,M,M,M,M,M,M,M,M,39.22,K8A0 062315Z AUTO 02005KT 10SM CLR 06/M02 A3026 RMK AO2
8A0,2/6/16 23:35,42.8,26.6,52.45,10,3,0.0,30.26,M,10.0,M,CLR,M,M,M,M,M,M,M,M,M,M,M,M,M,M,41.03,K8A0 062335Z AUTO 01003KT 10SM CLR 06/M03 A3026 RMK AO2
8A0,2/6/16 23:55,41.0,26.6,56.22,0,0,0.0,30.25,M,10.0,M,CLR,M,M,M,M,M,M,M,M,M,M,M,M,M,M,41.0,K8A0 062355Z AUTO 00000KT 10SM CLR 05/M03 A3025 RMK AO2
8A0,2/7/16 0:15,41.0,26.6,56.22,0,0,0.0,30.25,M,10.0,M,CLR,M,M,M,M,M,M,M,M,M,M,M,M,M,M,41.0,K8A0 070015Z AUTO 00000KT 10SM CLR 05/M03 A3025 RMK AO2
8A0,2/7/16 0:35,37.4,28.4,69.67,10,3,0.0,30.25,M,10.0,M,CLR,M,M,M,M,M,M,M,M,M,M,M,M,M,M,34.86,K8A0 070035Z AUTO 01003KT 10SM CLR 03/M02 A3025 RMK AO2
8A0,2/7/16 0:55,35.6,30.2,80.51,350,4,0.0,30.25,M,10.0,M,CLR,M,M,M,M,M,M,M,M,M,M,M,M,M,M,31.62,K8A0 070055Z AUTO 35004KT 10SM CLR 02/M01 A3025 RMK AO2
8A0,2/7/16 1:15,37.4,26.6,64.7,340,5,0.0,30.26,M,10.0,M,CLR,M,M,M,M,M,M,M,M,M,M,M,M,M,M,32.81,K8A0 070115Z AUTO 34005KT 10SM CLR 03/M03 A3026 RMK AO2
8A0,2/7/16 1:35,37.4,26.6,64.7,340,4,0.0,30.25,M,10.0,M,CLR,M,M,M,M,M,M,M,M,M,M,M,M,M,M,33.73,K8A0 070135Z AUTO 34004KT 10SM CLR 03/M03 A3025 RMK AO2
8A0,2/7/16 1:55,35.6,28.4,74.8,350,5,0.0,30.26,M,10.0,M,CLR,M,M,M,M,M,M,M,M,M,M,M,M,M,M,30.67,K8A0 070155Z AUTO 35005KT 10SM CLR 02/M02 A3026 RMK AO2
8A0,2/7/16 2:15,37.4,26.6,64.7,350,4,0.0,30.26,M,10.0,M,CLR,M,M,M,M,M,M,M,M,M,M,M,M,M,M,33.73,K8A0 070215Z AUTO 35004KT 10SM CLR 03/M03 A3026 RMK AO2
8A0,2/7/16 2:35,37.4,26.6,64.7,340,4,0.0,30.26,M,10.0,M,CLR,M,M,M,M,M,M,M,M,M,M,M,M,M,M,33.73,K8A0 070235Z AUTO 34004KT 10SM CLR 03/M03 A3026 RMK AO2
8A0,2/7/16 2:55,37.4,26.6,64.7,330,4,0.0,30.26,M,10.0,M,SCT,M,M,M,9500,M,M,M,M,M,M,M,M,M,M,33.73,K8A0 070255Z AUTO 33004KT 10SM SCT095 03/M03 A3026 RMK AO2
8A0,2/7/16 3:15,35.6,26.6,69.46,350,3,0.0,30.26,M,10.0,M,SCT,M,M,M,9500,M,M,M,M,M,M,M,M,M,M,32.8,K8A0 070315Z AUTO 35003KT 10SM SCT095 02/M03 A3026 RMK AO2
8A0,2/7/16 3:35,35.6,26.6,69.46,340,3,0.0,30.26,M,10.0,M,SCT,M,M,M,8500,M,M,M,M,M,M,M,M,M,M,32.8,K8A0 070335Z AUTO 34003KT 10SM SCT085 02/M03 A3026 RMK AO2
8A0,2/7/16 3:55,35.6,26.6,69.46,350,3,0.0,30.26,M,10.0,M,BKN,M,M,M,8500,M,M,M,M,M,M,M,M,M,M,32.8,K8A0 070355Z AUTO 35003KT 10SM BKN085 02/M03 A3026 RMK AO2
8A0,2/7/16 4:15,33.8,28.4,80.36,340,5,0.0,30.26,M,10.0,M,SCT,M,M,M,8500,M,M,M,M,M,M,M,M,M,M,28.53,K8A0 070415Z AUTO 34005KT 10SM SCT085 01/M02 A3026 RMK AO2
8A0,2/7/16 4:35,33.8,28.4,80.36,340,5,0.0,30.25,M,10.0,M,CLR,M,M,M,M,M,M,M,M,M,M,M,M,M,M,28.53,K8A0 070435Z AUTO 34005KT 10SM CLR 01/M02 A3025 RMK AO2
8A0,2/7/16 4:55,35.6,26.6,69.46,340,6,0.0,30.25,M,10.0,M,CLR,M,M,M,M,M,M,M,M,M,M,M,M,M,M,29.87,K8A0 070455Z AUTO 34006KT 10SM CLR 02/M03 A3025 RMK AO2
8A0,2/7/16 5:15,35.6,28.4,74.8,350,6,0.0,30.24,M,10.0,M,CLR,M,M,M,M,M,M,M,M,M,M,M,M,M,M,29.87,K8A0 070515Z AUTO 35006KT 10SM CLR 02/M02 A3024 RMK AO2
8A0,2/7/16 5:35,35.6,28.4,74.8,350,4,0.0,30.24,M,10.0,M,CLR,M,M,M,M,M,M,M,M,M,M,M,M,M,M,31.62,K8A0 070535Z AUTO 35004KT 10SM CLR 02/M02 A3024 RMK AO2
8A0,2/7/16 5:55,35.6,28.4,74.8,340,5,0.0,30.23,M,10.0,M,CLR,M,M,M,M,M,M,M,M,M,M,M,M,M,M,30.67,K8A0 070555Z AUTO 34005KT 10SM CLR 02/M02 A3023 RMK AO2
8A0,2/7/16 6:15,35.6,28.4,74.8,350,4,0.0,30.23,M,10.0,M,CLR,M,M,M,M,M,M,M,M,M,M,M,M,M,M,31.62,K8A0 070615Z AUTO 35004KT 10SM CLR 02/M02 A3023 RMK AO2
8A0,2/7/16 6:35,35.6,28.4,74.8,350,3,0.0,30.22,M,10.0,M,CLR,M,M,M,M,M,M,M,M,M,M,M,M,M,M,32.8,K8A0 070635Z AUTO 35003KT 10SM CLR 02/M02 A3022 RMK AO2
8A0,2/7/16 6:55,33.8,28.4,80.36,340,4,0.0,30.21,M,10.0,M,CLR,M,M,M,M,M,M,M,M,M,M,M,M,M,M,29.52,K8A0 070655Z AUTO 34004KT 10SM CLR 01/M02 A3021 RMK AO2
8A0,2/7/16 7:15,35.6,28.4,74.8,0,0,0.0,30.21,M,10.0,M,CLR,M,M,M,M,M,M,M,M,M,M,M,M,M,M,35.6,K8A0 070715Z AUTO 00000KT 10SM CLR 02/M02 A3021 RMK AO2
8A0,2/7/16 7:35,33.8,28.4,80.36,340,3,0.0,30.2,M,10.0,M,CLR,M,M,M,M,M,M,M,M,M,M,M,M,M,M,30.75,K8A0 070735Z AUTO 34003KT 10SM CLR 01/M02 A3020 RMK AO2
8A0,2/7/16 7:55,33.8,28.4,80.36,0,0,0.0,30.19,M,10.0,M,CLR,M,M,M,M,M,M,M,M,M,M,M,M,M,M,33.8,K8A0 070755Z AUTO 00000KT 10SM CLR 01/M02 A3019 RMK AO2
8A0,2/7/16 8:15,33.8,28.4,80.36,350,3,0.0,30.19,M,10.0,M,CLR,M,M,M,M,M,M,M,M,M,M,M,M,M,M,30.75,K8A0 070815Z AUTO 35003KT 10SM CLR 01/M02 A3019 RMK AO2
8A0,2/7/16 8:35,33.8,28.4,80.36,350,3,0.0,30.18,M,10.0,M,CLR,M,M,M,M,M,M,M,M,M,M,M,M,M,M,30.75,K8A0 070835Z AUTO 35003KT 10SM CLR 01/M02 A3018 RMK AO2
8A0,2/7/16 8:55,32.0,30.2,92.97,0,0,0.0,30.19,M,10.0,M,CLR,M,M,M,M,M,M,M,M,M,M,M,M,M,M,32.0,K8A0 070855Z AUTO 00000KT 10SM CLR 00/M01 A3019 RMK AO2
8A0,2/7/16 9:15,32.0,28.4,86.39,340,5,0.0,30.18,M,10.0,M,CLR,M,M,M,M,M,M,M,M,M,M,M,M,M,M,26.4,K8A0 070915Z AUTO 34005KT 10SM CLR 00/M02 A3018 RMK AO2
8A0,2/7/16 9:35,32.0,30.2,92.97,330,4,0.0,30.18,M,10.0,M,CLR,M,M,M,M,M,M,M,M,M,M,M,M,M,M,27.42,K8A0 070935Z AUTO 33004KT 10SM CLR 00/M01 A3018 RMK AO2
8A0,2/7/16 9:55,32.0,30.2,92.97,340,5,0.0,30.18,M,10.0,M,CLR,M,M,M,M,M,M,M,M,M,M,M,M,M,M,26.4,K8A0 070955Z AUTO 34005KT 10SM CLR 00/M01 A3018 RMK AO2
8A0,2/7/16 10:15,32.0,30.2,92.97,0,0,0.0,30.18,M,10.0,M,CLR,M,M,M,M,M,M,M,M,M,M,M,M,M,M,32.0,K8A0 071015Z AUTO 00000KT 10SM CLR 00/M01 A3018 RMK AO2
8A0,2/7/16 10:35,30.2,30.2,100.0,0,0,0.0,30.17,M,10.0,M,CLR,M,M,M,M,M,M,M,M,M,M,M,M,M,M,30.2,K8A0 071035Z AUTO 00000KT 10SM CLR M01/M01 A3017 RMK AO2
8A0,2/7/16 10:55,30.2,28.4,92.92,0,0,0.0,30.17,M,10.0,M,CLR,M,M,M,M,M,M,M,M,M,M,M,M,M,M,30.2,K8A0 071055Z AUTO 00000KT 10SM CLR M01/M02 A3017 RMK AO2
8A0,2/7/16 11:15,30.2,30.2,100.0,330,3,0.0,30.18,M,10.0,M,CLR,M,M,M,M,M,M,M,M,M,M,M,M,M,M,26.63,K8A0 071115Z AUTO 33003KT 10SM CLR M01/M01 A3018 RMK AO2
8A0,2/7/16 11:35,30.2,30.2,100.0,330,3,0.0,30.19,M,10.0,M,CLR,M,M,M,M,M,M,M,M,M,M,M,M,M,M,26.63,K8A0 071135Z AUTO 33003KT 10SM CLR M01/M01 A3019 RMK AO2
8A0,2/7/16 11:55,30.2,30.2,100.0,0,0,0.0,30.19,M,10.0,M,CLR,M,M,M,M,M,M,M,M,M,M,M,M,M,M,30.2,K8A0 071155Z AUTO 00000KT 10SM CLR M01/M01 A3019 RMK AO2
8A0,2/7/16 12:15,30.2,28.4,92.92,0,0,0.0,30.2,M,10.0,M,CLR,M,M,M,M,M,M,M,M,M,M,M,M,M,M,30.2,K8A0 071215Z AUTO 00000KT 10SM CLR M01/M02 A3020 RMK AO2
8A0,2/7/16 12:35,30.2,28.4,92.92,0,0,0.0,30.2,M,10.0,M,CLR,M,M,M,M,M,M,M,M,M,M,M,M,M,M,30.2,K8A0 071235Z AUTO 00000KT 10SM CLR M01/M02 A3020 RMK AO2
8A0,2/7/16 12:55,30.2,28.4,92.92,0,0,0.0,30.21,M,10.0,M,CLR,M,M,M,M,M,M,M,M,M,M,M,M,M,M,30.2,K8A0 071255Z AUTO 00000KT 10SM CLR M01/M02 A3021 RMK AO2
8A0,2/7/16 13:15,30.2,28.4,92.92,0,0,0.0,30.21,M,10.0,M,CLR,M,M,M,M,M,M,M,M,M,M,M,M,M,M,30.2,K8A0 071315Z AUTO 00000KT 10SM CLR M01/M02 A3021 RMK AO2
8A0,2/7/16 13:35,32.0,30.2,92.97,0,0,0.0,30.21,M,10.0,M,CLR,M,M,M,M,M,M,M,M,M,M,M,M,M,M,32.0,K8A0 071335Z AUTO 00000KT 10SM CLR 00/M01 A3021 RMK AO2
8A0,2/7/16 13:55,32.0,28.4,86.39,0,0,0.0,30.22,M,10.0,M,CLR,M,M,M,M,M,M,M,M,M,M,M,M,M,M,32.0,K8A0 071355Z AUTO 00000KT 10SM CLR 00/M02 A3022 RMK AO2
8A0,2/7/16 14:15,33.8,30.2,86.49,0,0,0.0,30.22,M,10.0,M,CLR,M,M,M,M,M,M,M,M,M,M,M,M,M,M,33.8,K8A0 071415Z AUTO 00000KT 10SM CLR 01/M01 A3022 RMK AO2
8A0,2/7/16 14:35,37.4,32.0,80.65,0,0,0.0,30.22,M,10.0,M,CLR,M,M,M,M,M,M,M,M,M,M,M,M,M,M,37.4,K8A0 071435Z AUTO 00000KT 10SM CLR 03/00 A3022 RMK AO2
8A0,2/7/16 14:55,42.8,32.0,65.38,340,4,0.0,30.22,M,10.0,M,CLR,M,M,M,M,M,M,M,M,M,M,M,M,M,M,40.03,K8A0 071455Z AUTO 34004KT 10SM CLR 06/00 A3022 RMK AO2
8A0,2/7/16 15:15,42.8,30.2,60.79,350,9,0.0,30.22,M,10.0,M,CLR,M,M,M,M,M,M,M,M,M,M,M,M,M,M,36.94,K8A0 071515Z AUTO 35009KT 10SM CLR 06/M01 A3022 RMK AO2
8A0,2/7/16 15:35,44.6,32.0,61.03,350,6,0.0,30.21,M,10.0,M,CLR,M,M,M,M,M,M,M,M,M,M,M,M,M,M,40.71,K8A0 071535Z AUTO 35006KT 10SM CLR 07/00 A3021 RMK AO2
8A0,2/7/16 15:55,46.4,32.0,57.0,350,7,0.0,30.21,M,10.0,M,CLR,M,M,M,M,M,M,M,M,M,M,M,M,M,M,42.33,K8A0 071555Z AUTO 35007KT 299V019 10SM CLR 08/00 A3021 RMK AO2
8A0,2/7/16 16:15,46.4,32.0,57.0,340,9,0.0,30.21,M,10.0,M,CLR,M,M,M,M,M,M,M,M,M,M,M,M,M,M,41.42,K8A0 071615Z AUTO 34009KT 10SM CLR 08/00 A3021 RMK AO2
8A0,2/7/16 16:35,46.4,30.2,53.0,310,8,0.0,30.21,M,10.0,M,CLR,M,M,M,M,M,M,M,M,M,M,M,M,M,M,41.85,K8A0 071635Z AUTO 31008KT 10SM CLR 08/M01 A3021 RMK AO2
8A0,2/7/16 16:55,46.4,32.0,57.0,330,6,0.0,30.19,M,10.0,M,CLR,M,M,M,M,M,M,M,M,M,M,M,M,M,M,42.87,K8A0 071655Z AUTO 33006KT 10SM CLR 08/00 A3019 RMK AO2
8A0,2/7/16 17:15,48.2,30.2,49.53,340,5,0.0,30.18,M,10.0,M,CLR,M,M,M,M,M,M,M,M,M,M,M,M,M,M,45.63,K8A0 071715Z AUTO 34005KT 10SM CLR 09/M01 A3018 RMK AO2
8A0,2/7/16 17:35,50.0,30.2,46.31,350,7,0.0,30.16,M,10.0,M,CLR,M,M,M,M,M,M,M,M,M,M,M,M,M,M,46.72,K8A0 071735Z AUTO 35007KT 10SM CLR 10/M01 A3016 RMK AO2
8A0,2/7/16 17:55,50.0,32.0,49.81,10,4,0.0,30.14,M,10.0,M,CLR,M,M,M,M,M,M,M,M,M,M,M,M,M,M,48.44,K8A0 071755Z AUTO 01004KT 10SM CLR 10/00 A3014 RMK AO2
8A0,2/7/16 18:15,50.0,30.2,46.31,0,0,0.0,30.12,M,10.0,M,CLR,M,M,M,M,M,M,M,M,M,M,M,M,M,M,50.0,K8A0 071815Z AUTO 00000KT 10SM CLR 10/M01 A3012 RMK AO2
8A0,2/7/16 18:35,50.0,30.2,46.31,350,3,0.0,30.11,M,10.0,M,CLR,M,M,M,M,M,M,M,M,M,M,M,M,M,M,49.27,K8A0 071835Z AUTO 35003KT 10SM CLR 10/M01 A3011 RMK AO2
8A0,2/7/16 18:55,51.8,30.2,43.32,0,0,0.0,30.09,M,10.0,M,CLR,M,M,M,M,M,M,M,M,M,M,M,M,M,M,51.8,K8A0 071855Z AUTO 00000KT 10SM CLR 11/M01 A3009 RMK AO2
8A0,2/7/16 19:15,51.8,32.0,46.59,0,0,0.0,30.08,M,10.0,M,CLR,M,M,M,M,M,M,M,M,M,M,M,M,M,M,51.8,K8A0 071915Z AUTO 00000KT 10SM CLR 11/00 A3008 RMK AO2
8A0,2/7/16 19:35,51.8,30.2,43.32,220,3,0.0,30.06,M,10.0,M,CLR,M,M,M,M,M,M,M,M,M,M,M,M,M,M,51.8,K8A0 071935Z AUTO 22003KT 10SM CLR 11/M01 A3006 RMK AO2
8A0,2/7/16 19:55,53.6,32.0,43.61,270,6,0.0,30.04,M,10.0,M,CLR,M,M,M,M,M,M,M,M,M,M,M,M,M,M,53.6,K8A0 071955Z AUTO 27006KT 10SM CLR 12/00 A3004 RMK AO2
8A0,2/7/16 20:15,51.8,30.2,43.32,310,6,0.0,30.03,M,10.0,M,CLR,M,M,M,M,M,M,M,M,M,M,M,M,M,M,51.8,K8A0 072015Z AUTO 31006KT 10SM CLR 11/M01 A3003 RMK AO2
8A0,2/7/16 20:35,53.6,30.2,40.54,270,5,0.0,30.03,M,10.0,M,CLR,M,M,M,M,M,M,M,M,M,M,M,M,M,M,53.6,K8A0 072035Z AUTO 27005KT 10SM CLR 12/M01 A3003 RMK AO2
8A0,2/7/16 20:55,53.6,30.2,40.54,320,7,0.0,30.02,M,10.0,M,CLR,M,M,M,M,M,M,M,M,M,M,M,M,M,M,53.6,K8A0 072055Z AUTO 32007KT 10SM CLR 12/M01 A3002 RMK AO2
8A0,2/7/16 21:15,53.6,30.2,40.54,260,7,0.0,30.02,M,10.0,M,CLR,M,M,M,M,M,M,M,M,M,M,M,M,M,M,53.6,K8A0 072115Z AUTO 26007KT 10SM CLR 12/M01 A3002 RMK AO2
8A0,2/7/16 21:35,53.6,30.2,40.54,290,7,0.0,30.02,M,10.0,M,CLR,M,M,M,M,M,M,M,M,M,M,M,M,M,M,53.6,K8A0 072135Z AUTO 29007KT 10SM CLR 12/M01 A3002 RMK AO2
8A0,2/7/16 21:55,53.6,32.0,43.61,270,10,0.0,30.02,M,10.0,M,CLR,M,M,M,M,M,M,M,M,M,M,M,M,M,M,53.6,K8A0 072155Z AUTO 27010KT 10SM CLR 12/00 A3002 RMK AO2
8A0,2/7/16 22:15,53.6,32.0,43.61,260,8,0.0,30.02,M,10.0,M,CLR,M,M,M,M,M,M,M,M,M,M,M,M,M,M,53.6,K8A0 072215Z AUTO 26008KT 10SM CLR 12/00 A3002 RMK AO2
8A0,2/7/16 22:35,51.8,30.2,43.32,250,8,0.0,30.01,M,10.0,14,CLR,M,M,M,M,M,M,M,M,M,M,M,M,M,M,51.8,K8A0 072235Z AUTO 25008G14KT 10SM CLR 11/M01 A3001 RMK AO2
8A0,2/7/16 22:55,51.8,30.2,43.32,260,7,0.0,30.0,M,10.0,M,CLR,M,M,M,M,M,M,M,M,M,M,M,M,M,M,51.8,K8A0 072255Z AUTO 26007KT 10SM CLR 11/M01 A3000 RMK AO2
8A0,2/7/16 23:15,50.0,30.2,46.31,250,5,0.0,30.0,M,10.0,M,CLR,M,M,M,M,M,M,M,M,M,M,M,M,M,M,47.77,K8A0 072315Z AUTO 25005KT 10SM CLR 10/M01 A3000 RMK AO2
8A0,2/7/16 23:35,50.0,30.2,46.31,250,4,0.0,29.99,M,10.0,M,CLR,M,M,M,M,M,M,M,M,M,M,M,M,M,M,48.44,K8A0 072335Z AUTO 25004KT 10SM CLR 10/M01 A2999 RMK AO2
8A0,2/7/16 23:55,48.2,30.2,49.53,240,4,0.0,29.99,M,10.0,M,SCT,M,M,M,11000,M,M,M,M,M,M,M,M,M,M,46.34,K8A0 072355Z AUTO 24004KT 10SM SCT110 09/M01 A2999 RMK AO2
8A0,2/8/16 0:15,46.4,30.2,53.0,260,5,0.0,30.0,M,10.0,M,CLR,M,M,M,M,M,M,M,M,M,M,M,M,M,M,43.5,K8A0 080015Z AUTO 26005KT 10SM CLR 08/M01 A3000 RMK AO2
8A0,2/8/16 0:35,46.4,30.2,53.0,240,5,0.0,30.0,M,10.0,M,CLR,M,M,M,M,M,M,M,M,M,M,M,M,M,M,43.5,K8A0 080035Z AUTO 24005KT 10SM CLR 08/M01 A3000 RMK AO2
8A0,2/8/16 0:55,46.4,30.2,53.0,260,7,0.0,30.0,M,10.0,M,CLR,M,M,M,M,M,M,M,M,M,M,M,M,M,M,42.33,K8A0 080055Z AUTO 26007KT 10SM CLR 08/M01 A3000 RMK AO2
8A0,2/8/16 1:15,44.6,30.2,56.74,240,6,0.0,30.0,M,10.0,M,CLR,M,M,M,M,M,M,M,M,M,M,M,M,M,M,40.71,K8A0 080115Z AUTO 24006KT 10SM CLR 07/M01 A3000 RMK AO2
8A0,2/8/16 1:35,44.6,28.4,52.72,240,6,0.0,29.99,M,10.0,M,SCT,M,M,M,12000,M,M,M,M,M,M,M,M,M,M,40.71,K8A0 080135Z AUTO 24006KT 10SM SCT120 07/M02 A2999 RMK AO2
8A0,2/8/16 1:55,44.6,28.4,52.72,250,7,0.0,29.99,M,10.0,M,CLR,M,M,M,M,M,M,M,M,M,M,M,M,M,M,40.14,K8A0 080155Z AUTO 25007KT 10SM CLR 07/M02 A2999 RMK AO2
8A0,2/8/16 2:15,44.6,28.4,52.72,240,7,0.0,29.99,M,10.0,M,CLR,M,M,M,M,M,M,M,M,M,M,M,M,M,M,40.14,K8A0 080215Z AUTO 24007KT 10SM CLR 07/M02 A2999 RMK AO2
8A0,2/8/16 2:35,44.6,28.4,52.72,240,5,0.0,29.98,M,10.0,M,CLR,M,M,M,M,M,M,M,M,M,M,M,M,M,M,41.36,K8A0 080235Z AUTO 24005KT 10SM CLR 07/M02 A2998 RMK AO2
8A0,2/8/16 2:55,44.6,28.4,52.72,240,5,0.0,29.97,M,10.0,M,CLR,M,M,M,M,M,M,M,M,M,M,M,M,M,M,41.36,K8A0 080255Z AUTO 24005KT 10SM CLR 07/M02 A2997 RMK AO2
8A0,2/8/16 3:15,42.8,28.4,56.48,240,5,0.0,29.98,M,10.0,M,CLR,M,M,M,M,M,M,M,M,M,M,M,M,M,M,39.22,K8A0 080315Z AUTO 24005KT 10SM CLR 06/M02 A2998 RMK AO2
8A0,2/8/16 3:35,42.8,28.4,56.48,250,6,0.0,29.98,M,10.0,M,CLR,M,M,M,M,M,M,M,M,M,M,M,M,M,M,38.54,K8A0 080335Z AUTO 25006KT 10SM CLR 06/M02 A2998 RMK AO2
8A0,2/8/16 3:55,42.8,28.4,56.48,230,5,0.0,29.98,M,10.0,M,CLR,M,M,M,M,M,M,M,M,M,M,M,M,M,M,39.22,K8A0 080355Z AUTO 23005KT 10SM CLR 06/M02 A2998 RMK AO2
8A0,2/8/16 4:15,42.8,28.4,56.48,240,6,0.0,29.97,M,10.0,M,CLR,M,M,M,M,M,M,M,M,M,M,M,M,M,M,38.54,K8A0 080415Z AUTO 24006KT 10SM CLR 06/M02 A2997 RMK AO2
8A0,2/8/16 4:35,41.0,28.4,60.54,210,4,0.0,29.97,M,10.0,M,CLR,M,M,M,M,M,M,M,M,M,M,M,M,M,M,37.93,K8A0 080435Z AUTO 21004KT 10SM CLR 05/M02 A2997 RMK AO2
8A0,2/8/16 4:55,39.2,28.4,64.93,200,4,0.0,29.97,M,10.0,M,CLR,M,M,M,M,M,M,M,M,M,M,M,M,M,M,35.83,K8A0 080455Z AUTO 20004KT 10SM CLR 04/M02 A2997 RMK AO2
8A0,2/8/16 5:15,39.2,28.4,64.93,210,5,0.0,29.97,M,10.0,M,CLR,M,M,M,M,M,M,M,M,M,M,M,M,M,M,34.95,K8A0 080515Z AUTO 21005KT 10SM CLR 04/M02 A2997 RMK AO2
8A0,2/8/16 5:35,39.2,28.4,64.93,210,6,0.0,29.96,M,10.0,M,CLR,M,M,M,M,M,M,M,M,M,M,M,M,M,M,34.2,K8A0 080535Z AUTO 21006KT 10SM CLR 04/M02 A2996 RMK AO2
8A0,2/8/16 5:55,39.2,28.4,64.93,220,5,0.0,29.95,M,10.0,M,CLR,M,M,M,M,M,M,M,M,M,M,M,M,M,M,34.95,K8A0 080555Z AUTO 22005KT 10SM CLR 04/M02 A2995 RMK AO2
8A0,2/8/16 6:15,37.4,28.4,69.67,220,6,0.0,29.94,M,10.0,M,CLR,M,M,M,M,M,M,M,M,M,M,M,M,M,M,32.03,K8A0 080615Z AUTO 22006KT 10SM CLR 03/M02 A2994 RMK AO2
8A0,2/8/16 6:35,37.4,30.2,74.98,210,5,0.0,29.93,M,10.0,M,CLR,M,M,M,M,M,M,M,M,M,M,M,M,M,M,32.81,K8A0 080635Z AUTO 21005KT 10SM CLR 03/M01 A2993 RMK AO2
8A0,2/8/16 6:55,37.4,30.2,74.98,210,6,0.0,29.92,M,10.0,M,CLR,M,M,M,M,M,M,M,M,M,M,M,M,M,M,32.03,K8A0 080655Z AUTO 21006KT 10SM CLR 03/M01 A2992 RMK AO2
8A0,2/8/16 7:15,37.4,30.2,74.98,210,6,0.0,29.91,M,10.0,M,CLR,M,M,M,M,M,M,M,M,M,M,M,M,M,M,32.03,K8A0 080715Z AUTO 21006KT 10SM CLR 03/M01 A2991 RMK AO2
8A0,2/8/16 7:35,37.4,30.2,74.98,210,6,0.0,29.9,M,10.0,M,CLR,M,M,M,M,M,M,M,M,M,M,M,M,M,M,32.03,K8A0 080735Z AUTO 21006KT 10SM CLR 03/M01 A2990 RMK AO2
8A0,2/8/16 7:55,37.4,30.2,74.98,210,5,0.0,29.89,M,10.0,M,CLR,M,M,M,M,M,M,M,M,M,M,M,M,M,M,32.81,K8A0 080755Z AUTO 21005KT 10SM CLR 03/M01 A2989 RMK AO2
8A0,2/8/16 8:15,37.4,32.0,80.65,210,4,0.0,29.87,M,10.0,M,CLR,M,M,M,M,M,M,M,M,M,M,M,M,M,M,33.73,K8A0 080815Z AUTO 21004KT 10SM CLR 03/00 A2987 RMK AO2
8A0,2/8/16 8:35,37.4,32.0,80.65,220,5,0.0,29.86,M,10.0,M,CLR,M,M,M,M,M,M,M,M,M,M,M,M,M,M,32.81,K8A0 080835Z AUTO 22005KT 10SM CLR 03/00 A2986 RMK AO2
8A0,2/8/16 8:55,39.2,32.0,75.16,230,5,0.0,29.86,M,10.0,M,BKN,M,M,M,12000,M,M,M,M,M,M,M,M,M,M,34.95,K8A0 080855Z AUTO 23005KT 10SM BKN120 04/00 A2986 RMK AO2
8A0,2/8/16 9:15,37.4,32.0,80.65,230,4,0.0,29.85,M,10.0,M,OVC,M,M,M,12000,M,M,M,M,M,M,M,M,M,M,33.73,K8A0 080915Z AUTO 23004KT 10SM OVC120 03/00 A2985 RMK AO2
8A0,2/8/16 9:35,37.4,32.0,80.65,260,7,0.0,29.85,M,10.0,M,SCT,M,M,M,12000,M,M,M,M,M,M,M,M,M,M,31.36,K8A0 080935Z AUTO 26007KT 10SM SCT120 03/00 A2985 RMK AO2
8A0,2/8/16 9:55,41.0,32.0,70.08,260,9,0.0,29.85,M,10.0,M,SCT,M,M,M,12000,M,M,M,M,M,M,M,M,M,M,34.7,K8A0 080955Z AUTO 26009KT 10SM SCT120 05/00 A2985 RMK AO2
8A0,2/8/16 10:15,41.0,32.0,70.08,270,8,0.0,29.84,M,10.0,M,SCT,M,M,M,12000,M,M,M,M,M,M,M,M,M,M,35.2,K8A0 081015Z AUTO 27008KT 10SM SCT120 05/00 A2984 RMK AO2
8A0,2/8/16 10:35,41.0,32.0,70.08,270,7,0.0,29.84,M,10.0,M,SCT,BKN,M,M,6000,12000,M,M,M,M,M,M,M,M,M,35.75,K8A0 081035Z AUTO 27007KT 10SM SCT060 BKN120 05/00 A2984 RMK AO2
8A0,2/8/16 10:55,41.0,33.8,75.33,270,8,0.0,29.84,M,10.0,M,SCT,SCT,M,M,7000,12000,M,M,M,M,M,M,M,M,M,35.2,K8A0 081055Z AUTO 27008KT 10SM SCT070 SCT120 05/01 A2984 RMK AO2
8A0,2/8/16 11:15,41.0,33.8,75.33,270,8,0.0,29.84,M,10.0,M,SCT,BKN,M,M,7000,11000,M,M,M,M,M,M,M,M,M,35.2,K8A0 081115Z AUTO 27008KT 10SM SCT070 BKN110 05/01 A2984 RMK AO2
8A0,2/8/16 11:35,41.0,33.8,75.33,260,7,0.0,29.85,M,10.0,M,SCT,BKN,OVC,M,8000,9000,11000,M,M,M,M,M,M,M,M,35.75,K8A0 081135Z AUTO 26007KT 10SM SCT080 BKN090 OVC110 05/01 A2985 RMK AO2
8A0,2/8/16 11:55,39.2,33.8,80.79,270,6,0.0,29.85,M,10.0,M,BKN,OVC,M,M,6000,7000,M,M,M,M,M,M,M,M,M,34.2,K8A0 081155Z AUTO 27006KT 10SM BKN060 OVC070 04/01 A2985 RMK AO2
8A0,2/8/16 12:15,41.0,33.8,75.33,260,6,0.0,29.85,M,10.0,M,SCT,BKN,OVC,M,3400,4700,6000,M,M,M,M,M,M,M,M,36.37,K8A0 081215Z AUTO 26006KT 10SM SCT034 BKN047 OVC060 05/01 A2985 RMK AO2
8A0,2/8/16 12:35,41.0,33.8,75.33,270,8,0.0,29.85,M,10.0,15,SCT,BKN,OVC,M,3300,3900,4700,M,#NAME?,M,M,M,M,M,M,35.2,K8A0 081235Z AUTO 27008G15KT 10SM -DZ SCT033 BKN039 OVC047 05/01 A2985 RMK AO2
8A0,2/8/16 12:55,41.0,33.8,75.33,200,6,0.0,29.82,M,10.0,M,SCT,BKN,OVC,M,3300,4800,6500,M,M,M,M,M,M,M,M,36.37,K8A0 081255Z AUTO 20006KT 10SM SCT033 BKN048 OVC065 05/01 A2982 RMK AO2
8A0,2/8/16 13:15,41.0,33.8,75.33,220,5,0.0,29.82,M,10.0,M,SCT,BKN,OVC,M,6000,8000,9500,M,M,M,M,M,M,M,M,37.08,K8A0 081315Z AUTO 22005KT 10SM SCT060 BKN080 OVC095 05/01 A2982 RMK AO2
8A0,2/8/16 13:35,41.0,33.8,75.33,250,6,0.0,29.81,M,10.0,M,BKN,OVC,M,M,7500,9000,M,M,M,M,M,M,M,M,M,36.37,K8A0 081335Z AUTO 25006KT 10SM BKN075 OVC090 05/01 A2981 RMK AO2
8A0,2/8/16 13:55,42.8,33.8,70.28,250,8,0.0,29.82,M,10.0,M,SCT,OVC,M,M,8000,12000,M,M,M,M,M,M,M,M,M,37.42,K8A0 081355Z AUTO 25008KT 10SM SCT080 OVC120 06/01 A2982 RMK AO2
8A0,2/8/16 14:15,42.8,33.8,70.28,250,6,0.0,29.82,M,10.0,M,SCT,BKN,BKN,M,7000,9500,12000,M,M,M,M,M,M,M,M,38.54,K8A0 081415Z AUTO 25006KT 10SM SCT070 BKN095 BKN120 06/01 A2982 RMK AO2
8A0,2/8/16 14:35,42.8,33.8,70.28,260,10,0.0,29.82,M,10.0,M,SCT,SCT,M,M,7000,11000,M,M,M,M,M,M,M,M,M,36.51,K8A0 081435Z AUTO 26010KT 10SM SCT070 SCT110 06/01 A2982 RMK AO2
8A0,2/8/16 14:55,44.6,32.0,61.03,270,13,0.0,29.83,M,10.0,17,SCT,SCT,M,M,9500,11000,M,M,M,M,M,M,M,M,M,37.71,K8A0 081455Z AUTO 27013G17KT 10SM SCT095 SCT110 07/00 A2983 RMK AO2
8A0,2/8/16 15:15,44.6,32.0,61.03,280,9,0.0,29.83,M,10.0,17,SCT,M,M,M,9500,M,M,M,M,M,M,M,M,M,M,39.18,K8A0 081515Z AUTO 28009G17KT 10SM SCT095 07/00 A2983 RMK AO2
8A0,2/8/16 15:35,46.4,32.0,57.0,270,8,0.0,29.82,M,10.0,17,CLR,M,M,M,M,M,M,M,M,M,M,M,M,M,M,41.85,K8A0 081535Z AUTO 27008G17KT 249V309 10SM CLR 08/00 A2982 RMK AO2
8A0,2/8/16 15:55,46.4,30.2,53.0,290,17,0.0,29.83,M,10.0,20,CLR,M,M,M,M,M,M,M,M,M,M,M,M,M,M,38.94,K8A0 081555Z AUTO 29017G20KT 10SM CLR 08/M01 A2983 RMK AO2
8A0,2/8/16 16:15,46.4,30.2,53.0,270,14,0.0,29.83,M,10.0,22,CLR,M,M,M,M,M,M,M,M,M,M,M,M,M,M,39.72,K8A0 081615Z AUTO 27014G22KT 10SM CLR 08/M01 A2983 RMK AO2
8A0,2/8/16 16:35,46.4,30.2,53.0,260,16,0.0,29.83,M,10.0,23,CLR,M,M,M,M,M,M,M,M,M,M,M,M,M,M,39.19,K8A0 081635Z AUTO 26016G23KT 10SM CLR 08/M01 A2983 RMK AO2
8A0,2/8/16 16:55,46.4,30.2,53.0,280,13,0.0,29.82,M,10.0,M,CLR,M,M,M,M,M,M,M,M,M,M,M,M,M,M,40.02,K8A0 081655Z AUTO 28013KT 10SM CLR 08/M01 A2982 RMK AO2
8A0,2/8/16 17:15,46.4,30.2,53.0,270,16,0.0,29.82,M,10.0,26,CLR,M,M,M,M,M,M,M,M,M,M,M,M,M,M,39.19,K8A0 081715Z AUTO 27016G26KT 10SM CLR 08/M01 A2982 RMK AO2
8A0,2/8/16 17:35,46.4,30.2,53.0,270,14,0.0,29.8,M,10.0,23,SCT,SCT,M,M,6000,7500,M,M,M,M,M,M,M,M,M,39.72,K8A0 081735Z AUTO 27014G23KT 10SM SCT060 SCT075 08/M01 A2980 RMK AO2
8A0,2/8/16 17:55,46.4,28.4,49.24,270,19,0.0,29.81,M,10.0,29,SCT,M,M,M,6000,M,M,M,M,M,M,M,M,M,M,38.48,K8A0 081755Z AUTO 27019G29KT 10SM SCT060 08/M02 A2981 RMK AO2
8A0,2/8/16 18:15,48.2,30.2,49.53,260,18,0.0,29.8,M,10.0,28,SCT,SCT,M,M,6000,7000,M,M,M,M,M,M,M,M,M,41.07,K8A0 081815Z AUTO 26018G28KT 10SM SCT060 SCT070 09/M01 A2980 RMK AO2
8A0,2/8/16 18:35,48.2,30.2,49.53,280,21,0.0,29.79,M,10.0,31,BKN,BKN,M,M,6000,7000,M,M,M,M,M,M,M,M,M,40.46,K8A0 081835Z AUTO 28021G31KT 249V319 10SM BKN060 BKN070 09/M01 A2979 RMK AO2
8A0,2/8/16 18:55,46.4,28.4,49.24,290,20,0.0,29.79,M,10.0,30,OVC,M,M,M,6000,M,M,M,M,M,M,M,M,M,M,38.26,K8A0 081855Z AUTO 29020G30KT 10SM OVC060 08/M02 A2979 RMK AO2
8A0,2/8/16 19:15,44.6,30.2,56.74,300,15,0.0,29.8,M,10.0,22,OVC,M,M,M,6000,M,M,M,M,M,M,M,M,M,M,37.11,K8A0 081915Z AUTO 30015G22KT 10SM OVC060 07/M01 A2980 RMK AO2
8A0,2/8/16 19:35,44.6,30.2,56.74,300,14,0.0,29.8,M,10.0,20,SCT,OVC,M,M,6000,7500,M,M,M,M,M,M,M,M,M,37.4,K8A0 081935Z AUTO 30014G20KT 10SM SCT060 OVC075 07/M01 A2980 RMK AO2
8A0,2/8/16 19:55,44.6,30.2,56.74,300,11,0.0,29.8,M,10.0,19,SCT,OVC,M,M,6000,7500,M,M,M,M,M,M,M,M,M,38.39,K8A0 081955Z AUTO 30011G19KT 10SM SCT060 OVC075 07/M01 A2980 RMK AO2
8A0,2/8/16 20:15,44.6,30.2,56.74,290,13,0.0,29.8,M,10.0,19,SCT,OVC,M,M,6000,7500,M,M,M,M,M,M,M,M,M,37.71,K8A0 082015Z AUTO 29013G19KT 10SM SCT060 OVC075 07/M01 A2980 RMK AO2
8A0,2/8/16 20:35,44.6,30.2,56.74,280,13,0.0,29.8,M,10.0,16,SCT,OVC,M,M,6000,7500,M,M,M,M,M,M,M,M,M,37.71,K8A0 082035Z AUTO 28013G16KT 10SM SCT060 OVC075 07/M01 A2980 RMK AO2
8A0,2/8/16 20:55,44.6,30.2,56.74,280,11,0.0,29.8,M,10.0,17,SCT,OVC,M,M,5500,7500,M,M,M,M,M,M,M,M,M,38.39,K8A0 082055Z AUTO 28011G17KT 10SM SCT055 OVC075 07/M01 A2980 RMK AO2
8A0,2/8/16 21:15,42.8,30.2,60.79,290,11,0.0,29.81,M,10.0,17,SCT,OVC,M,M,5500,8000,M,M,M,M,M,M,M,M,M,36.11,K8A0 082115Z AUTO 29011G17KT 10SM SCT055 OVC080 06/M01 A2981 RMK AO2
8A0,2/8/16 21:35,42.8,30.2,60.79,290,11,0.0,29.81,M,10.0,16,SCT,BKN,OVC,M,4500,6500,7000,M,M,M,M,M,M,M,M,36.11,K8A0 082135Z AUTO 29011G16KT 10SM SCT045 BKN065 OVC070 06/M01 A2981 RMK AO2
8A0,2/8/16 21:55,42.8,32.0,65.38,290,11,0.0,29.82,M,10.0,19,SCT,SCT,OVC,M,4100,5000,7500,M,M,M,M,M,M,M,M,36.11,K8A0 082155Z AUTO 29011G19KT 10SM SCT041 SCT050 OVC075 06/00 A2982 RMK AO2
8A0,2/8/16 22:15,42.8,32.0,65.38,290,10,0.0,29.82,M,10.0,18,SCT,OVC,M,M,5000,7500,M,M,M,M,M,M,M,M,M,36.51,K8A0 082215Z AUTO 29010G18KT 10SM SCT050 OVC075 06/00 A2982 RMK AO2
8A0,2/8/16 22:35,42.8,32.0,65.38,290,16,0.0,29.82,M,10.0,24,SCT,SCT,OVC,M,4500,5000,7500,M,M,M,M,M,M,M,M,34.5,K8A0 082235Z AUTO 29016G24KT 10SM SCT045 SCT050 OVC075 06/00 A2982 RMK AO2
8A0,2/8/16 22:55,41.0,30.2,65.16,290,11,0.0,29.83,M,10.0,18,OVC,M,M,M,7500,M,M,M,M,M,M,M,M,M,M,33.84,K8A0 082255Z AUTO 29011G18KT 10SM OVC075 05/M01 A2983 RMK AO2
8A0,2/8/16 23:15,39.2,32.0,75.16,300,13,0.0,29.84,M,10.0,22,SCT,SCT,OVC,M,4200,5000,7500,M,M,M,M,M,M,M,M,30.79,K8A0 082315Z AUTO 30013G22KT 10SM SCT042 SCT050 OVC075 04/00 A2984 RMK AO2
8A0,2/8/16 23:35,37.4,30.2,74.98,290,14,0.0,29.85,M,10.0,22,SCT,OVC,M,M,6000,7500,M,M,M,M,M,M,M,M,M,28.12,K8A0 082335Z AUTO 29014G22KT 10SM SCT060 OVC075 03/M01 A2985 RMK AO2
8A0,2/8/16 23:55,37.4,30.2,74.98,300,13,0.0,29.86,M,10.0,19,SCT,SCT,OVC,M,4800,6000,7500,M,M,M,M,M,M,M,M,28.49,K8A0 082355Z AUTO 30013G19KT 10SM SCT048 SCT060 OVC075 03/M01 A2986 RMK AO2
8A0,2/9/16 0:15,37.4,28.4,69.67,300,14,0.0,29.87,M,10.0,22,SCT,OVC,M,M,4800,7500,M,M,M,M,M,M,M,M,M,28.12,K8A0 090015Z AUTO 30014G22KT 10SM SCT048 OVC075 03/M02 A2987 RMK AO2
8A0,2/9/16 0:35,37.4,28.4,69.67,290,16,0.0,29.87,M,10.0,22,SCT,OVC,M,M,4800,6500,M,M,M,M,M,M,M,M,M,27.46,K8A0 090035Z AUTO 29016G22KT 269V329 10SM SCT048 OVC065 03/M02 A2987 RMK AO2
8A0,2/9/16 0:55,37.4,26.6,64.7,280,12,0.0,29.87,M,10.0,M,OVC,M,M,M,6500,M,M,M,M,M,M,M,M,M,M,28.87,K8A0 090055Z AUTO 28012KT 10SM OVC065 03/M03 A2987 RMK AO2
8A0,2/9/16 1:15,37.4,26.6,64.7,300,6,0.0,29.87,M,10.0,14,SCT,OVC,M,M,4800,6500,M,M,M,M,M,M,M,M,M,32.03,K8A0 090115Z AUTO 30006G14KT 10SM SCT048 OVC065 03/M03 A2987 RMK AO2
8A0,2/9/16 1:35,37.4,28.4,69.67,290,10,0.0,29.87,M,10.0,M,SCT,SCT,OVC,M,4800,5000,6500,M,M,M,M,M,M,M,M,29.74,K8A0 090135Z AUTO 29010KT 10SM SCT048 SCT050 OVC065 03/M02 A2987 RMK AO2
8A0,2/9/16 1:55,37.4,28.4,69.67,280,12,0.0,29.87,M,10.0,16,SCT,OVC,M,M,4800,6500,M,M,M,M,M,M,M,M,M,28.87,K8A0 090155Z AUTO 28012G16KT 10SM SCT048 OVC065 03/M02 A2987 RMK AO2
8A0,2/9/16 2:15,37.4,28.4,69.67,290,10,0.0,29.87,M,10.0,14,SCT,BKN,OVC,M,4600,5500,7500,M,M,M,M,M,M,M,M,29.74,K8A0 090215Z AUTO 29010G14KT 10SM SCT046 BKN055 OVC075 03/M02 A2987 RMK AO2
8A0,2/9/16 2:35,35.6,28.4,74.8,280,11,0.0,29.87,M,10.0,15,SCT,BKN,OVC,M,4400,5000,7500,M,M,M,M,M,M,M,M,27.02,K8A0 090235Z AUTO 28011G15KT 10SM SCT044 BKN050 OVC075 02/M02 A2987 RMK AO2
8A0,2/9/16 2:55,35.6,28.4,74.8,280,11,0.0,29.87,M,10.0,M,SCT,BKN,OVC,M,4400,5000,7500,M,M,M,M,M,M,M,M,27.02,K8A0 090255Z AUTO 28011KT 10SM SCT044 BKN050 OVC075 02/M02 A2987 RMK AO2
8A0,2/9/16 3:15,35.6,28.4,74.8,290,7,0.0,29.87,M,10.0,M,SCT,BKN,OVC,M,4300,5000,7500,M,M,M,M,M,M,M,M,29.17,K8A0 090315Z AUTO 29007KT 10SM SCT043 BKN050 OVC075 02/M02 A2987 RMK AO2
8A0,2/9/16 3:35,35.6,30.2,80.51,300,12,0.0,29.87,M,10.0,19,SCT,OVC,M,M,4300,5000,M,M,M,M,M,M,M,M,M,26.58,K8A0 090335Z AUTO 30012G19KT 10SM SCT043 OVC050 02/M01 A2987 RMK AO2
8A0,2/9/16 3:55,35.6,30.2,80.51,300,10,0.0,29.86,M,10.0,15,BKN,OVC,M,M,4100,4800,M,M,M,M,M,M,M,M,M,27.48,K8A0 090355Z AUTO 30010G15KT 10SM BKN041 OVC048 02/M01 A2986 RMK AO2
8A0,2/9/16 4:15,35.6,30.2,80.51,290,11,0.0,29.86,M,10.0,16,SCT,OVC,M,M,3100,4100,M,M,M,M,M,M,M,M,M,27.02,K8A0 090415Z AUTO 29011G16KT 10SM SCT031 OVC041 02/M01 A2986 RMK AO2
8A0,2/9/16 4:35,33.8,30.2,86.49,320,14,0.0,29.86,M,10.0,18,SCT,BKN,OVC,M,2700,3200,4300,M,#NAME?,M,M,M,M,M,M,23.48,K8A0 090435Z AUTO 32014G18KT 10SM -SN SCT027 BKN032 OVC043 01/M01 A2986 RMK AO2
8A0,2/9/16 4:55,33.8,32.0,93.03,320,11,0.0,29.86,M,10.0,14,SCT,BKN,OVC,M,2300,2800,4100,M,#NAME?,M,M,M,M,M,M,24.74,K8A0 090455Z AUTO 32011G14KT 10SM -SN SCT023 BKN028 OVC041 01/00 A2986 RMK AO2
8A0,2/9/16 5:15,33.8,30.2,86.49,300,9,0.0,29.86,M,10.0,M,SCT,SCT,OVC,M,2200,3000,3900,M,M,M,M,M,M,M,M,25.75,K8A0 090515Z AUTO 30009KT 10SM SCT022 SCT030 OVC039 01/M01 A2986 RMK AO2
8A0,2/9/16 5:35,33.8,30.2,86.49,290,11,0.0,29.86,M,10.0,18,SCT,OVC,M,M,2600,3700,M,M,M,M,M,M,M,M,M,24.74,K8A0 090535Z AUTO 29011G18KT 10SM SCT026 OVC037 01/M01 A2986 RMK AO2
8A0,2/9/16 5:55,33.8,30.2,86.49,290,10,0.0,29.85,M,10.0,17,BKN,OVC,M,M,2900,3500,M,M,M,M,M,M,M,M,M,25.23,K8A0 090555Z AUTO 29010G17KT 10SM BKN029 OVC035 01/M01 A2985 RMK AO2
8A0,2/9/16 6:15,32.0,30.2,92.97,280,10,0.0,29.84,M,10.0,17,BKN,OVC,M,M,2900,3600,M,M,M,M,M,M,M,M,M,22.97,K8A0 090615Z AUTO 28010G17KT 10SM BKN029 OVC036 00/M01 A2984 RMK AO2
8A0,2/9/16 6:35,32.0,30.2,92.97,300,12,0.0,29.84,M,10.0,15,OVC,M,M,M,3400,M,M,M,M,M,M,M,M,M,M,22.0,K8A0 090635Z AUTO 30012G15KT 10SM OVC034 00/M01 A2984 RMK AO2
8A0,2/9/16 6:55,32.0,28.4,86.39,300,12,0.0,29.84,M,10.0,16,BKN,OVC,M,M,2600,3300,M,M,M,M,M,M,M,M,M,22.0,K8A0 090655Z AUTO 30012G16KT 10SM BKN026 OVC033 00/M02 A2984 RMK AO2
8A0,2/9/16 7:15,32.0,30.2,92.97,280,9,0.0,29.83,M,10.0,M,SCT,BKN,OVC,M,2400,3000,4600,M,M,M,M,M,M,M,M,23.51,K8A0 090715Z AUTO 28009KT 10SM SCT024 BKN030 OVC046 00/M01 A2983 RMK AO2
8A0,2/9/16 7:35,32.0,28.4,86.39,290,10,0.0,29.83,M,10.0,M,BKN,OVC,M,M,2800,3800,M,M,M,M,M,M,M,M,M,22.97,K8A0 090735Z AUTO 29010KT 10SM BKN028 OVC038 00/M02 A2983 RMK AO2
8A0,2/9/16 7:55,32.0,28.4,86.39,290,9,0.0,29.82,M,10.0,M,OVC,M,M,M,3000,M,M,M,M,M,M,M,M,M,M,23.51,K8A0 090755Z AUTO 29009KT 10SM OVC030 00/M02 A2982 RMK AO2
8A0,2/9/16 8:15,32.0,26.6,80.22,290,14,0.0,29.82,M,10.0,20,OVC,M,M,M,3200,M,M,M,M,M,M,M,M,M,M,21.16,K8A0 090815Z AUTO 29014G20KT 10SM OVC032 00/M03 A2982 RMK AO2
8A0,2/9/16 8:35,32.0,26.6,80.22,290,8,0.0,29.82,M,10.0,M,OVC,M,M,M,3600,M,M,M,M,M,M,M,M,M,M,24.11,K8A0 090835Z AUTO 29008KT 10SM OVC036 00/M03 A2982 RMK AO2
8A0,2/9/16 8:55,32.0,26.6,80.22,290,11,0.0,29.82,M,10.0,16,OVC,M,M,M,3700,M,M,M,M,M,M,M,M,M,M,22.47,K8A0 090855Z AUTO 29011G16KT 10SM OVC037 00/M03 A2982 RMK AO2
8A0,2/9/16 9:15,32.0,26.6,80.22,300,12,0.0,29.82,M,10.0,22,OVC,M,M,M,3700,M,M,M,M,M,M,M,M,M,M,22.0,K8A0 090915Z AUTO 30012G22KT 10SM OVC037 00/M03 A2982 RMK AO2
8A0,2/9/16 9:35,32.0,26.6,80.22,280,10,0.0,29.83,M,10.0,M,BKN,OVC,M,M,3400,4000,M,M,M,M,M,M,M,M,M,22.97,K8A0 090935Z AUTO 28010KT 10SM BKN034 OVC040 00/M03 A2983 RMK AO2
8A0,2/9/16 9:55,32.0,26.6,80.22,280,6,0.0,29.83,M,10.0,9,OVC,M,M,M,3200,M,M,M,M,M,M,M,M,M,M,25.53,K8A0 090955Z AUTO 28006G09KT 10SM OVC032 00/M03 A2983 RMK AO2
8A0,2/9/16 10:15,32.0,26.6,80.22,290,9,0.0,29.83,M,10.0,M,OVC,M,M,M,3200,M,M,M,M,M,M,M,M,M,M,23.51,K8A0 091015Z AUTO 29009KT 10SM OVC032 00/M03 A2983 RMK AO2
8A0,2/9/16 10:35,32.0,26.6,80.22,290,10,0.0,29.83,M,10.0,M,OVC,M,M,M,3200,M,M,M,M,M,M,M,M,M,M,22.97,K8A0 091035Z AUTO 29010KT 10SM OVC032 00/M03 A2983 RMK AO2
8A0,2/9/16 10:55,32.0,26.6,80.22,280,8,0.0,29.83,M,10.0,M,BKN,OVC,M,M,3000,3500,M,M,M,M,M,M,M,M,M,24.11,K8A0 091055Z AUTO 28008KT 10SM BKN030 OVC035 00/M03 A2983 RMK AO2
8A0,2/9/16 11:15,32.0,26.6,80.22,280,10,0.0,29.83,M,10.0,19,OVC,M,M,M,3000,M,M,M,M,M,M,M,M,M,M,22.97,K8A0 091115Z AUTO 28010G19KT 10SM OVC030 00/M03 A2983 RMK AO2
8A0,2/9/16 11:35,32.0,26.6,80.22,270,11,0.0,29.84,M,10.0,17,OVC,M,M,M,3000,M,M,M,M,M,M,M,M,M,M,22.47,K8A0 091135Z AUTO 27011G17KT 10SM OVC030 00/M03 A2984 RMK AO2
8A0,2/9/16 11:55,32.0,26.6,80.22,280,10,0.0,29.85,M,10.0,16,BKN,OVC,M,M,3300,3800,M,M,M,M,M,M,M,M,M,22.97,K8A0 091155Z AUTO 28010G16KT 10SM BKN033 OVC038 00/M03 A2985 RMK AO2
8A0,2/9/16 12:15,32.0,24.8,74.44,270,14,0.0,29.85,M,10.0,21,OVC,M,M,M,3800,M,M,M,M,M,M,M,M,M,M,21.16,K8A0 091215Z AUTO 27014G21KT 10SM OVC038 00/M04 A2985 RMK AO2
8A0,2/9/16 12:35,32.0,24.8,74.44,270,7,0.0,29.85,M,10.0,M,OVC,M,M,M,3600,M,M,M,M,M,M,M,M,M,M,24.78,K8A0 091235Z AUTO 27007KT 10SM OVC036 00/M04 A2985 RMK AO2
8A0,2/9/16 12:55,32.0,24.8,74.44,270,9,0.0,29.85,M,10.0,16,OVC,M,M,M,3600,M,M,M,M,M,M,M,M,M,M,23.51,K8A0 091255Z AUTO 27009G16KT 10SM OVC036 00/M04 A2985 RMK AO2
8A0,2/9/16 13:15,32.0,26.6,80.22,280,12,0.0,29.86,M,3.0,18,SCT,BKN,OVC,M,1400,2700,3800,M,#NAME?,M,M,M,M,M,M,22.0,K8A0 091315Z AUTO 28012G18KT 3SM -SN SCT014 BKN027 OVC038 00/M03 A2986 RMK AO2
8A0,2/9/16 13:35,30.2,26.6,86.28,280,10,0.0,29.86,M,7.0,M,SCT,BKN,OVC,M,1600,2300,2800,M,#NAME?,M,M,M,M,M,M,20.71,K8A0 091335Z AUTO 28010KT 7SM -SN SCT016 BKN023 OVC028 M01/M03 A2986 RMK AO2
8A0,2/9/16 13:55,30.2,28.4,92.92,280,12,0.0,29.86,M,7.0,16,BKN,OVC,M,M,2100,2900,M,M,#NAME?,M,M,M,M,M,M,19.71,K8A0 091355Z AUTO 28012G16KT 7SM -SN BKN021 OVC029 M01/M02 A2986 RMK AO2
8A0,2/9/16 14:15,30.2,28.4,92.92,280,10,0.0,29.87,M,4.0,15,BKN,BKN,OVC,M,1900,2600,3200,M,#NAME?,M,M,M,M,M,M,20.71,K8A0 091415Z AUTO 28010G15KT 4SM -SN BKN019 BKN026 OVC032 M01/M02 A2987 RMK AO2
8A0,2/9/16 14:35,30.2,28.4,92.92,300,9,0.0,29.87,M,7.0,M,BKN,OVC,M,M,1700,2500,M,M,#NAME?,M,M,M,M,M,M,21.28,K8A0 091435Z AUTO 30009KT 7SM -SN BKN017 OVC025 M01/M02 A2987 RMK AO2
8A0,2/9/16 14:55,30.2,28.4,92.92,280,15,0.0,29.88,M,5.0,20,SCT,OVC,M,M,1900,2400,M,M,#NAME?,M,M,M,M,M,M,18.45,K8A0 091455Z AUTO 28015G20KT 5SM -SN SCT019 OVC024 M01/M02 A2988 RMK AO2
8A0,2/9/16 15:15,30.2,28.4,92.92,280,13,0.0,29.88,M,5.0,M,BKN,OVC,M,M,2000,2500,M,M,#NAME?,M,M,M,M,M,M,19.26,K8A0 091515Z AUTO 28013KT 5SM -SN BKN020 OVC025 M01/M02 A2988 RMK AO2
8A0,2/9/16 15:35,30.2,28.4,92.92,280,14,0.0,29.88,M,4.0,19,OVC,M,M,M,2000,M,M,M,#NAME?,M,M,M,M,M,M,18.84,K8A0 091535Z AUTO 28014G19KT 4SM -SN OVC020 M01/M02 A2988 RMK AO2
8A0,2/9/16 15:55,30.2,28.4,92.92,280,10,0.0,29.89,M,5.0,M,BKN,BKN,OVC,M,2000,3000,4600,M,#NAME?,M,M,M,M,M,M,20.71,K8A0 091555Z AUTO 28010KT 5SM -SN BKN020 BKN030 OVC046 M01/M02 A2989 RMK AO2
8A0,2/9/16 16:15,30.2,30.2,100.0,290,11,0.0,29.89,M,1.0,18,BKN,OVC,M,M,700,1700,M,M,#NAME?,M,M,M,M,M,M,20.19,K8A0 091615Z AUTO 29011G18KT 1SM -SN BKN007 OVC017 M01/M01 A2989 RMK AO2
8A0,2/9/16 16:35,30.2,28.4,92.92,290,9,0.0,29.89,M,5.0,16,SCT,BKN,OVC,M,700,2000,5000,M,#NAME?,M,M,M,M,M,M,21.28,K8A0 091635Z AUTO 29009G16KT 5SM -SN SCT007 BKN020 OVC050 M01/M02 A2989 RMK AO2
8A0,2/9/16 16:55,30.2,26.6,86.28,290,11,0.0,29.89,M,10.0,16,SCT,BKN,OVC,M,1700,4500,5000,M,M,M,M,M,M,M,M,20.19,K8A0 091655Z AUTO 29011G16KT 10SM SCT017 BKN045 OVC050 M01/M03 A2989 RMK AO2
8A0,2/9/16 17:15,32.0,26.6,80.22,300,12,0.0,29.89,M,10.0,19,SCT,SCT,OVC,M,2700,3200,5000,M,M,M,M,M,M,M,M,22.0,K8A0 091715Z AUTO 30012G19KT 10SM SCT027 SCT032 OVC050 00/M03 A2989 RMK AO2
8A0,2/9/16 17:35,32.0,26.6,80.22,280,13,0.0,29.89,M,10.0,19,SCT,SCT,OVC,M,2700,3700,5000,M,M,M,M,M,M,M,M,21.57,K8A0 091735Z AUTO 28013G19KT 10SM SCT027 SCT037 OVC050 00/M03 A2989 RMK AO2
8A0,2/9/16 17:55,30.2,26.6,86.28,340,12,0.0,29.89,M,2.5,20,SCT,BKN,OVC,M,1300,2900,3700,M,#NAME?,M,M,M,M,M,M,19.71,K8A0 091755Z AUTO 34012G20KT 2 1/2SM -SN SCT013 BKN029 OVC037 M01/M03 A2989 RMK AO2 VIS 1V5
8A0,2/9/16 18:15,30.2,30.2,100.0,320,8,0.0,29.89,M,3.0,14,SCT,BKN,OVC,M,700,1600,4900,M,#NAME?,M,M,M,M,M,M,21.9,K8A0 091815Z AUTO 32008G14KT 3SM -SN SCT007 BKN016 OVC049 M01/M01 A2989 RMK AO2
8A0,2/9/16 18:35,30.2,28.4,92.92,300,10,0.0,29.88,M,10.0,M,SCT,SCT,OVC,M,800,3700,4700,M,M,M,M,M,M,M,M,20.71,K8A0 091835Z AUTO 30010KT 10SM SCT008 SCT037 OVC047 M01/M02 A2988 RMK AO2
8A0,2/9/16 18:55,30.2,28.4,92.92,320,7,0.0,29.88,M,10.0,M,SCT,BKN,OVC,M,1800,2900,4300,M,M,M,M,M,M,M,M,22.59,K8A0 091855Z AUTO 32007KT 10SM SCT018 BKN029 OVC043 M01/M02 A2988 RMK AO2
8A0,2/9/16 19:15,30.2,26.6,86.28,290,10,0.0,29.88,M,10.0,15,SCT,BKN,OVC,M,1800,3300,5000,M,M,M,M,M,M,M,M,20.71,K8A0 091915Z AUTO 29010G15KT 10SM SCT018 BKN033 OVC050 M01/M03 A2988 RMK AO2
8A0,2/9/16 19:35,30.2,26.6,86.28,280,12,0.0,29.89,M,10.0,M,SCT,BKN,OVC,M,2700,3500,5000,M,M,M,M,M,M,M,M,19.71,K8A0 091935Z AUTO 28012KT 10SM SCT027 BKN035 OVC050 M01/M03 A2989 RMK AO2
8A0,2/9/16 19:55,30.2,24.8,80.07,290,13,0.0,29.89,M,10.0,19,SCT,OVC,M,M,2900,3600,M,M,M,M,M,M,M,M,M,19.26,K8A0 091955Z AUTO 29013G19KT 10SM SCT029 OVC036 M01/M04 A2989 RMK AO2
8A0,2/9/16 20:15,30.2,26.6,86.28,320,8,0.0,29.9,M,10.0,15,SCT,BKN,OVC,M,2300,3000,3800,M,M,M,M,M,M,M,M,21.9,K8A0 092015Z AUTO 32008G15KT 10SM SCT023 BKN030 OVC038 M01/M03 A2990 RMK AO2
8A0,2/9/16 20:35,32.0,26.6,80.22,330,12,0.0,29.9,M,7.0,16,BKN,BKN,OVC,M,2300,3000,8000,M,#NAME?,M,M,M,M,M,M,22.0,K8A0 092035Z AUTO 33012G16KT 7SM -SN BKN023 BKN030 OVC080 00/M03 A2990 RMK AO2
8A0,2/9/16 20:55,30.2,26.6,86.28,330,10,0.0,29.91,M,10.0,14,SCT,BKN,OVC,M,2300,3000,8000,M,M,M,M,M,M,M,M,20.71,K8A0 092055Z AUTO 33010G14KT 10SM SCT023 BKN030 OVC080 M01/M03 A2991 RMK AO2
8A0,2/9/16 21:15,30.2,28.4,92.92,330,8,0.0,29.92,M,10.0,M,SCT,BKN,OVC,M,2100,2900,3500,M,M,M,M,M,M,M,M,21.9,K8A0 092115Z AUTO 33008KT 10SM SCT021 BKN029 OVC035 M01/M02 A2992 RMK AO2
8A0,2/9/16 21:35,30.2,26.6,86.28,310,6,0.0,29.93,M,10.0,M,SCT,BKN,BKN,M,1900,2600,3400,M,M,M,M,M,M,M,M,23.36,K8A0 092135Z AUTO 31006KT 10SM SCT019 BKN026 BKN034 M01/M03 A2993 RMK AO2
8A0,2/9/16 21:55,30.2,26.6,86.28,330,11,0.0,29.94,M,10.0,14,SCT,BKN,OVC,M,2400,2800,4000,M,M,M,M,M,M,M,M,20.19,K8A0 092155Z AUTO 33011G14KT 10SM SCT024 BKN028 OVC040 M01/M03 A2994 RMK AO2
8A0,2/9/16 22:15,30.2,30.2,100.0,320,8,0.0,29.95,M,1.5,15,BKN,BKN,OVC,M,700,1500,3200,M,#NAME?,M,M,M,M,M,M,21.9,K8A0 092215Z AUTO 32008G15KT 1 1/2SM -SN BKN007 BKN015 OVC032 M01/M01 A2995 RMK AO2
8A0,2/9/16 22:35,30.2,28.4,92.92,320,7,0.0,29.95,M,10.0,M,SCT,SCT,OVC,M,700,1500,9000,M,M,M,M,M,M,M,M,22.59,K8A0 092235Z AUTO 32007KT 10SM SCT007 SCT015 OVC090 M01/M02 A2995 RMK AO2
8A0,2/9/16 22:55,30.2,26.6,86.28,340,9,0.0,29.96,M,10.0,14,SCT,BKN,OVC,M,2100,5000,9000,M,M,M,M,M,M,M,M,21.28,K8A0 092255Z AUTO 34009G14KT 10SM SCT021 BKN050 OVC090 M01/M03 A2996 RMK AO2
8A0,2/9/16 23:15,28.4,26.6,92.86,320,12,0.0,29.98,M,10.0,17,SCT,BKN,OVC,M,2100,5000,8500,M,M,M,M,M,M,M,M,17.42,K8A0 092315Z AUTO 32012G17KT 10SM SCT021 BKN050 OVC085 M02/M03 A2998 RMK AO2
8A0,2/9/16 23:35,28.4,26.6,92.86,320,9,0.0,29.99,M,10.0,M,SCT,BKN,OVC,M,2100,5000,11000,M,M,M,M,M,M,M,M,19.04,K8A0 092335Z AUTO 32009KT 10SM SCT021 BKN050 OVC110 M02/M03 A2999 RMK AO2
8A0,2/9/16 23:55,28.4,26.6,92.86,340,7,0.0,30.0,M,10.0,M,SCT,BKN,OVC,M,5000,7000,11000,M,M,M,M,M,M,M,M,20.39,K8A0 092355Z AUTO 34007KT 10SM SCT050 BKN070 OVC110 M02/M03 A3000 RMK AO2
8A0,2/10/16 0:15,28.4,24.8,86.18,310,8,0.0,30.01,M,10.0,16,SCT,BKN,OVC,M,6000,7000,11000,M,M,M,M,M,M,M,M,19.68,K8A0 100015Z AUTO 31008G16KT 10SM SCT060 BKN070 OVC110 M02/M04 A3001 RMK AO2
8A0,2/10/16 0:35,28.4,23.0,79.92,320,9,0.0,30.01,M,10.0,15,SCT,BKN,OVC,M,6000,7000,11000,M,M,M,M,M,M,M,M,19.04,K8A0 100035Z AUTO 32009G15KT 10SM SCT060 BKN070 OVC110 M02/M05 A3001 RMK AO2
8A0,2/10/16 0:55,28.4,23.0,79.92,320,9,0.0,30.02,M,10.0,16,SCT,OVC,M,M,7000,11000,M,M,M,M,M,M,M,M,M,19.04,K8A0 100055Z AUTO 32009G16KT 10SM SCT070 OVC110 M02/M05 A3002 RMK AO2
8A0,2/10/16 1:15,28.4,24.8,86.18,340,9,0.0,30.02,M,10.0,M,OVC,M,M,M,11000,M,M,M,M,M,M,M,M,M,M,19.04,K8A0 100115Z AUTO 34009KT 10SM OVC110 M02/M04 A3002 RMK AO2
8A0,2/10/16 1:35,26.6,26.6,100.0,320,13,0.0,30.03,M,10.0,19,SCT,OVC,M,M,1800,11000,M,M,M,M,M,M,M,M,M,14.65,K8A0 100135Z AUTO 32013G19KT 10SM SCT018 OVC110 M03/M03 A3003 RMK AO2
8A0,2/10/16 1:55,26.6,23.0,86.07,320,7,0.0,30.03,M,10.0,M,OVC,M,M,M,11000,M,M,M,M,M,M,M,M,M,M,18.2,K8A0 100155Z AUTO 32007KT 10SM OVC110 M03/M05 A3003 RMK AO2
8A0,2/10/16 2:15,26.6,23.0,86.07,310,7,0.0,30.04,M,10.0,M,OVC,M,M,M,11000,M,M,M,M,M,M,M,M,M,M,18.2,K8A0 100215Z AUTO 31007KT 10SM OVC110 M03/M05 A3004 RMK AO2
8A0,2/10/16 2:35,26.6,23.0,86.07,320,7,0.0,30.04,M,10.0,M,OVC,M,M,M,11000,M,M,M,M,M,M,M,M,M,M,18.2,K8A0 100235Z AUTO 32007KT 10SM OVC110 M03/M05 A3004 RMK AO2
8A0,2/10/16 2:55,26.6,23.0,86.07,320,7,0.0,30.04,M,10.0,M,SCT,OVC,M,M,3500,11000,M,M,M,M,M,M,M,M,M,18.2,K8A0 100255Z AUTO 32007KT 10SM SCT035 OVC110 M03/M05 A3004 RMK AO2
8A0,2/10/16 3:15,26.6,23.0,86.07,320,8,0.0,30.05,M,10.0,16,SCT,BKN,BKN,M,2700,3300,11000,M,M,M,M,M,M,M,M,17.46,K8A0 100315Z AUTO 32008G16KT 10SM SCT027 BKN033 BKN110 M03/M05 A3005 RMK AO2
8A0,2/10/16 3:35,26.6,23.0,86.07,330,10,0.0,30.05,M,10.0,17,SCT,SCT,SCT,M,2400,3100,11000,M,M,M,M,M,M,M,M,16.2,K8A0 100335Z AUTO 33010G17KT 10SM SCT024 SCT031 SCT110 M03/M05 A3005 RMK AO2
8A0,2/10/16 3:55,26.6,23.0,86.07,320,10,0.0,30.05,M,10.0,14,SCT,SCT,M,M,4000,11000,M,M,M,M,M,M,M,M,M,16.2,K8A0 100355Z AUTO 32010G14KT 10SM SCT040 SCT110 M03/M05 A3005 RMK AO2
8A0,2/10/16 4:15,26.6,23.0,86.07,310,11,0.0,30.06,M,10.0,15,SCT,BKN,OVC,M,2300,3300,11000,M,M,M,M,M,M,M,M,15.64,K8A0 100415Z AUTO 31011G15KT 10SM SCT023 BKN033 OVC110 M03/M05 A3006 RMK AO2
8A0,2/10/16 4:35,26.6,21.2,79.77,330,11,0.0,30.06,M,10.0,16,SCT,OVC,M,M,2800,3800,M,M,M,M,M,M,M,M,M,15.64,K8A0 100435Z AUTO 33011G16KT 10SM SCT028 OVC038 M03/M06 A3006 RMK AO2
8A0,2/10/16 4:55,26.6,21.2,79.77,310,11,0.0,30.06,M,10.0,19,SCT,OVC,M,M,2800,3600,M,M,M,M,M,M,M,M,M,15.64,K8A0 100455Z AUTO 31011G19KT 10SM SCT028 OVC036 M03/M06 A3006 RMK AO2
8A0,2/10/16 5:15,26.6,19.4,73.89,320,13,0.0,30.06,M,10.0,25,OVC,M,M,M,3500,M,M,M,M,M,M,M,M,M,M,14.65,K8A0 100515Z AUTO 32013G25KT 10SM OVC035 M03/M07 A3006 RMK AO2
8A0,2/10/16 5:35,26.6,17.6,68.4,310,13,0.0,30.06,M,10.0,23,SCT,OVC,M,M,3300,4100,M,M,M,M,M,M,M,M,M,14.65,K8A0 100535Z AUTO 31013G23KT 10SM SCT033 OVC041 M03/M08 A3006 RMK AO2
8A0,2/10/16 5:55,26.6,19.4,73.89,340,12,0.0,30.07,M,10.0,17,BKN,OVC,M,M,3300,4100,M,M,M,M,M,M,M,M,M,15.13,K8A0 100555Z AUTO 34012G17KT 10SM BKN033 OVC041 M03/M07 A3007 RMK AO2
8A0,2/10/16 6:15,24.8,17.6,73.7,320,11,0.0,30.07,M,10.0,15,BKN,M,M,M,3300,M,M,M,M,M,M,M,M,M,M,13.37,K8A0 100615Z AUTO 32011G15KT 10SM BKN033 M04/M08 A3007 RMK AO2
8A0,2/10/16 6:35,24.8,17.6,73.7,330,8,0.0,30.08,M,10.0,M,BKN,M,M,M,4800,M,M,M,M,M,M,M,M,M,M,15.24,K8A0 100635Z AUTO 33008KT 10SM BKN048 M04/M08 A3008 RMK AO2
8A0,2/10/16 6:55,24.8,17.6,73.7,330,6,0.0,30.07,M,10.0,16,OVC,M,M,M,4800,M,M,M,M,M,M,M,M,M,M,16.86,K8A0 100655Z AUTO 33006G16KT 10SM OVC048 M04/M08 A3007 RMK AO2
8A0,2/10/16 7:15,23.0,17.6,79.47,330,6,0.0,30.07,M,10.0,M,BKN,M,M,M,4600,M,M,M,M,M,M,M,M,M,M,14.69,K8A0 100715Z AUTO 33006KT 10SM BKN046 M05/M08 A3007 RMK AO2
8A0,2/10/16 7:35,23.0,17.6,79.47,300,4,0.0,30.07,M,10.0,M,SCT,SCT,M,M,4400,11000,M,M,M,M,M,M,M,M,M,16.91,K8A0 100735Z AUTO 30004KT 10SM SCT044 SCT110 M05/M08 A3007 RMK AO2
8A0,2/10/16 7:55,23.0,17.6,79.47,270,4,0.0,30.07,M,10.0,M,SCT,M,M,M,11000,M,M,M,M,M,M,M,M,M,M,16.91,K8A0 100755Z AUTO 27004KT 10SM SCT110 M05/M08 A3007 RMK AO2
8A0,2/10/16 8:15,23.0,17.6,79.47,280,5,0.0,30.07,M,10.0,M,CLR,M,M,M,M,M,M,M,M,M,M,M,M,M,M,15.71,K8A0 100815Z AUTO 28005KT 10SM CLR M05/M08 A3007 RMK AO2
8A0,2/10/16 8:35,21.2,17.6,85.74,270,4,0.0,30.08,M,10.0,M,CLR,M,M,M,M,M,M,M,M,M,M,M,M,M,M,14.81,K8A0 100835Z AUTO 27004KT 10SM CLR M06/M08 A3008 RMK AO2
8A0,2/10/16 8:55,21.2,17.6,85.74,270,3,0.0,30.08,M,10.0,M,CLR,M,M,M,M,M,M,M,M,M,M,M,M,M,M,16.34,K8A0 100855Z AUTO 27003KT 10SM CLR M06/M08 A3008 RMK AO2
8A0,2/10/16 9:15,21.2,19.4,92.63,270,5,0.0,30.09,M,10.0,M,SCT,M,M,M,4500,M,M,M,M,M,M,M,M,M,M,13.57,K8A0 100915Z AUTO 27005KT 10SM SCT045 M06/M07 A3009 RMK AO2
8A0,2/10/16 9:35,21.2,19.4,92.63,250,4,0.0,30.09,M,10.0,M,SCT,M,M,M,4500,M,M,M,M,M,M,M,M,M,M,14.81,K8A0 100935Z AUTO 25004KT 10SM SCT045 M06/M07 A3009 RMK AO2
8A0,2/10/16 9:55,21.2,19.4,92.63,260,3,0.0,30.09,M,10.0,M,CLR,M,M,M,M,M,M,M,M,M,M,M,M,M,M,16.34,K8A0 100955Z AUTO 26003KT 10SM CLR M06/M07 A3009 RMK AO2
8A0,2/10/16 10:15,21.2,19.4,92.63,250,3,0.0,30.09,M,10.0,M,CLR,M,M,M,M,M,M,M,M,M,M,M,M,M,M,16.34,K8A0 101015Z AUTO 25003KT 10SM CLR M06/M07 A3009 RMK AO2
8A0,2/10/16 10:35,21.2,19.4,92.63,260,3,0.0,30.09,M,10.0,M,CLR,M,M,M,M,M,M,M,M,M,M,M,M,M,M,16.34,K8A0 101035Z AUTO 26003KT 10SM CLR M06/M07 A3009 RMK AO2
8A0,2/10/16 10:55,19.4,19.4,100.0,250,5,0.0,30.1,M,10.0,M,CLR,M,M,M,M,M,M,M,M,M,M,M,M,M,M,11.43,K8A0 101055Z AUTO 25005KT 10SM CLR M07/M07 A3010 RMK AO2
8A0,2/10/16 11:15,19.4,19.4,100.0,250,4,0.0,30.11,M,10.0,M,CLR,M,M,M,M,M,M,M,M,M,M,M,M,M,M,12.71,K8A0 101115Z AUTO 25004KT 10SM CLR M07/M07 A3011 RMK AO2
8A0,2/10/16 11:35,19.4,19.4,100.0,240,5,0.0,30.12,M,10.0,M,CLR,M,M,M,M,M,M,M,M,M,M,M,M,M,M,11.43,K8A0 101135Z AUTO 24005KT 10SM CLR M07/M07 A3012 RMK AO2
8A0,2/10/16 11:55,19.4,19.4,100.0,250,4,0.0,30.12,M,10.0,M,CLR,M,M,M,M,M,M,M,M,M,M,M,M,M,M,12.71,K8A0 101155Z AUTO 25004KT 10SM CLR M07/M07 A3012 RMK AO2
8A0,2/10/16 12:15,19.4,19.4,100.0,240,5,0.0,30.12,M,10.0,M,CLR,M,M,M,M,M,M,M,M,M,M,M,M,M,M,11.43,K8A0 101215Z AUTO 24005KT 10SM CLR M07/M07 A3012 RMK AO2
8A0,2/10/16 12:35,19.4,19.4,100.0,250,3,0.0,30.12,M,10.0,M,CLR,M,M,M,M,M,M,M,M,M,M,M,M,M,M,14.28,K8A0 101235Z AUTO 25003KT 10SM CLR M07/M07 A3012 RMK AO2
8A0,2/10/16 12:55,19.4,19.4,100.0,240,3,0.0,30.13,M,10.0,M,SCT,M,M,M,3800,M,M,M,M,M,M,M,M,M,M,14.28,K8A0 101255Z AUTO 24003KT 10SM SCT038 M07/M07 A3013 RMK AO2
8A0,2/10/16 13:15,19.4,19.4,100.0,250,5,0.0,30.14,M,10.0,M,BKN,M,M,M,3800,M,M,M,M,M,M,M,M,M,M,11.43,K8A0 101315Z AUTO 25005KT 10SM BKN038 M07/M07 A3014 RMK AO2
8A0,2/10/16 13:35,21.2,19.4,92.63,260,5,0.0,30.15,M,10.0,M,BKN,M,M,M,3800,M,M,M,M,M,M,M,M,M,M,13.57,K8A0 101335Z AUTO 26005KT 10SM BKN038 M06/M07 A3015 RMK AO2
8A0,2/10/16 13:55,21.2,21.2,100.0,260,7,0.0,30.16,M,10.0,M,SCT,SCT,M,M,3800,10000,M,M,M,M,M,M,M,M,M,11.61,K8A0 101355Z AUTO 26007KT 10SM SCT038 SCT100 M06/M06 A3016 RMK AO2
8A0,2/10/16 14:15,23.0,21.2,92.69,280,10,0.0,30.15,M,10.0,14,CLR,M,M,M,M,M,M,M,M,M,M,M,M,M,M,11.68,K8A0 101415Z AUTO 28010G14KT 10SM CLR M05/M06 A3015 RMK AO2
8A0,2/10/16 14:35,24.8,19.4,79.62,300,10,0.0,30.16,M,10.0,M,CLR,M,M,M,M,M,M,M,M,M,M,M,M,M,M,13.94,K8A0 101435Z AUTO 30010KT 10SM CLR M04/M07 A3016 RMK AO2
8A0,2/10/16 14:55,26.6,19.4,73.89,280,8,0.0,30.17,M,10.0,M,SCT,SCT,M,M,2700,3300,M,M,M,M,M,M,M,M,M,17.46,K8A0 101455Z AUTO 28008KT 10SM SCT027 SCT033 M03/M07 A3017 RMK AO2
8A0,2/10/16 15:15,24.8,19.4,79.62,290,9,0.0,30.17,M,10.0,M,BKN,OVC,M,M,2700,3400,M,M,M,M,M,M,M,M,M,14.56,K8A0 101515Z AUTO 29009KT 10SM BKN027 OVC034 M04/M07 A3017 RMK AO2
8A0,2/10/16 15:35,24.8,17.6,73.7,300,8,0.0,30.18,M,10.0,M,BKN,M,M,M,3000,M,M,M,M,M,M,M,M,M,M,15.24,K8A0 101535Z AUTO 30008KT 10SM BKN030 M04/M08 A3018 RMK AO2
8A0,2/10/16 15:55,26.6,19.4,73.89,290,11,0.0,30.18,M,10.0,15,BKN,BKN,BKN,M,3000,3600,4200,M,M,M,M,M,M,M,M,15.64,K8A0 101555Z AUTO 29011G15KT 10SM BKN030 BKN036 BKN042 M03/M07 A3018 RMK AO2
8A0,2/10/16 16:15,28.4,19.4,68.61,260,17,0.0,30.18,M,10.0,20,OVC,M,M,M,3200,M,M,M,M,M,M,M,M,M,M,15.36,K8A0 101615Z AUTO 26017G20KT 10SM OVC032 M02/M07 A3018 RMK AO2
8A0,2/10/16 16:35,28.4,17.6,63.51,280,11,0.0,30.18,M,10.0,16,OVC,M,M,M,3400,M,M,M,M,M,M,M,M,M,M,17.92,K8A0 101635Z AUTO 28011G16KT 10SM OVC034 M02/M08 A3018 RMK AO2
8A0,2/10/16 16:55,28.4,17.6,63.51,280,7,0.0,30.18,M,10.0,17,BKN,M,M,M,3400,M,M,M,M,M,M,M,M,M,M,20.39,K8A0 101655Z AUTO 28007G17KT 249V309 10SM BKN034 M02/M08 A3018 RMK AO2
8A0,2/10/16 17:15,28.4,17.6,63.51,280,8,0.0,30.18,M,10.0,M,BKN,M,M,M,3600,M,M,M,M,M,M,M,M,M,M,19.68,K8A0 101715Z AUTO 28008KT 10SM BKN036 M02/M08 A3018 RMK AO2
8A0,2/10/16 17:35,30.2,17.6,59.01,290,11,0.0,30.18,M,10.0,M,SCT,M,M,M,3800,M,M,M,M,M,M,M,M,M,M,20.19,K8A0 101735Z AUTO 29011KT 10SM SCT038 M01/M08 A3018 RMK AO2
8A0,2/10/16 17:55,30.2,17.6,59.01,290,12,0.0,30.17,M,10.0,17,SCT,M,M,M,3800,M,M,M,M,M,M,M,M,M,M,19.71,K8A0 101755Z AUTO 29012G17KT 10SM SCT038 M01/M08 A3017 RMK AO2
8A0,2/10/16 18:15,32.0,17.6,54.87,270,10,0.0,30.16,M,10.0,18,SCT,M,M,M,4200,M,M,M,M,M,M,M,M,M,M,22.97,K8A0 101815Z AUTO 27010G18KT 259V349 10SM SCT042 00/M08 A3016 RMK AO2
8A0,2/10/16 18:35,32.0,17.6,54.87,270,10,0.0,30.16,M,10.0,16,CLR,M,M,M,M,M,M,M,M,M,M,M,M,M,M,22.97,K8A0 101835Z AUTO 27010G16KT 10SM CLR 00/M08 A3016 RMK AO2
8A0,2/10/16 18:55,32.0,17.6,54.87,280,11,0.0,30.16,M,10.0,16,CLR,M,M,M,M,M,M,M,M,M,M,M,M,M,M,22.47,K8A0 101855Z AUTO 28011G16KT 10SM CLR 00/M08 A3016 RMK AO2
8A0,2/10/16 19:15,32.0,17.6,54.87,290,7,0.0,30.15,M,10.0,M,CLR,M,M,M,M,M,M,M,M,M,M,M,M,M,M,24.78,K8A0 101915Z AUTO 29007KT 10SM CLR 00/M08 A3015 RMK AO2
8A0,2/10/16 19:35,32.0,17.6,54.87,270,12,0.0,30.15,M,10.0,19,CLR,M,M,M,M,M,M,M,M,M,M,M,M,M,M,22.0,K8A0 101935Z AUTO 27012G19KT 10SM CLR 00/M08 A3015 RMK AO2
8A0,2/10/16 19:55,32.0,15.8,50.75,280,14,0.0,30.14,M,10.0,17,SCT,M,M,M,12000,M,M,M,M,M,M,M,M,M,M,21.16,K8A0 101955Z AUTO 28014G17KT 10SM SCT120 00/M09 A3014 RMK AO2
8A0,2/10/16 20:15,33.8,15.8,47.22,270,10,0.0,30.13,M,10.0,15,SCT,M,M,M,12000,M,M,M,M,M,M,M,M,M,M,25.23,K8A0 102015Z AUTO 27010G15KT 10SM SCT120 01/M09 A3013 RMK AO2
8A0,2/10/16 20:35,33.8,15.8,47.22,270,13,0.0,30.13,M,10.0,18,BKN,M,M,M,11000,M,M,M,M,M,M,M,M,M,M,23.87,K8A0 102035Z AUTO 27013G18KT 10SM BKN110 01/M09 A3013 RMK AO2
8A0,2/10/16 20:55,33.8,14.0,43.65,290,8,0.0,30.12,M,10.0,17,OVC,M,M,M,10000,M,M,M,M,M,M,M,M,M,M,26.33,K8A0 102055Z AUTO 29008G17KT 10SM OVC100 01/M10 A3012 RMK AO2
8A0,2/10/16 21:15,33.8,14.0,43.65,310,10,0.0,30.13,M,10.0,14,OVC,M,M,M,10000,M,M,M,M,M,M,M,M,M,M,25.23,K8A0 102115Z AUTO 31010G14KT 10SM OVC100 01/M10 A3013 RMK AO2
8A0,2/10/16 21:35,33.8,14.0,43.65,290,9,0.0,30.12,M,10.0,M,SCT,OVC,M,M,7000,9000,M,M,M,M,M,M,M,M,M,25.75,K8A0 102135Z AUTO 29009KT 259V319 10SM SCT070 OVC090 01/M10 A3012 RMK AO2
8A0,2/10/16 21:55,33.8,14.0,43.65,300,9,0.0,30.13,M,10.0,M,BKN,BKN,BKN,M,7000,9000,12000,M,M,M,M,M,M,M,M,25.75,K8A0 102155Z AUTO 30009KT 10SM BKN070 BKN090 BKN120 01/M10 A3013 RMK AO2
8A0,2/10/16 22:15,33.8,14.0,43.65,300,7,0.0,30.13,M,10.0,M,OVC,M,M,M,7000,M,M,M,M,M,M,M,M,M,M,26.97,K8A0 102215Z AUTO 30007KT 10SM OVC070 01/M10 A3013 RMK AO2
8A0,2/10/16 22:35,33.8,14.0,43.65,320,4,0.0,30.13,M,10.0,M,OVC,M,M,M,6500,M,M,M,M,M,M,M,M,M,M,29.52,K8A0 102235Z AUTO 32004KT 10SM OVC065 01/M10 A3013 RMK AO2
8A0,2/10/16 22:55,33.8,14.0,43.65,310,5,0.0,30.13,M,10.0,M,OVC,M,M,M,6500,M,M,M,M,M,M,M,M,M,M,28.53,K8A0 102255Z AUTO 31005KT 10SM OVC065 01/M10 A3013 RMK AO2
8A0,2/10/16 23:15,32.0,14.0,46.92,320,4,0.0,30.12,M,10.0,M,OVC,M,M,M,6500,M,M,M,M,M,M,M,M,M,M,27.42,K8A0 102315Z AUTO 32004KT 10SM OVC065 00/M10 A3012 RMK AO2
8A0,2/10/16 23:35,32.0,14.0,46.92,310,4,0.0,30.12,M,10.0,M,SCT,OVC,M,M,6500,7000,M,M,M,M,M,M,M,M,M,27.42,K8A0 102335Z AUTO 31004KT 10SM SCT065 OVC070 00/M10 A3012 RMK AO2
8A0,2/10/16 23:55,32.0,14.0,46.92,0,0,0.0,30.13,M,10.0,M,SCT,BKN,BKN,M,6000,7000,10000,M,M,M,M,M,M,M,M,32.0,K8A0 102355Z AUTO 00000KT 10SM SCT060 BKN070 BKN100 00/M10 A3013 RMK AO2
8A0,2/11/16 0:15,32.0,15.8,50.75,0,0,0.0,30.12,M,10.0,M,SCT,BKN,M,M,6000,10000,M,M,M,M,M,M,M,M,M,32.0,K8A0 110015Z AUTO 00000KT 10SM SCT060 BKN100 00/M09 A3012 RMK AO2
8A0,2/11/16 0:35,32.0,17.6,54.87,330,5,0.0,30.14,M,10.0,M,SCT,SCT,M,M,5000,9000,M,M,M,M,M,M,M,M,M,26.4,K8A0 110035Z AUTO 33005KT 10SM SCT050 SCT090 00/M08 A3014 RMK AO2
8A0,2/11/16 0:55,32.0,15.8,50.75,350,3,0.0,30.14,M,10.0,M,SCT,M,M,M,5000,M,M,M,M,M,M,M,M,M,M,28.69,K8A0 110055Z AUTO 35003KT 10SM SCT050 00/M09 A3014 RMK AO2
8A0,2/11/16 1:15,30.2,19.4,63.75,10,3,0.0,30.14,M,10.0,M,CLR,M,M,M,M,M,M,M,M,M,M,M,M,M,M,26.63,K8A0 110115Z AUTO 01003KT 10SM CLR M01/M07 A3014 RMK AO2
8A0,2/11/16 1:35,30.2,19.4,63.75,10,4,0.0,30.15,M,10.0,M,CLR,M,M,M,M,M,M,M,M,M,M,M,M,M,M,25.32,K8A0 110135Z AUTO 01004KT 10SM CLR M01/M07 A3015 RMK AO2
8A0,2/11/16 1:55,30.2,19.4,63.75,360,4,0.0,30.15,M,10.0,M,CLR,M,M,M,M,M,M,M,M,M,M,M,M,M,M,25.32,K8A0 110155Z AUTO 36004KT 10SM CLR M01/M07 A3015 RMK AO2
8A0,2/11/16 2:15,30.2,19.4,63.75,10,4,0.0,30.16,M,10.0,M,CLR,M,M,M,M,M,M,M,M,M,M,M,M,M,M,25.32,K8A0 110215Z AUTO 01004KT 10SM CLR M01/M07 A3016 RMK AO2
8A0,2/11/16 2:35,28.4,19.4,68.61,30,4,0.0,30.16,M,10.0,M,CLR,M,M,M,M,M,M,M,M,M,M,M,M,M,M,23.22,K8A0 110235Z AUTO 03004KT 10SM CLR M02/M07 A3016 RMK AO2
8A0,2/11/16 2:55,30.2,19.4,63.75,40,3,0.0,30.15,M,10.0,M,CLR,M,M,M,M,M,M,M,M,M,M,M,M,M,M,26.63,K8A0 110255Z AUTO 04003KT 10SM CLR M01/M07 A3015 RMK AO2
8A0,2/11/16 3:15,28.4,17.6,63.51,50,3,0.0,30.16,M,10.0,M,CLR,M,M,M,M,M,M,M,M,M,M,M,M,M,M,24.57,K8A0 110315Z AUTO 05003KT 10SM CLR M02/M08 A3016 RMK AO2
8A0,2/11/16 3:35,28.4,19.4,68.61,70,3,0.0,30.16,M,10.0,M,CLR,M,M,M,M,M,M,M,M,M,M,M,M,M,M,24.57,K8A0 110335Z AUTO 07003KT 10SM CLR M02/M07 A3016 RMK AO2
8A0,2/11/16 3:55,28.4,19.4,68.61,90,3,0.0,30.16,M,10.0,M,CLR,M,M,M,M,M,M,M,M,M,M,M,M,M,M,24.57,K8A0 110355Z AUTO 09003KT 10SM CLR M02/M07 A3016 RMK AO2
8A0,2/11/16 4:15,28.4,19.4,68.61,0,0,0.0,30.17,M,10.0,M,CLR,M,M,M,M,M,M,M,M,M,M,M,M,M,M,28.4,K8A0 110415Z AUTO 00000KT 10SM CLR M02/M07 A3017 RMK AO2
8A0,2/11/16 4:35,28.4,19.4,68.61,0,0,0.0,30.17,M,10.0,M,CLR,M,M,M,M,M,M,M,M,M,M,M,M,M,M,28.4,K8A0 110435Z AUTO 00000KT 10SM CLR M02/M07 A3017 RMK AO2
8A0,2/11/16 4:55,28.4,19.4,68.61,0,0,0.0,30.16,M,10.0,M,CLR,M,M,M,M,M,M,M,M,M,M,M,M,M,M,28.4,K8A0 110455Z AUTO 00000KT 10SM CLR M02/M07 A3016 RMK AO2
8A0,2/11/16 5:15,26.6,19.4,73.89,0,0,0.0,30.16,M,10.0,M,CLR,M,M,M,M,M,M,M,M,M,M,M,M,M,M,26.6,K8A0 110515Z AUTO 00000KT 10SM CLR M03/M07 A3016 RMK AO2
8A0,2/11/16 5:35,24.8,21.2,85.96,80,3,0.0,30.14,M,10.0,M,CLR,M,M,M,M,M,M,M,M,M,M,M,M,M,M,20.46,K8A0 110535Z AUTO 08003KT 10SM CLR M04/M06 A3014 RMK AO2
8A0,2/11/16 5:55,26.6,19.4,73.89,100,4,0.0,30.13,M,10.0,M,CLR,M,M,M,M,M,M,M,M,M,M,M,M,M,M,21.11,K8A0 110555Z AUTO 10004KT 10SM CLR M03/M07 A3013 RMK AO2
8A0,2/11/16 6:15,26.6,19.4,73.89,100,3,0.0,30.13,M,10.0,M,CLR,M,M,M,M,M,M,M,M,M,M,M,M,M,M,22.52,K8A0 110615Z AUTO 10003KT 10SM CLR M03/M07 A3013 RMK AO2
8A0,2/11/16 6:35,26.6,21.2,79.77,100,4,0.0,30.13,M,10.0,M,CLR,M,M,M,M,M,M,M,M,M,M,M,M,M,M,21.11,K8A0 110635Z AUTO 10004KT 10SM CLR M03/M06 A3013 RMK AO2
8A0,2/11/16 6:55,26.6,21.2,79.77,90,3,0.0,30.13,M,10.0,M,CLR,M,M,M,M,M,M,M,M,M,M,M,M,M,M,22.52,K8A0 110655Z AUTO 09003KT 10SM CLR M03/M06 A3013 RMK AO2
8A0,2/11/16 7:15,26.6,21.2,79.77,100,3,0.0,30.13,M,10.0,M,CLR,M,M,M,M,M,M,M,M,M,M,M,M,M,M,22.52,K8A0 110715Z AUTO 10003KT 10SM CLR M03/M06 A3013 RMK AO2
8A0,2/11/16 7:35,26.6,21.2,79.77,100,4,0.0,30.12,M,10.0,M,CLR,M,M,M,M,M,M,M,M,M,M,M,M,M,M,21.11,K8A0 110735Z AUTO 10004KT 10SM CLR M03/M06 A3012 RMK AO2
8A0,2/11/16 7:55,26.6,21.2,79.77,100,4,0.0,30.12,M,10.0,M,CLR,M,M,M,M,M,M,M,M,M,M,M,M,M,M,21.11,K8A0 110755Z AUTO 10004KT 10SM CLR M03/M06 A3012 RMK AO2
8A0,2/11/16 8:15,26.6,21.2,79.77,120,3,0.0,30.12,M,10.0,M,CLR,M,M,M,M,M,M,M,M,M,M,M,M,M,M,22.52,K8A0 110815Z AUTO 12003KT 10SM CLR M03/M06 A3012 RMK AO2
8A0,2/11/16 8:35,26.6,21.2,79.77,120,3,0.0,30.12,M,10.0,M,CLR,M,M,M,M,M,M,M,M,M,M,M,M,M,M,22.52,K8A0 110835Z AUTO 12003KT 10SM CLR M03/M06 A3012 RMK AO2
8A0,2/11/16 8:55,26.6,21.2,79.77,110,3,0.0,30.12,M,10.0,M,CLR,M,M,M,M,M,M,M,M,M,M,M,M,M,M,22.52,K8A0 110855Z AUTO 11003KT 10SM CLR M03/M06 A3012 RMK AO2
8A0,2/11/16 9:15,26.6,21.2,79.77,110,3,0.0,30.12,M,10.0,M,CLR,M,M,M,M,M,M,M,M,M,M,M,M,M,M,22.52,K8A0 110915Z AUTO 11003KT 10SM CLR M03/M06 A3012 RMK AO2
8A0,2/11/16 9:35,26.6,19.4,73.89,110,3,0.0,30.12,M,10.0,M,CLR,M,M,M,M,M,M,M,M,M,M,M,M,M,M,22.52,K8A0 110935Z AUTO 11003KT 10SM CLR M03/M07 A3012 RMK AO2
8A0,2/11/16 9:55,26.6,19.4,73.89,110,4,0.0,30.12,M,10.0,M,CLR,M,M,M,M,M,M,M,M,M,M,M,M,M,M,21.11,K8A0 110955Z AUTO 11004KT 10SM CLR M03/M07 A3012 RMK AO2
8A0,2/11/16 10:15,26.6,19.4,73.89,100,5,0.0,30.12,M,10.0,M,CLR,M,M,M,M,M,M,M,M,M,M,M,M,M,M,19.98,K8A0 111015Z AUTO 10005KT 10SM CLR M03/M07 A3012 RMK AO2
8A0,2/11/16 10:35,26.6,19.4,73.89,90,5,0.0,30.11,M,10.0,M,CLR,M,M,M,M,M,M,M,M,M,M,M,M,M,M,19.98,K8A0 111035Z AUTO 09005KT 10SM CLR M03/M07 A3011 RMK AO2
8A0,2/11/16 10:55,26.6,19.4,73.89,90,4,0.0,30.11,M,10.0,M,CLR,M,M,M,M,M,M,M,M,M,M,M,M,M,M,21.11,K8A0 111055Z AUTO 09004KT 10SM CLR M03/M07 A3011 RMK AO2
8A0,2/11/16 11:15,26.6,19.4,73.89,90,4,0.0,30.12,M,10.0,M,CLR,M,M,M,M,M,M,M,M,M,M,M,M,M,M,21.11,K8A0 111115Z AUTO 09004KT 10SM CLR M03/M07 A3012 RMK AO2
8A0,2/11/16 11:35,26.6,19.4,73.89,90,4,0.0,30.12,M,10.0,M,CLR,M,M,M,M,M,M,M,M,M,M,M,M,M,M,21.11,K8A0 111135Z AUTO 09004KT 10SM CLR M03/M07 A3012 RMK AO2
8A0,2/11/16 11:55,26.6,19.4,73.89,90,4,0.0,30.13,M,10.0,M,CLR,M,M,M,M,M,M,M,M,M,M,M,M,M,M,21.11,K8A0 111155Z AUTO 09004KT 10SM CLR M03/M07 A3013 RMK AO2
8A0,2/11/16 12:15,26.6,19.4,73.89,70,3,0.0,30.14,M,10.0,M,CLR,M,M,M,M,M,M,M,M,M,M,M,M,M,M,22.52,K8A0 111215Z AUTO 07003KT 10SM CLR M03/M07 A3014 RMK AO2
8A0,2/11/16 12:35,26.6,19.4,73.89,80,4,0.0,30.14,M,10.0,M,CLR,M,M,M,M,M,M,M,M,M,M,M,M,M,M,21.11,K8A0 111235Z AUTO 08004KT 10SM CLR M03/M07 A3014 RMK AO2
8A0,2/11/16 12:55,26.6,19.4,73.89,80,4,0.0,30.14,M,10.0,M,CLR,M,M,M,M,M,M,M,M,M,M,M,M,M,M,21.11,K8A0 111255Z AUTO 08004KT 10SM CLR M03/M07 A3014 RMK AO2
8A0,2/11/16 13:15,28.4,21.2,74.08,70,4,0.0,30.14,M,10.0,M,CLR,M,M,M,M,M,M,M,M,M,M,M,M,M,M,23.22,K8A0 111315Z AUTO 07004KT 10SM CLR M02/M06 A3014 RMK AO2
8A0,2/11/16 13:35,30.2,21.2,68.83,80,5,0.0,30.14,M,10.0,M,CLR,M,M,M,M,M,M,M,M,M,M,M,M,M,M,24.26,K8A0 111335Z AUTO 08005KT 10SM CLR M01/M06 A3014 RMK AO2
8A0,2/11/16 13:55,32.0,23.0,69.04,90,5,0.0,30.15,M,10.0,M,CLR,M,M,M,M,M,M,M,M,M,M,M,M,M,M,26.4,K8A0 111355Z AUTO 09005KT 10SM CLR 00/M05 A3015 RMK AO2
8A0,2/11/16 14:15,32.0,23.0,69.04,100,4,0.0,30.16,M,10.0,M,CLR,M,M,M,M,M,M,M,M,M,M,M,M,M,M,27.42,K8A0 111415Z AUTO 10004KT 10SM CLR 00/M05 A3016 RMK AO2
8A0,2/11/16 14:35,33.8,23.0,64.23,80,4,0.0,30.16,M,10.0,M,CLR,M,M,M,M,M,M,M,M,M,M,M,M,M,M,29.52,K8A0 111435Z AUTO 08004KT 10SM CLR 01/M05 A3016 RMK AO2
8A0,2/11/16 14:55,35.6,24.8,64.46,70,6,0.0,30.17,M,10.0,M,CLR,M,M,M,M,M,M,M,M,M,M,M,M,M,M,29.87,K8A0 111455Z AUTO 07006KT 10SM CLR 02/M04 A3017 RMK AO2
8A0,2/11/16 15:15,37.4,26.6,64.7,120,4,0.0,30.17,M,10.0,M,CLR,M,M,M,M,M,M,M,M,M,M,M,M,M,M,33.73,K8A0 111515Z AUTO 12004KT 10SM CLR 03/M03 A3017 RMK AO2
8A0,2/11/16 15:35,37.4,24.8,60.04,110,6,0.0,30.17,M,10.0,M,CLR,M,M,M,M,M,M,M,M,M,M,M,M,M,M,32.03,K8A0 111535Z AUTO 11006KT 10SM CLR 03/M04 A3017 RMK AO2
8A0,2/11/16 15:55,39.2,26.6,60.29,90,5,0.0,30.17,M,10.0,M,CLR,M,M,M,M,M,M,M,M,M,M,M,M,M,M,34.95,K8A0 111555Z AUTO 09005KT 10SM CLR 04/M03 A3017 RMK AO2
8A0,2/11/16 16:15,41.0,26.6,56.22,90,6,0.0,30.17,M,10.0,M,CLR,M,M,M,M,M,M,M,M,M,M,M,M,M,M,36.37,K8A0 111615Z AUTO 09006KT 10SM CLR 05/M03 A3017 RMK AO2
8A0,2/11/16 16:35,42.8,26.6,52.45,100,4,0.0,30.16,M,10.0,M,CLR,M,M,M,M,M,M,M,M,M,M,M,M,M,M,40.03,K8A0 111635Z AUTO 10004KT 10SM CLR 06/M03 A3016 RMK AO2
8A0,2/11/16 16:55,42.8,28.4,56.48,120,5,0.0,30.15,M,10.0,M,CLR,M,M,M,M,M,M,M,M,M,M,M,M,M,M,39.22,K8A0 111655Z AUTO 12005KT 10SM CLR 06/M02 A3015 RMK AO2
8A0,2/11/16 17:15,44.6,28.4,52.72,60,3,0.0,30.15,M,10.0,M,CLR,M,M,M,M,M,M,M,M,M,M,M,M,M,M,43.09,K8A0 111715Z AUTO 06003KT 10SM CLR 07/M02 A3015 RMK AO2
8A0,2/11/16 17:35,44.6,30.2,56.74,30,4,0.0,30.14,M,10.0,M,CLR,M,M,M,M,M,M,M,M,M,M,M,M,M,M,42.13,K8A0 111735Z AUTO 03004KT 10SM CLR 07/M01 A3014 RMK AO2
8A0,2/11/16 17:55,44.6,30.2,56.74,70,5,0.0,30.14,M,10.0,M,CLR,M,M,M,M,M,M,M,M,M,M,M,M,M,M,41.36,K8A0 111755Z AUTO 07005KT 10SM CLR 07/M01 A3014 RMK AO2
8A0,2/11/16 18:15,46.4,30.2,53.0,80,6,0.0,30.13,M,10.0,M,CLR,M,M,M,M,M,M,M,M,M,M,M,M,M,M,42.87,K8A0 111815Z AUTO 08006KT 10SM CLR 08/M01 A3013 RMK AO2
8A0,2/11/16 18:35,48.2,32.0,53.27,20,7,0.0,30.13,M,10.0,M,CLR,M,M,M,M,M,M,M,M,M,M,M,M,M,M,44.53,K8A0 111835Z AUTO 02007KT 10SM CLR 09/00 A3013 RMK AO2
8A0,2/11/16 18:55,48.2,30.2,49.53,50,4,0.0,30.13,M,10.0,M,CLR,M,M,M,M,M,M,M,M,M,M,M,M,M,M,46.34,K8A0 111855Z AUTO 05004KT 10SM CLR 09/M01 A3013 RMK AO2
8A0,2/11/16 19:15,48.2,30.2,49.53,100,3,0.0,30.12,M,10.0,M,CLR,M,M,M,M,M,M,M,M,M,M,M,M,M,M,47.21,K8A0 111915Z AUTO 10003KT 10SM CLR 09/M01 A3012 RMK AO2
8A0,2/11/16 19:35,50.0,32.0,49.81,80,3,0.0,30.12,M,10.0,M,CLR,M,M,M,M,M,M,M,M,M,M,M,M,M,M,49.27,K8A0 111935Z AUTO 08003KT 10SM CLR 10/00 A3012 RMK AO2
8A0,2/11/16 19:55,50.0,32.0,49.81,90,4,0.0,30.12,M,10.0,M,CLR,M,M,M,M,M,M,M,M,M,M,M,M,M,M,48.44,K8A0 111955Z AUTO 09004KT 10SM CLR 10/00 A3012 RMK AO2
8A0,2/11/16 20:15,50.0,32.0,49.81,50,6,0.0,30.12,M,10.0,M,CLR,M,M,M,M,M,M,M,M,M,M,M,M,M,M,47.21,K8A0 112015Z AUTO 05006KT 10SM CLR 10/00 A3012 RMK AO2
8A0,2/11/16 20:35,50.0,32.0,49.81,20,4,0.0,30.12,M,10.0,M,CLR,M,M,M,M,M,M,M,M,M,M,M,M,M,M,48.44,K8A0 112035Z AUTO 02004KT 10SM CLR 10/00 A3012 RMK AO2
8A0,2/11/16 20:55,50.0,32.0,49.81,0,0,0.0,30.12,M,10.0,M,CLR,M,M,M,M,M,M,M,M,M,M,M,M,M,M,50.0,K8A0 112055Z AUTO 00000KT 10SM CLR 10/00 A3012 RMK AO2
8A0,2/11/16 21:15,51.8,32.0,46.59,0,0,0.0,30.13,M,10.0,M,CLR,M,M,M,M,M,M,M,M,M,M,M,M,M,M,51.8,K8A0 112115Z AUTO 00000KT 10SM CLR 11/00 A3013 RMK AO2
8A0,2/11/16 21:35,51.8,32.0,46.59,70,3,0.0,30.13,M,10.0,M,CLR,M,M,M,M,M,M,M,M,M,M,M,M,M,M,51.8,K8A0 112135Z AUTO 07003KT 10SM CLR 11/00 A3013 RMK AO2
8A0,2/11/16 21:55,50.0,32.0,49.81,0,0,0.0,30.14,M,10.0,M,CLR,M,M,M,M,M,M,M,M,M,M,M,M,M,M,50.0,K8A0 112155Z AUTO 00000KT 10SM CLR 10/00 A3014 RMK AO2
8A0,2/11/16 22:15,50.0,32.0,49.81,350,5,0.0,30.14,M,10.0,M,CLR,M,M,M,M,M,M,M,M,M,M,M,M,M,M,47.77,K8A0 112215Z AUTO 35005KT 10SM CLR 10/00 A3014 RMK AO2
8A0,2/11/16 22:35,50.0,32.0,49.81,360,7,0.0,30.15,M,10.0,M,CLR,M,M,M,M,M,M,M,M,M,M,M,M,M,M,46.72,K8A0 112235Z AUTO 36007KT 10SM CLR 10/00 A3015 RMK AO2
8A0,2/11/16 22:55,48.2,32.0,53.27,360,5,0.0,30.15,M,10.0,M,CLR,M,M,M,M,M,M,M,M,M,M,M,M,M,M,45.63,K8A0 112255Z AUTO 36005KT 10SM CLR 09/00 A3015 RMK AO2
8A0,2/11/16 23:15,46.4,32.0,57.0,10,4,0.0,30.15,M,10.0,M,CLR,M,M,M,M,M,M,M,M,M,M,M,M,M,M,44.24,K8A0 112315Z AUTO 01004KT 10SM CLR 08/00 A3015 RMK AO2
8A0,2/11/16 23:35,44.6,32.0,61.03,10,3,0.0,30.15,M,10.0,M,CLR,M,M,M,M,M,M,M,M,M,M,M,M,M,M,43.09,K8A0 112335Z AUTO 01003KT 10SM CLR 07/00 A3015 RMK AO2
8A0,2/11/16 23:55,44.6,32.0,61.03,10,4,0.0,30.16,M,10.0,M,CLR,M,M,M,M,M,M,M,M,M,M,M,M,M,M,42.13,K8A0 112355Z AUTO 01004KT 10SM CLR 07/00 A3016 RMK AO2
8A0,2/12/16 0:15,42.8,32.0,65.38,20,4,0.0,30.17,M,10.0,M,CLR,M,M,M,M,M,M,M,M,M,M,M,M,M,M,40.03,K8A0 120015Z AUTO 02004KT 10SM CLR 06/00 A3017 RMK AO2
8A0,2/12/16 0:35,42.8,32.0,65.38,30,5,0.0,30.17,M,10.0,M,CLR,M,M,M,M,M,M,M,M,M,M,M,M,M,M,39.22,K8A0 120035Z AUTO 03005KT 10SM CLR 06/00 A3017 RMK AO2
8A0,2/12/16 0:55,42.8,32.0,65.38,40,5,0.0,30.16,M,10.0,M,CLR,M,M,M,M,M,M,M,M,M,M,M,M,M,M,39.22,K8A0 120055Z AUTO 04005KT 10SM CLR 06/00 A3016 RMK AO2
8A0,2/12/16 1:15,39.2,32.0,75.16,30,4,0.0,30.16,M,10.0,M,CLR,M,M,M,M,M,M,M,M,M,M,M,M,M,M,35.83,K8A0 120115Z AUTO 03004KT 10SM CLR 04/00 A3016 RMK AO2
8A0,2/12/16 1:35,41.0,32.0,70.08,30,4,0.0,30.17,M,10.0,M,SCT,M,M,M,11000,M,M,M,M,M,M,M,M,M,M,37.93,K8A0 120135Z AUTO 03004KT 10SM SCT110 05/00 A3017 RMK AO2
8A0,2/12/16 1:55,37.4,32.0,80.65,30,4,0.0,30.17,M,10.0,M,SCT,M,M,M,11000,M,M,M,M,M,M,M,M,M,M,33.73,K8A0 120155Z AUTO 03004KT 10SM SCT110 03/00 A3017 RMK AO2
8A0,2/12/16 2:15,39.2,32.0,75.16,30,5,0.0,30.17,M,7.0,M,CLR,M,M,M,M,M,M,M,M,M,M,M,M,M,M,34.95,K8A0 120215Z AUTO 03005KT 7SM CLR 04/00 A3017 RMK AO2
8A0,2/12/16 2:35,37.4,32.0,80.65,40,4,0.0,30.17,M,10.0,M,CLR,M,M,M,M,M,M,M,M,M,M,M,M,M,M,33.73,K8A0 120235Z AUTO 04004KT 10SM CLR 03/00 A3017 RMK AO2
8A0,2/12/16 2:55,35.6,32.0,86.59,30,6,0.0,30.17,M,10.0,M,CLR,M,M,M,M,M,M,M,M,M,M,M,M,M,M,29.87,K8A0 120255Z AUTO 03006KT 10SM CLR 02/00 A3017 RMK AO2
8A0,2/12/16 3:15,37.4,32.0,80.65,40,6,0.0,30.17,M,10.0,M,CLR,M,M,M,M,M,M,M,M,M,M,M,M,M,M,32.03,K8A0 120315Z AUTO 04006KT 10SM CLR 03/00 A3017 RMK AO2
8A0,2/12/16 3:35,37.4,30.2,74.98,40,5,0.0,30.17,M,10.0,M,CLR,M,M,M,M,M,M,M,M,M,M,M,M,M,M,32.81,K8A0 120335Z AUTO 04005KT 10SM CLR 03/M01 A3017 RMK AO2
8A0,2/12/16 3:55,35.6,32.0,86.59,40,4,0.0,30.17,M,10.0,M,CLR,M,M,M,M,M,M,M,M,M,M,M,M,M,M,31.62,K8A0 120355Z AUTO 04004KT 10SM CLR 02/00 A3017 RMK AO2
8A0,2/12/16 4:15,37.4,32.0,80.65,40,6,0.0,30.17,M,10.0,M,CLR,M,M,M,M,M,M,M,M,M,M,M,M,M,M,32.03,K8A0 120415Z AUTO 04006KT 10SM CLR 03/00 A3017 RMK AO2
8A0,2/12/16 4:35,35.6,32.0,86.59,50,5,0.0,30.17,M,10.0,M,CLR,M,M,M,M,M,M,M,M,M,M,M,M,M,M,30.67,K8A0 120435Z AUTO 05005KT 10SM CLR 02/00 A3017 RMK AO2
8A0,2/12/16 4:55,35.6,32.0,86.59,60,5,0.0,30.17,M,10.0,M,CLR,M,M,M,M,M,M,M,M,M,M,M,M,M,M,30.67,K8A0 120455Z AUTO 06005KT 10SM CLR 02/00 A3017 RMK AO2
8A0,2/12/16 5:15,35.6,30.2,80.51,50,5,0.0,30.16,M,10.0,M,CLR,M,M,M,M,M,M,M,M,M,M,M,M,M,M,30.67,K8A0 120515Z AUTO 05005KT 10SM CLR 02/M01 A3016 RMK AO2
8A0,2/12/16 5:35,35.6,30.2,80.51,60,3,0.0,30.16,M,10.0,M,CLR,M,M,M,M,M,M,M,M,M,M,M,M,M,M,32.8,K8A0 120535Z AUTO 06003KT 10SM CLR 02/M01 A3016 RMK AO2
8A0,2/12/16 5:55,33.8,30.2,86.49,80,5,0.0,30.14,M,10.0,M,CLR,M,M,M,M,M,M,M,M,M,M,M,M,M,M,28.53,K8A0 120555Z AUTO 08005KT 10SM CLR 01/M01 A3014 RMK AO2
8A0,2/12/16 6:15,33.8,30.2,86.49,80,5,0.0,30.13,M,10.0,M,CLR,M,M,M,M,M,M,M,M,M,M,M,M,M,M,28.53,K8A0 120615Z AUTO 08005KT 10SM CLR 01/M01 A3013 RMK AO2
8A0,2/12/16 6:35,33.8,30.2,86.49,100,3,0.0,30.13,M,10.0,M,CLR,M,M,M,M,M,M,M,M,M,M,M,M,M,M,30.75,K8A0 120635Z AUTO 10003KT 10SM CLR 01/M01 A3013 RMK AO2
8A0,2/12/16 6:55,33.8,30.2,86.49,0,0,0.0,30.15,M,10.0,M,SCT,M,M,M,12000,M,M,M,M,M,M,M,M,M,M,33.8,K8A0 120655Z AUTO 00000KT 10SM SCT120 01/M01 A3015 RMK AO2
8A0,2/12/16 7:15,33.8,30.2,86.49,0,0,0.0,30.14,M,10.0,M,CLR,M,M,M,M,M,M,M,M,M,M,M,M,M,M,33.8,K8A0 120715Z AUTO 00000KT 10SM CLR 01/M01 A3014 RMK AO2
8A0,2/12/16 7:35,33.8,30.2,86.49,20,3,0.0,30.15,M,10.0,M,CLR,M,M,M,M,M,M,M,M,M,M,M,M,M,M,30.75,K8A0 120735Z AUTO 02003KT 10SM CLR 01/M01 A3015 RMK AO2
8A0,2/12/16 7:55,32.0,30.2,92.97,0,0,0.0,30.14,M,10.0,M,CLR,M,M,M,M,M,M,M,M,M,M,M,M,M,M,32.0,K8A0 120755Z AUTO 00000KT 10SM CLR 00/M01 A3014 RMK AO2
8A0,2/12/16 8:15,32.0,32.0,100.0,0,0,0.0,30.14,M,10.0,M,SCT,M,M,M,12000,M,M,M,M,M,M,M,M,M,M,32.0,K8A0 120815Z AUTO 00000KT 10SM SCT120 00/00 A3014 RMK AO2
8A0,2/12/16 8:35,32.0,30.2,92.97,40,4,0.0,30.14,M,10.0,M,BKN,M,M,M,11000,M,M,M,M,M,M,M,M,M,M,27.42,K8A0 120835Z AUTO 04004KT 10SM BKN110 00/M01 A3014 RMK AO2
8A0,2/12/16 8:55,32.0,32.0,100.0,0,0,0.0,30.13,M,10.0,M,BKN,M,M,M,11000,M,M,M,M,M,M,M,M,M,M,32.0,K8A0 120855Z AUTO 00000KT 10SM BKN110 00/00 A3013 RMK AO2
8A0,2/12/16 9:15,33.8,32.0,93.03,110,3,0.0,30.11,M,10.0,M,BKN,M,M,M,11000,M,M,M,M,M,M,M,M,M,M,30.75,K8A0 120915Z AUTO 11003KT 10SM BKN110 01/00 A3011 RMK AO2
8A0,2/12/16 9:35,33.8,30.2,86.49,80,4,0.0,30.11,M,10.0,M,SCT,M,M,M,11000,M,M,M,M,M,M,M,M,M,M,29.52,K8A0 120935Z AUTO 08004KT 10SM SCT110 01/M01 A3011 RMK AO2
8A0,2/12/16 9:55,33.8,30.2,86.49,70,3,0.0,30.12,M,10.0,M,SCT,M,M,M,12000,M,M,M,M,M,M,M,M,M,M,30.75,K8A0 120955Z AUTO 07003KT 10SM SCT120 01/M01 A3012 RMK AO2
8A0,2/12/16 10:15,33.8,30.2,86.49,80,3,0.0,30.11,M,10.0,M,CLR,M,M,M,M,M,M,M,M,M,M,M,M,M,M,30.75,K8A0 121015Z AUTO 08003KT 10SM CLR 01/M01 A3011 RMK AO2
8A0,2/12/16 10:35,33.8,30.2,86.49,30,4,0.0,30.13,M,10.0,M,CLR,M,M,M,M,M,M,M,M,M,M,M,M,M,M,29.52,K8A0 121035Z AUTO 03004KT 10SM CLR 01/M01 A3013 RMK AO2
8A0,2/12/16 10:55,33.8,30.2,86.49,60,3,0.0,30.13,M,10.0,M,CLR,M,M,M,M,M,M,M,M,M,M,M,M,M,M,30.75,K8A0 121055Z AUTO 06003KT 10SM CLR 01/M01 A3013 RMK AO2
8A0,2/12/16 11:15,33.8,30.2,86.49,70,3,0.0,30.12,M,10.0,M,CLR,M,M,M,M,M,M,M,M,M,M,M,M,M,M,30.75,K8A0 121115Z AUTO 07003KT 10SM CLR 01/M01 A3012 RMK AO2
8A0,2/12/16 11:35,32.0,32.0,100.0,90,4,0.0,30.12,M,10.0,M,CLR,M,M,M,M,M,M,M,M,M,M,M,M,M,M,27.42,K8A0 121135Z AUTO 09004KT 10SM CLR 00/00 A3012 RMK AO2
8A0,2/12/16 11:55,32.0,32.0,100.0,80,4,0.0,30.12,M,10.0,M,CLR,M,M,M,M,M,M,M,M,M,M,M,M,M,M,27.42,K8A0 121155Z AUTO 08004KT 10SM CLR 00/00 A3012 RMK AO2
8A0,2/12/16 12:15,33.8,30.2,86.49,0,0,0.0,30.13,M,10.0,M,CLR,M,M,M,M,M,M,M,M,M,M,M,M,M,M,33.8,K8A0 121215Z AUTO 00000KT 10SM CLR 01/M01 A3013 RMK AO2
8A0,2/12/16 12:35,32.0,32.0,100.0,10,4,0.0,30.14,M,10.0,M,CLR,M,M,M,M,M,M,M,M,M,M,M,M,M,M,27.42,K8A0 121235Z AUTO 01004KT 10SM CLR 00/00 A3014 RMK AO2
8A0,2/12/16 12:55,32.0,32.0,100.0,70,3,0.0,30.13,M,10.0,M,CLR,M,M,M,M,M,M,M,M,M,M,M,M,M,M,28.69,K8A0 121255Z AUTO 07003KT 10SM CLR 00/00 A3013 RMK AO2
8A0,2/12/16 13:15,33.8,32.0,93.03,0,0,0.0,30.13,M,10.0,M,CLR,M,M,M,M,M,M,M,M,M,M,M,M,M,M,33.8,K8A0 121315Z AUTO 00000KT 10SM CLR 01/00 A3013 RMK AO2
8A0,2/12/16 13:35,33.8,32.0,93.03,0,0,0.0,30.13,M,10.0,M,CLR,M,M,M,M,M,M,M,M,M,M,M,M,M,M,33.8,K8A0 121335Z AUTO 00000KT 10SM CLR 01/00 A3013 RMK AO2
8A0,2/12/16 13:55,35.6,32.0,86.59,0,0,0.0,30.13,M,10.0,M,CLR,M,M,M,M,M,M,M,M,M,M,M,M,M,M,35.6,K8A0 121355Z AUTO 00000KT 10SM CLR 02/00 A3013 RMK AO2
8A0,2/12/16 14:15,39.2,32.0,75.16,110,4,0.0,30.12,M,10.0,M,CLR,M,M,M,M,M,M,M,M,M,M,M,M,M,M,35.83,K8A0 121415Z AUTO 11004KT 10SM CLR 04/00 A3012 RMK AO2
8A0,2/12/16 14:35,41.0,32.0,70.08,120,3,0.0,30.12,M,10.0,M,SCT,M,M,M,12000,M,M,M,M,M,M,M,M,M,M,38.98,K8A0 121435Z AUTO 12003KT 10SM SCT120 05/00 A3012 RMK AO2
8A0,2/12/16 14:55,42.8,32.0,65.38,150,5,0.0,30.11,M,10.0,M,SCT,M,M,M,12000,M,M,M,M,M,M,M,M,M,M,39.22,K8A0 121455Z AUTO 15005KT 10SM SCT120 06/00 A3011 RMK AO2
8A0,2/12/16 15:15,44.6,33.8,65.61,190,4,0.0,30.12,M,10.0,M,CLR,M,M,M,M,M,M,M,M,M,M,M,M,M,M,42.13,K8A0 121515Z AUTO 19004KT 10SM CLR 07/01 A3012 RMK AO2
8A0,2/12/16 15:35,46.4,33.8,61.28,0,0,0.0,30.12,M,10.0,M,CLR,M,M,M,M,M,M,M,M,M,M,M,M,M,M,46.4,K8A0 121535Z AUTO 00000KT 10SM CLR 08/01 A3012 RMK AO2
8A0,2/12/16 15:55,48.2,33.8,57.26,0,0,0.0,30.13,M,10.0,M,CLR,M,M,M,M,M,M,M,M,M,M,M,M,M,M,48.2,K8A0 121555Z AUTO 00000KT 10SM CLR 09/01 A3013 RMK AO2
8A0,2/12/16 16:15,50.0,35.6,57.52,220,4,0.0,30.12,M,10.0,M,CLR,M,M,M,M,M,M,M,M,M,M,M,M,M,M,48.44,K8A0 121615Z AUTO 22004KT 10SM CLR 10/02 A3012 RMK AO2
8A0,2/12/16 16:35,51.8,35.6,53.81,230,5,0.0,30.12,M,10.0,M,CLR,M,M,M,M,M,M,M,M,M,M,M,M,M,M,51.8,K8A0 121635Z AUTO 23005KT 10SM CLR 11/02 A3012 RMK AO2
8A0,2/12/16 16:55,53.6,37.4,54.07,270,7,0.0,30.12,M,10.0,M,CLR,M,M,M,M,M,M,M,M,M,M,M,M,M,M,53.6,K8A0 121655Z AUTO 27007KT 229V289 10SM CLR 12/03 A3012 RMK AO2
8A0,2/12/16 17:15,53.6,37.4,54.07,270,13,0.0,30.12,M,10.0,M,CLR,M,M,M,M,M,M,M,M,M,M,M,M,M,M,53.6,K8A0 121715Z AUTO 27013KT 10SM CLR 12/03 A3012 RMK AO2
8A0,2/12/16 17:35,53.6,37.4,54.07,300,8,0.0,30.11,M,10.0,15,CLR,M,M,M,M,M,M,M,M,M,M,M,M,M,M,53.6,K8A0 121735Z AUTO 30008G15KT 10SM CLR 12/03 A3011 RMK AO2
8A0,2/12/16 17:55,55.4,39.2,54.34,310,10,0.0,30.1,M,10.0,16,CLR,M,M,M,M,M,M,M,M,M,M,M,M,M,M,55.4,K8A0 121755Z AUTO 31010G16KT 10SM CLR 13/04 A3010 RMK AO2
8A0,2/12/16 18:15,55.4,37.4,50.64,300,11,0.0,30.1,M,10.0,22,CLR,M,M,M,M,M,M,M,M,M,M,M,M,M,M,55.4,K8A0 121815Z AUTO 30011G22KT 10SM CLR 13/03 A3010 RMK AO2
8A0,2/12/16 18:35,55.4,37.4,50.64,320,12,0.0,30.1,M,10.0,16,CLR,M,M,M,M,M,M,M,M,M,M,M,M,M,M,55.4,K8A0 121835Z AUTO 32012G16KT 10SM CLR 13/03 A3010 RMK AO2
8A0,2/12/16 18:55,55.4,35.6,47.16,330,13,0.0,30.09,M,10.0,18,CLR,M,M,M,M,M,M,M,M,M,M,M,M,M,M,55.4,K8A0 121855Z AUTO 33013G18KT 10SM CLR 13/02 A3009 RMK AO2
8A0,2/12/16 19:15,55.4,35.6,47.16,310,14,0.0,30.09,M,10.0,20,CLR,M,M,M,M,M,M,M,M,M,M,M,M,M,M,55.4,K8A0 121915Z AUTO 31014G20KT 10SM CLR 13/02 A3009 RMK AO2
8A0,2/12/16 19:35,55.4,35.6,47.16,310,10,0.0,30.09,M,10.0,18,CLR,M,M,M,M,M,M,M,M,M,M,M,M,M,M,55.4,K8A0 121935Z AUTO 31010G18KT 10SM CLR 13/02 A3009 RMK AO2
8A0,2/12/16 19:55,55.4,35.6,47.16,280,11,0.0,30.09,M,10.0,20,CLR,M,M,M,M,M,M,M,M,M,M,M,M,M,M,55.4,K8A0 121955Z AUTO 28011G20KT 10SM CLR 13/02 A3009 RMK AO2
8A0,2/12/16 20:15,55.4,35.6,47.16,320,14,0.0,30.09,M,10.0,18,CLR,M,M,M,M,M,M,M,M,M,M,M,M,M,M,55.4,K8A0 122015Z AUTO 32014G18KT 10SM CLR 13/02 A3009 RMK AO2
8A0,2/12/16 20:35,55.4,35.6,47.16,320,13,0.0,30.09,M,10.0,20,CLR,M,M,M,M,M,M,M,M,M,M,M,M,M,M,55.4,K8A0 122035Z AUTO 32013G20KT 10SM CLR 13/02 A3009 RMK AO2
8A0,2/12/16 20:55,55.4,35.6,47.16,310,15,0.0,30.09,M,10.0,20,CLR,M,M,M,M,M,M,M,M,M,M,M,M,M,M,55.4,K8A0 122055Z AUTO 31015G20KT 10SM CLR 13/02 A3009 RMK AO2
8A0,2/12/16 21:15,55.4,35.6,47.16,310,14,0.0,30.1,M,10.0,20,CLR,M,M,M,M,M,M,M,M,M,M,M,M,M,M,55.4,K8A0 122115Z AUTO 31014G20KT 10SM CLR 13/02 A3010 RMK AO2
8A0,2/12/16 21:35,53.6,35.6,50.36,300,8,0.0,30.1,M,10.0,20,CLR,M,M,M,M,M,M,M,M,M,M,M,M,M,M,53.6,K8A0 122135Z AUTO 30008G20KT 10SM CLR 12/02 A3010 RMK AO2
8A0,2/12/16 21:55,53.6,35.6,50.36,300,8,0.0,30.11,M,10.0,16,CLR,M,M,M,M,M,M,M,M,M,M,M,M,M,M,53.6,K8A0 122155Z AUTO 30008G16KT 10SM CLR 12/02 A3011 RMK AO2
8A0,2/12/16 22:15,53.6,35.6,50.36,300,12,0.0,30.11,M,10.0,17,CLR,M,M,M,M,M,M,M,M,M,M,M,M,M,M,53.6,K8A0 122215Z AUTO 30012G17KT 10SM CLR 12/02 A3011 RMK AO2
8A0,2/12/16 22:35,53.6,35.6,50.36,310,10,0.0,30.12,M,10.0,M,CLR,M,M,M,M,M,M,M,M,M,M,M,M,M,M,53.6,K8A0 122235Z AUTO 31010KT 10SM CLR 12/02 A3012 RMK AO2
8A0,2/12/16 22:55,51.8,35.6,53.81,320,12,0.0,30.13,M,10.0,18,CLR,M,M,M,M,M,M,M,M,M,M,M,M,M,M,51.8,K8A0 122255Z AUTO 32012G18KT 10SM CLR 11/02 A3013 RMK AO2
8A0,2/12/16 23:15,50.0,33.8,53.54,300,6,0.0,30.14,M,10.0,10,CLR,M,M,M,M,M,M,M,M,M,M,M,M,M,M,47.21,K8A0 122315Z AUTO 30006G10KT 10SM CLR 10/01 A3014 RMK AO2
8A0,2/12/16 23:35,50.0,33.8,53.54,310,8,0.0,30.15,M,10.0,16,CLR,M,M,M,M,M,M,M,M,M,M,M,M,M,M,46.29,K8A0 122335Z AUTO 31008G16KT 10SM CLR 10/01 A3015 RMK AO2
8A0,2/12/16 23:55,48.2,33.8,57.26,300,7,0.0,30.15,M,10.0,14,CLR,M,M,M,M,M,M,M,M,M,M,M,M,M,M,44.53,K8A0 122355Z AUTO 30007G14KT 10SM CLR 09/01 A3015 RMK AO2
8A0,2/13/16 0:15,48.2,33.8,57.26,300,6,0.0,30.17,M,10.0,M,CLR,M,M,M,M,M,M,M,M,M,M,M,M,M,M,45.04,K8A0 130015Z AUTO 30006KT 10SM CLR 09/01 A3017 RMK AO2
8A0,2/13/16 0:35,46.4,33.8,61.28,310,10,0.0,30.17,M,10.0,M,CLR,M,M,M,M,M,M,M,M,M,M,M,M,M,M,41.03,K8A0 130035Z AUTO 31010KT 10SM CLR 08/01 A3017 RMK AO2
8A0,2/13/16 0:55,46.4,33.8,61.28,300,5,0.0,30.18,M,10.0,M,CLR,M,M,M,M,M,M,M,M,M,M,M,M,M,M,43.5,K8A0 130055Z AUTO 30005KT 10SM CLR 08/01 A3018 RMK AO2
8A0,2/13/16 1:15,46.4,33.8,61.28,300,9,0.0,30.19,M,10.0,14,CLR,M,M,M,M,M,M,M,M,M,M,M,M,M,M,41.42,K8A0 130115Z AUTO 30009G14KT 10SM CLR 08/01 A3019 RMK AO2
8A0,2/13/16 1:35,44.6,33.8,65.61,320,10,0.0,30.2,M,10.0,19,SCT,M,M,M,11000,M,M,M,M,M,M,M,M,M,M,38.77,K8A0 130135Z AUTO 32010G19KT 10SM SCT110 07/01 A3020 RMK AO2
8A0,2/13/16 1:55,44.6,33.8,65.61,330,11,0.0,30.22,M,10.0,15,SCT,M,M,M,11000,M,M,M,M,M,M,M,M,M,M,38.39,K8A0 130155Z AUTO 33011G15KT 10SM SCT110 07/01 A3022 RMK AO2
8A0,2/13/16 2:15,42.8,32.0,65.38,350,8,0.0,30.23,M,10.0,19,SCT,M,M,M,11000,M,M,M,M,M,M,M,M,M,M,37.42,K8A0 130215Z AUTO 35008G19KT 10SM SCT110 06/00 A3023 RMK AO2
8A0,2/13/16 2:35,42.8,32.0,65.38,350,9,0.0,30.24,M,10.0,M,SCT,M,M,M,11000,M,M,M,M,M,M,M,M,M,M,36.94,K8A0 130235Z AUTO 35009KT 10SM SCT110 06/00 A3024 RMK AO2
8A0,2/13/16 2:55,41.0,32.0,70.08,350,8,0.0,30.24,M,10.0,15,CLR,M,M,M,M,M,M,M,M,M,M,M,M,M,M,35.2,K8A0 130255Z AUTO 35008G15KT 10SM CLR 05/00 A3024 RMK AO2
8A0,2/13/16 3:15,41.0,32.0,70.08,360,7,0.0,30.26,M,10.0,17,CLR,M,M,M,M,M,M,M,M,M,M,M,M,M,M,35.75,K8A0 130315Z AUTO 36007G17KT 10SM CLR 05/00 A3026 RMK AO2
8A0,2/13/16 3:35,39.2,32.0,75.16,340,11,0.0,30.27,M,10.0,18,CLR,M,M,M,M,M,M,M,M,M,M,M,M,M,M,31.57,K8A0 130335Z AUTO 34011G18KT 10SM CLR 04/00 A3027 RMK AO2
8A0,2/13/16 3:55,39.2,32.0,75.16,340,12,0.0,30.27,M,10.0,20,CLR,M,M,M,M,M,M,M,M,M,M,M,M,M,M,31.17,K8A0 130355Z AUTO 34012G20KT 10SM CLR 04/00 A3027 RMK AO2
8A0,2/13/16 4:15,37.4,32.0,80.65,340,13,0.0,30.27,M,10.0,18,CLR,M,M,M,M,M,M,M,M,M,M,M,M,M,M,28.49,K8A0 130415Z AUTO 34013G18KT 10SM CLR 03/00 A3027 RMK AO2
8A0,2/13/16 4:35,35.6,32.0,86.59,350,13,0.0,30.28,M,10.0,M,CLR,M,M,M,M,M,M,M,M,M,M,M,M,M,M,26.18,K8A0 130435Z AUTO 35013KT 10SM CLR 02/00 A3028 RMK AO2
8A0,2/13/16 4:55,35.6,32.0,86.59,350,12,0.0,30.28,M,10.0,17,CLR,M,M,M,M,M,M,M,M,M,M,M,M,M,M,26.58,K8A0 130455Z AUTO 35012G17KT 10SM CLR 02/00 A3028 RMK AO2
8A0,2/13/16 5:15,33.8,32.0,93.03,350,10,0.0,30.28,M,10.0,16,CLR,M,M,M,M,M,M,M,M,M,M,M,M,M,M,25.23,K8A0 130515Z AUTO 35010G16KT 10SM CLR 01/00 A3028 RMK AO2
8A0,2/13/16 5:35,33.8,32.0,93.03,350,10,0.0,30.29,M,10.0,M,CLR,M,M,M,M,M,M,M,M,M,M,M,M,M,M,25.23,K8A0 130535Z AUTO 35010KT 10SM CLR 01/00 A3029 RMK AO2
8A0,2/13/16 5:55,33.8,32.0,93.03,350,13,0.0,30.29,M,10.0,17,SCT,M,M,M,2200,M,M,M,M,M,M,M,M,M,M,23.87,K8A0 130555Z AUTO 35013G17KT 10SM SCT022 01/00 A3029 RMK AO2
8A0,2/13/16 6:15,33.8,30.2,86.49,350,8,0.0,30.29,M,10.0,16,CLR,M,M,M,M,M,M,M,M,M,M,M,M,M,M,26.33,K8A0 130615Z AUTO 35008G16KT 10SM CLR 01/M01 A3029 RMK AO2
8A0,2/13/16 6:35,32.0,30.2,92.97,350,14,0.0,30.29,M,10.0,18,CLR,M,M,M,M,M,M,M,M,M,M,M,M,M,M,21.16,K8A0 130635Z AUTO 35014G18KT 10SM CLR 00/M01 A3029 RMK AO2
8A0,2/13/16 6:55,32.0,28.4,86.39,340,11,0.0,30.3,M,10.0,18,CLR,M,M,M,M,M,M,M,M,M,M,M,M,M,M,22.47,K8A0 130655Z AUTO 34011G18KT 10SM CLR 00/M02 A3030 RMK AO2
8A0,2/13/16 7:15,32.0,28.4,86.39,350,9,0.0,30.3,M,10.0,M,CLR,M,M,M,M,M,M,M,M,M,M,M,M,M,M,23.51,K8A0 130715Z AUTO 35009KT 10SM CLR 00/M02 A3030 RMK AO2
8A0,2/13/16 7:35,32.0,28.4,86.39,340,10,0.0,30.3,M,10.0,M,CLR,M,M,M,M,M,M,M,M,M,M,M,M,M,M,22.97,K8A0 130735Z AUTO 34010KT 10SM CLR 00/M02 A3030 RMK AO2
8A0,2/13/16 7:55,32.0,28.4,86.39,350,9,0.0,30.29,M,10.0,M,CLR,M,M,M,M,M,M,M,M,M,M,M,M,M,M,23.51,K8A0 130755Z AUTO 35009KT 10SM CLR 00/M02 A3029 RMK AO2
8A0,2/13/16 8:15,32.0,28.4,86.39,360,13,0.0,30.31,M,10.0,M,CLR,M,M,M,M,M,M,M,M,M,M,M,M,M,M,21.57,K8A0 130815Z AUTO 36013KT 10SM CLR 00/M02 A3031 RMK AO2
8A0,2/13/16 8:35,32.0,24.8,74.44,350,15,0.0,30.31,M,10.0,M,CLR,M,M,M,M,M,M,M,M,M,M,M,M,M,M,20.78,K8A0 130835Z AUTO 35015KT 10SM CLR 00/M04 A3031 RMK AO2
8A0,2/13/16 8:55,30.2,26.6,86.28,360,16,0.0,30.31,M,10.0,20,CLR,M,M,M,M,M,M,M,M,M,M,M,M,M,M,18.07,K8A0 130855Z AUTO 36016G20KT 10SM CLR M01/M03 A3031 RMK AO2
8A0,2/13/16 9:15,30.2,24.8,80.07,360,12,0.0,30.3,M,10.0,M,CLR,M,M,M,M,M,M,M,M,M,M,M,M,M,M,19.71,K8A0 130915Z AUTO 36012KT 10SM CLR M01/M04 A3030 RMK AO2
8A0,2/13/16 9:35,30.2,24.8,80.07,360,13,0.0,30.3,M,10.0,21,CLR,M,M,M,M,M,M,M,M,M,M,M,M,M,M,19.26,K8A0 130935Z AUTO 36013G21KT 10SM CLR M01/M04 A3030 RMK AO2
8A0,2/13/16 9:55,30.2,24.8,80.07,350,16,0.0,30.32,M,10.0,22,CLR,M,M,M,M,M,M,M,M,M,M,M,M,M,M,18.07,K8A0 130955Z AUTO 35016G22KT 10SM CLR M01/M04 A3032 RMK AO2
8A0,2/13/16 10:15,28.4,24.8,86.18,360,13,0.0,30.32,M,10.0,21,CLR,M,M,M,M,M,M,M,M,M,M,M,M,M,M,16.96,K8A0 131015Z AUTO 36013G21KT 10SM CLR M02/M04 A3032 RMK AO2
8A0,2/13/16 10:35,28.4,24.8,86.18,340,13,0.0,30.34,M,10.0,M,CLR,M,M,M,M,M,M,M,M,M,M,M,M,M,M,16.96,K8A0 131035Z AUTO 34013KT 10SM CLR M02/M04 A3034 RMK AO2
8A0,2/13/16 10:55,28.4,23.0,79.92,350,13,0.0,30.34,M,10.0,21,CLR,M,M,M,M,M,M,M,M,M,M,M,M,M,M,16.96,K8A0 131055Z AUTO 35013G21KT 10SM CLR M02/M05 A3034 RMK AO2
8A0,2/13/16 11:15,28.4,23.0,79.92,340,12,0.0,30.35,M,10.0,19,CLR,M,M,M,M,M,M,M,M,M,M,M,M,M,M,17.42,K8A0 131115Z AUTO 34012G19KT 10SM CLR M02/M05 A3035 RMK AO2
8A0,2/13/16 11:35,26.6,21.2,79.77,350,11,0.0,30.35,M,10.0,20,CLR,M,M,M,M,M,M,M,M,M,M,M,M,M,M,15.64,K8A0 131135Z AUTO 35011G20KT 10SM CLR M03/M06 A3035 RMK AO2
8A0,2/13/16 11:55,26.6,21.2,79.77,340,10,0.0,30.36,M,10.0,18,CLR,M,M,M,M,M,M,M,M,M,M,M,M,M,M,16.2,K8A0 131155Z AUTO 34010G18KT 10SM CLR M03/M06 A3036 RMK AO2
8A0,2/13/16 12:15,26.6,21.2,79.77,350,11,0.0,30.38,M,10.0,16,CLR,M,M,M,M,M,M,M,M,M,M,M,M,M,M,15.64,K8A0 131215Z AUTO 35011G16KT 10SM CLR M03/M06 A3038 RMK AO2
8A0,2/13/16 12:35,26.6,21.2,79.77,340,9,0.0,30.4,M,10.0,17,CLR,M,M,M,M,M,M,M,M,M,M,M,M,M,M,16.8,K8A0 131235Z AUTO 34009G17KT 10SM CLR M03/M06 A3040 RMK AO2
8A0,2/13/16 12:55,24.8,21.2,85.96,360,11,0.0,30.39,M,10.0,15,CLR,M,M,M,M,M,M,M,M,M,M,M,M,M,M,13.37,K8A0 131255Z AUTO 36011G15KT 10SM CLR M04/M06 A3039 RMK AO2
8A0,2/13/16 13:15,24.8,19.4,79.62,360,10,0.0,30.4,M,10.0,M,CLR,M,M,M,M,M,M,M,M,M,M,M,M,M,M,13.94,K8A0 131315Z AUTO 36010KT 10SM CLR M04/M07 A3040 RMK AO2
8A0,2/13/16 13:35,26.6,19.4,73.89,360,10,0.0,30.41,M,10.0,M,CLR,M,M,M,M,M,M,M,M,M,M,M,M,M,M,16.2,K8A0 131335Z AUTO 36010KT 10SM CLR M03/M07 A3041 RMK AO2
8A0,2/13/16 13:55,26.6,19.4,73.89,350,11,0.0,30.42,M,10.0,M,CLR,M,M,M,M,M,M,M,M,M,M,M,M,M,M,15.64,K8A0 131355Z AUTO 35011KT 10SM CLR M03/M07 A3042 RMK AO2
8A0,2/13/16 14:15,26.6,17.6,68.4,10,12,0.0,30.43,M,10.0,18,CLR,M,M,M,M,M,M,M,M,M,M,M,M,M,M,15.13,K8A0 131415Z AUTO 01012G18KT 10SM CLR M03/M08 A3043 RMK AO2
8A0,2/13/16 14:35,26.6,15.8,63.27,10,14,0.0,30.43,M,10.0,20,CLR,M,M,M,M,M,M,M,M,M,M,M,M,M,M,14.2,K8A0 131435Z AUTO 01014G20KT 10SM CLR M03/M09 A3043 RMK AO2
8A0,2/13/16 14:55,28.4,15.8,58.75,10,14,0.0,30.44,M,10.0,17,CLR,M,M,M,M,M,M,M,M,M,M,M,M,M,M,16.52,K8A0 131455Z AUTO 01014G17KT 10SM CLR M02/M09 A3044 RMK AO2
8A0,2/13/16 15:15,30.2,17.6,59.01,350,10,0.0,30.44,M,10.0,M,CLR,M,M,M,M,M,M,M,M,M,M,M,M,M,M,20.71,K8A0 131515Z AUTO 35010KT 10SM CLR M01/M08 A3044 RMK AO2
8A0,2/13/16 15:35,30.2,17.6,59.01,10,9,0.0,30.45,M,10.0,M,CLR,M,M,M,M,M,M,M,M,M,M,M,M,M,M,21.28,K8A0 131535Z AUTO 01009KT 10SM CLR M01/M08 A3045 RMK AO2
8A0,2/13/16 15:55,30.2,15.8,54.59,340,11,0.0,30.45,M,10.0,17,CLR,M,M,M,M,M,M,M,M,M,M,M,M,M,M,20.19,K8A0 131555Z AUTO 34011G17KT 10SM CLR M01/M09 A3045 RMK AO2
8A0,2/13/16 16:15,30.2,17.6,59.01,310,7,0.0,30.45,M,10.0,M,CLR,M,M,M,M,M,M,M,M,M,M,M,M,M,M,22.59,K8A0 131615Z AUTO 31007KT 10SM CLR M01/M08 A3045 RMK AO2
8A0,2/13/16 16:35,32.0,17.6,54.87,310,10,0.0,30.46,M,10.0,M,CLR,M,M,M,M,M,M,M,M,M,M,M,M,M,M,22.97,K8A0 131635Z AUTO 31010KT 10SM CLR 00/M08 A3046 RMK AO2
8A0,2/13/16 16:55,32.0,17.6,54.87,310,9,0.0,30.46,M,10.0,M,CLR,M,M,M,M,M,M,M,M,M,M,M,M,M,M,23.51,K8A0 131655Z AUTO 31009KT 10SM CLR 00/M08 A3046 RMK AO2
8A0,2/13/16 17:15,32.0,17.6,54.87,310,7,0.0,30.45,M,10.0,M,CLR,M,M,M,M,M,M,M,M,M,M,M,M,M,M,24.78,K8A0 131715Z AUTO 31007KT 10SM CLR 00/M08 A3045 RMK AO2
8A0,2/13/16 17:35,32.0,17.6,54.87,300,10,0.0,30.44,M,10.0,14,CLR,M,M,M,M,M,M,M,M,M,M,M,M,M,M,22.97,K8A0 131735Z AUTO 30010G14KT 10SM CLR 00/M08 A3044 RMK AO2
8A0,2/13/16 17:55,32.0,17.6,54.87,350,8,0.0,30.44,M,10.0,M,CLR,M,M,M,M,M,M,M,M,M,M,M,M,M,M,24.11,K8A0 131755Z AUTO 35008KT 10SM CLR 00/M08 A3044 RMK AO2
8A0,2/13/16 18:15,33.8,17.6,51.04,300,8,0.0,30.42,M,10.0,M,CLR,M,M,M,M,M,M,M,M,M,M,M,M,M,M,26.33,K8A0 131815Z AUTO 30008KT 10SM CLR 01/M08 A3042 RMK AO2
8A0,2/13/16 18:35,33.8,17.6,51.04,360,4,0.0,30.42,M,10.0,14,CLR,M,M,M,M,M,M,M,M,M,M,M,M,M,M,29.52,K8A0 131835Z AUTO 36004G14KT 10SM CLR 01/M08 A3042 RMK AO2
8A0,2/13/16 18:55,33.8,17.6,51.04,340,8,0.0,30.41,M,10.0,M,CLR,M,M,M,M,M,M,M,M,M,M,M,M,M,M,26.33,K8A0 131855Z AUTO 34008KT 299V009 10SM CLR 01/M08 A3041 RMK AO2
8A0,2/13/16 19:15,33.8,15.8,47.22,290,8,0.0,30.4,M,10.0,M,CLR,M,M,M,M,M,M,M,M,M,M,M,M,M,M,26.33,K8A0 131915Z AUTO 29008KT 10SM CLR 01/M09 A3040 RMK AO2
8A0,2/13/16 19:35,35.6,17.6,47.51,350,10,0.0,30.4,M,10.0,M,CLR,M,M,M,M,M,M,M,M,M,M,M,M,M,M,27.48,K8A0 131935Z AUTO 35010KT 10SM CLR 02/M08 A3040 RMK AO2
8A0,2/13/16 19:55,35.6,17.6,47.51,360,6,0.0,30.39,M,10.0,M,CLR,M,M,M,M,M,M,M,M,M,M,M,M,M,M,29.87,K8A0 131955Z AUTO 36006KT 10SM CLR 02/M08 A3039 RMK AO2
8A0,2/13/16 20:15,35.6,15.8,43.95,310,6,0.0,30.39,M,10.0,M,CLR,M,M,M,M,M,M,M,M,M,M,M,M,M,M,29.87,K8A0 132015Z AUTO 31006KT 10SM CLR 02/M09 A3039 RMK AO2
8A0,2/13/16 20:35,35.6,14.0,40.63,310,7,0.0,30.38,M,10.0,M,CLR,M,M,M,M,M,M,M,M,M,M,M,M,M,M,29.17,K8A0 132035Z AUTO 31007KT 10SM CLR 02/M10 A3038 RMK AO2
8A0,2/13/16 20:55,35.6,14.0,40.63,310,5,0.0,30.37,M,10.0,M,CLR,M,M,M,M,M,M,M,M,M,M,M,M,M,M,30.67,K8A0 132055Z AUTO 31005KT 10SM CLR 02/M10 A3037 RMK AO2
8A0,2/13/16 21:15,35.6,14.0,40.63,320,7,0.0,30.38,M,10.0,M,CLR,M,M,M,M,M,M,M,M,M,M,M,M,M,M,29.17,K8A0 132115Z AUTO 32007KT 10SM CLR 02/M10 A3038 RMK AO2
8A0,2/13/16 21:35,35.6,14.0,40.63,320,11,0.0,30.38,M,10.0,14,CLR,M,M,M,M,M,M,M,M,M,M,M,M,M,M,27.02,K8A0 132135Z AUTO 32011G14KT 289V349 10SM CLR 02/M10 A3038 RMK AO2
8A0,2/13/16 21:55,35.6,14.0,40.63,340,10,0.0,30.38,M,10.0,M,CLR,M,M,M,M,M,M,M,M,M,M,M,M,M,M,27.48,K8A0 132155Z AUTO 34010KT 10SM CLR 02/M10 A3038 RMK AO2
8A0,2/13/16 22:15,35.6,14.0,40.63,320,9,0.0,30.38,M,10.0,M,CLR,M,M,M,M,M,M,M,M,M,M,M,M,M,M,27.99,K8A0 132215Z AUTO 32009KT 10SM CLR 02/M10 A3038 RMK AO2
8A0,2/13/16 22:35,33.8,14.0,43.65,340,8,0.0,30.38,M,10.0,M,CLR,M,M,M,M,M,M,M,M,M,M,M,M,M,M,26.33,K8A0 132235Z AUTO 34008KT 10SM CLR 01/M10 A3038 RMK AO2
8A0,2/13/16 22:55,33.8,12.2,40.32,320,9,0.0,30.38,M,10.0,M,CLR,M,M,M,M,M,M,M,M,M,M,M,M,M,M,25.75,K8A0 132255Z AUTO 32009KT 10SM CLR 01/M11 A3038 RMK AO2
8A0,2/13/16 23:15,33.8,14.0,43.65,330,9,0.0,30.38,M,10.0,M,CLR,M,M,M,M,M,M,M,M,M,M,M,M,M,M,25.75,K8A0 132315Z AUTO 33009KT 10SM CLR 01/M10 A3038 RMK AO2
8A0,2/13/16 23:35,32.0,14.0,46.92,340,6,0.0,30.39,M,10.0,M,CLR,M,M,M,M,M,M,M,M,M,M,M,M,M,M,25.53,K8A0 132335Z AUTO 34006KT 10SM CLR 00/M10 A3039 RMK AO2
8A0,2/13/16 23:55,32.0,14.0,46.92,330,7,0.0,30.39,M,10.0,M,CLR,M,M,M,M,M,M,M,M,M,M,M,M,M,M,24.78,K8A0 132355Z AUTO 33007KT 10SM CLR 00/M10 A3039 RMK AO2
8A0,2/14/16 0:15,32.0,14.0,46.92,340,4,0.0,30.4,M,10.0,M,CLR,M,M,M,M,M,M,M,M,M,M,M,M,M,M,27.42,K8A0 140015Z AUTO 34004KT 10SM CLR 00/M10 A3040 RMK AO2
8A0,2/14/16 0:35,32.0,14.0,46.92,350,6,0.0,30.4,M,10.0,M,CLR,M,M,M,M,M,M,M,M,M,M,M,M,M,M,25.53,K8A0 140035Z AUTO 35006KT 10SM CLR 00/M10 A3040 RMK AO2
8A0,2/14/16 0:55,32.0,14.0,46.92,320,4,0.0,30.41,M,10.0,M,CLR,M,M,M,M,M,M,M,M,M,M,M,M,M,M,27.42,K8A0 140055Z AUTO 32004KT 10SM CLR 00/M10 A3041 RMK AO2
8A0,2/14/16 1:15,30.2,15.8,54.59,10,5,0.0,30.4,M,10.0,M,CLR,M,M,M,M,M,M,M,M,M,M,M,M,M,M,24.26,K8A0 140115Z AUTO 01005KT 10SM CLR M01/M09 A3040 RMK AO2
8A0,2/14/16 1:35,30.2,14.0,50.47,350,6,0.0,30.4,M,10.0,M,CLR,M,M,M,M,M,M,M,M,M,M,M,M,M,M,23.36,K8A0 140135Z AUTO 35006KT 10SM CLR M01/M10 A3040 RMK AO2
8A0,2/14/16 1:55,30.2,15.8,54.59,360,6,0.0,30.39,M,10.0,M,CLR,M,M,M,M,M,M,M,M,M,M,M,M,M,M,23.36,K8A0 140155Z AUTO 36006KT 10SM CLR M01/M09 A3039 RMK AO2
8A0,2/14/16 2:15,30.2,15.8,54.59,20,6,0.0,30.38,M,10.0,M,CLR,M,M,M,M,M,M,M,M,M,M,M,M,M,M,23.36,K8A0 140215Z AUTO 02006KT 10SM CLR M01/M09 A3038 RMK AO2
8A0,2/14/16 2:35,30.2,15.8,54.59,10,4,0.0,30.38,M,10.0,M,CLR,M,M,M,M,M,M,M,M,M,M,M,M,M,M,25.32,K8A0 140235Z AUTO 01004KT 10SM CLR M01/M09 A3038 RMK AO2
8A0,2/14/16 2:55,28.4,15.8,58.75,20,3,0.0,30.37,M,10.0,M,CLR,M,M,M,M,M,M,M,M,M,M,M,M,M,M,24.57,K8A0 140255Z AUTO 02003KT 10SM CLR M02/M09 A3037 RMK AO2
8A0,2/14/16 3:15,28.4,15.8,58.75,20,4,0.0,30.37,M,10.0,M,CLR,M,M,M,M,M,M,M,M,M,M,M,M,M,M,23.22,K8A0 140315Z AUTO 02004KT 10SM CLR M02/M09 A3037 RMK AO2
8A0,2/14/16 3:35,28.4,17.6,63.51,30,3,0.0,30.36,M,10.0,M,CLR,M,M,M,M,M,M,M,M,M,M,M,M,M,M,24.57,K8A0 140335Z AUTO 03003KT 10SM CLR M02/M08 A3036 RMK AO2
8A0,2/14/16 3:55,28.4,17.6,63.51,360,3,0.0,30.37,M,10.0,M,CLR,M,M,M,M,M,M,M,M,M,M,M,M,M,M,24.57,K8A0 140355Z AUTO 36003KT 10SM CLR M02/M08 A3037 RMK AO2
8A0,2/14/16 4:15,28.4,17.6,63.51,20,3,0.0,30.37,M,10.0,M,CLR,M,M,M,M,M,M,M,M,M,M,M,M,M,M,24.57,K8A0 140415Z AUTO 02003KT 10SM CLR M02/M08 A3037 RMK AO2
8A0,2/14/16 4:35,28.4,15.8,58.75,50,3,0.0,30.36,M,10.0,M,CLR,M,M,M,M,M,M,M,M,M,M,M,M,M,M,24.57,K8A0 140435Z AUTO 05003KT 10SM CLR M02/M09 A3036 RMK AO2
8A0,2/14/16 4:55,28.4,15.8,58.75,50,3,0.0,30.35,M,10.0,M,CLR,M,M,M,M,M,M,M,M,M,M,M,M,M,M,24.57,K8A0 140455Z AUTO 05003KT 10SM CLR M02/M09 A3035 RMK AO2
8A0,2/14/16 5:15,28.4,17.6,63.51,40,4,0.0,30.34,M,10.0,M,CLR,M,M,M,M,M,M,M,M,M,M,M,M,M,M,23.22,K8A0 140515Z AUTO 04004KT 10SM CLR M02/M08 A3034 RMK AO2
8A0,2/14/16 5:35,28.4,17.6,63.51,60,4,0.0,30.34,M,10.0,M,CLR,M,M,M,M,M,M,M,M,M,M,M,M,M,M,23.22,K8A0 140535Z AUTO 06004KT 10SM CLR M02/M08 A3034 RMK AO2
8A0,2/14/16 5:55,28.4,17.6,63.51,60,3,0.0,30.34,M,10.0,M,CLR,M,M,M,M,M,M,M,M,M,M,M,M,M,M,24.57,K8A0 140555Z AUTO 06003KT 10SM CLR M02/M08 A3034 RMK AO2
8A0,2/14/16 6:15,28.4,15.8,58.75,40,4,0.0,30.34,M,10.0,M,CLR,M,M,M,M,M,M,M,M,M,M,M,M,M,M,23.22,K8A0 140615Z AUTO 04004KT 10SM CLR M02/M09 A3034 RMK AO2
8A0,2/14/16 6:35,28.4,15.8,58.75,50,3,0.0,30.34,M,10.0,M,CLR,M,M,M,M,M,M,M,M,M,M,M,M,M,M,24.57,K8A0 140635Z AUTO 05003KT 10SM CLR M02/M09 A3034 RMK AO2
8A0,2/14/16 6:55,26.6,17.6,68.4,60,4,0.0,30.34,M,10.0,M,CLR,M,M,M,M,M,M,M,M,M,M,M,M,M,M,21.11,K8A0 140655Z AUTO 06004KT 10SM CLR M03/M08 A3034 RMK AO2
8A0,2/14/16 7:15,26.6,17.6,68.4,70,3,0.0,30.32,M,10.0,M,CLR,M,M,M,M,M,M,M,M,M,M,M,M,M,M,22.52,K8A0 140715Z AUTO 07003KT 10SM CLR M03/M08 A3032 RMK AO2
8A0,2/14/16 7:35,26.6,17.6,68.4,70,4,0.0,30.31,M,10.0,M,CLR,M,M,M,M,M,M,M,M,M,M,M,M,M,M,21.11,K8A0 140735Z AUTO 07004KT 10SM CLR M03/M08 A3031 RMK AO2
8A0,2/14/16 7:55,26.6,17.6,68.4,80,3,0.0,30.3,M,10.0,M,CLR,M,M,M,M,M,M,M,M,M,M,M,M,M,M,22.52,K8A0 140755Z AUTO 08003KT 10SM CLR M03/M08 A3030 RMK AO2
8A0,2/14/16 8:15,26.6,17.6,68.4,80,4,0.0,30.3,M,10.0,M,CLR,M,M,M,M,M,M,M,M,M,M,M,M,M,M,21.11,K8A0 140815Z AUTO 08004KT 10SM CLR M03/M08 A3030 RMK AO2
8A0,2/14/16 8:35,26.6,17.6,68.4,80,6,0.0,30.29,M,10.0,M,CLR,M,M,M,M,M,M,M,M,M,M,M,M,M,M,19.03,K8A0 140835Z AUTO 08006KT 10SM CLR M03/M08 A3029 RMK AO2
8A0,2/14/16 8:55,26.6,17.6,68.4,70,3,0.0,30.28,M,10.0,M,CLR,M,M,M,M,M,M,M,M,M,M,M,M,M,M,22.52,K8A0 140855Z AUTO 07003KT 10SM CLR M03/M08 A3028 RMK AO2
8A0,2/14/16 9:15,26.6,15.8,63.27,60,4,0.0,30.28,M,10.0,M,CLR,M,M,M,M,M,M,M,M,M,M,M,M,M,M,21.11,K8A0 140915Z AUTO 06004KT 10SM CLR M03/M09 A3028 RMK AO2
8A0,2/14/16 9:35,26.6,15.8,63.27,60,3,0.0,30.29,M,10.0,M,CLR,M,M,M,M,M,M,M,M,M,M,M,M,M,M,22.52,K8A0 140935Z AUTO 06003KT 10SM CLR M03/M09 A3029 RMK AO2
8A0,2/14/16 9:55,26.6,17.6,68.4,70,3,0.0,30.29,M,10.0,M,CLR,M,M,M,M,M,M,M,M,M,M,M,M,M,M,22.52,K8A0 140955Z AUTO 07003KT 10SM CLR M03/M08 A3029 RMK AO2
8A0,2/14/16 10:15,26.6,17.6,68.4,90,4,0.0,30.28,M,10.0,M,CLR,M,M,M,M,M,M,M,M,M,M,M,M,M,M,21.11,K8A0 141015Z AUTO 09004KT 10SM CLR M03/M08 A3028 RMK AO2
8A0,2/14/16 10:35,24.8,17.6,73.7,90,5,0.0,30.28,M,10.0,M,CLR,M,M,M,M,M,M,M,M,M,M,M,M,M,M,17.84,K8A0 141035Z AUTO 09005KT 10SM CLR M04/M08 A3028 RMK AO2
8A0,2/14/16 10:55,26.6,15.8,63.27,90,4,0.0,30.28,M,10.0,M,CLR,M,M,M,M,M,M,M,M,M,M,M,M,M,M,21.11,K8A0 141055Z AUTO 09004KT 10SM CLR M03/M09 A3028 RMK AO2
8A0,2/14/16 11:15,26.6,15.8,63.27,100,6,0.0,30.29,M,10.0,M,SCT,M,M,M,11000,M,M,M,M,M,M,M,M,M,M,19.03,K8A0 141115Z AUTO 10006KT 10SM SCT110 M03/M09 A3029 RMK AO2
8A0,2/14/16 11:35,26.6,14.0,58.49,90,7,0.0,30.29,M,10.0,M,CLR,M,M,M,M,M,M,M,M,M,M,M,M,M,M,18.2,K8A0 141135Z AUTO 09007KT 10SM CLR M03/M10 A3029 RMK AO2
8A0,2/14/16 11:55,26.6,14.0,58.49,90,6,0.0,30.3,M,10.0,M,CLR,M,M,M,M,M,M,M,M,M,M,M,M,M,M,19.03,K8A0 141155Z AUTO 09006KT 10SM CLR M03/M10 A3030 RMK AO2
8A0,2/14/16 12:15,26.6,14.0,58.49,90,5,0.0,30.31,M,10.0,M,CLR,M,M,M,M,M,M,M,M,M,M,M,M,M,M,19.98,K8A0 141215Z AUTO 09005KT 10SM CLR M03/M10 A3031 RMK AO2
8A0,2/14/16 12:35,26.6,14.0,58.49,100,4,0.0,30.31,M,10.0,M,CLR,M,M,M,M,M,M,M,M,M,M,M,M,M,M,21.11,K8A0 141235Z AUTO 10004KT 10SM CLR M03/M10 A3031 RMK AO2
8A0,2/14/16 12:55,26.6,15.8,63.27,100,5,0.0,30.31,M,10.0,M,CLR,M,M,M,M,M,M,M,M,M,M,M,M,M,M,19.98,K8A0 141255Z AUTO 10005KT 10SM CLR M03/M09 A3031 RMK AO2
8A0,2/14/16 13:15,26.6,14.0,58.49,110,6,0.0,30.3,M,10.0,M,SCT,M,M,M,7000,M,M,M,M,M,M,M,M,M,M,19.03,K8A0 141315Z AUTO 11006KT 10SM SCT070 M03/M10 A3030 RMK AO2
8A0,2/14/16 13:35,28.4,15.8,58.75,120,6,0.0,30.28,M,10.0,M,SCT,M,M,M,7000,M,M,M,M,M,M,M,M,M,M,21.19,K8A0 141335Z AUTO 12006KT 099V159 10SM SCT070 M02/M09 A3028 RMK AO2
8A0,2/14/16 13:55,30.2,15.8,54.59,110,8,0.0,30.28,M,10.0,M,OVC,M,M,M,7000,M,M,M,M,M,M,M,M,M,M,21.9,K8A0 141355Z AUTO 11008KT 079V139 10SM OVC070 M01/M09 A3028 RMK AO2
8A0,2/14/16 14:15,30.2,15.8,54.59,130,7,0.0,30.27,M,10.0,M,SCT,OVC,M,M,6000,7000,M,M,M,M,M,M,M,M,M,22.59,K8A0 141415Z AUTO 13007KT 10SM SCT060 OVC070 M01/M09 A3027 RMK AO2
8A0,2/14/16 14:35,30.2,15.8,54.59,130,7,0.0,30.26,M,10.0,16,OVC,M,M,M,7000,M,M,M,M,M,M,M,M,M,M,22.59,K8A0 141435Z AUTO 13007G16KT 089V149 10SM OVC070 M01/M09 A3026 RMK AO2
8A0,2/14/16 14:55,32.0,17.6,54.87,150,8,0.0,30.26,M,10.0,16,OVC,M,M,M,7000,M,M,M,M,M,M,M,M,M,M,24.11,K8A0 141455Z AUTO 15008G16KT 10SM OVC070 00/M08 A3026 RMK AO2
8A0,2/14/16 15:15,32.0,17.6,54.87,140,9,0.0,30.24,M,10.0,M,OVC,M,M,M,8000,M,M,M,M,M,M,M,M,M,M,23.51,K8A0 141515Z AUTO 14009KT 10SM OVC080 00/M08 A3024 RMK AO2
8A0,2/14/16 15:35,32.0,17.6,54.87,140,9,0.0,30.23,M,10.0,15,OVC,M,M,M,8000,M,M,M,M,M,M,M,M,M,M,23.51,K8A0 141535Z AUTO 14009G15KT 109V169 10SM OVC080 00/M08 A3023 RMK AO2
8A0,2/14/16 15:55,32.0,17.6,54.87,120,5,0.0,30.25,M,10.0,M,BKN,M,M,M,8000,M,M,M,M,M,M,M,M,M,M,26.4,K8A0 141555Z AUTO 12005KT 10SM BKN080 00/M08 A3025 RMK AO2
8A0,2/14/16 16:15,35.6,19.4,51.33,110,7,0.0,30.26,M,10.0,M,CLR,M,M,M,M,M,M,M,M,M,M,M,M,M,M,29.17,K8A0 141615Z AUTO 11007KT 10SM CLR 02/M07 A3026 RMK AO2
8A0,2/14/16 16:35,35.6,19.4,51.33,130,6,0.0,30.26,M,10.0,M,BKN,M,M,M,7500,M,M,M,M,M,M,M,M,M,M,29.87,K8A0 141635Z AUTO 13006KT 099V169 10SM BKN075 02/M07 A3026 RMK AO2
8A0,2/14/16 16:55,35.6,19.4,51.33,120,6,0.0,30.25,M,10.0,M,OVC,M,M,M,7500,M,M,M,M,M,M,M,M,M,M,29.87,K8A0 141655Z AUTO 12006KT 10SM OVC075 02/M07 A3025 RMK AO2
8A0,2/14/16 17:15,37.4,21.2,51.61,150,7,0.0,30.23,M,10.0,M,SCT,OVC,M,M,4600,7500,M,M,M,M,M,M,M,M,M,31.36,K8A0 141715Z AUTO 15007KT 10SM SCT046 OVC075 03/M06 A3023 RMK AO2
8A0,2/14/16 17:35,39.2,21.2,48.1,140,6,0.0,30.22,M,10.0,M,BKN,OVC,M,M,4600,7500,M,M,M,M,M,M,M,M,M,34.2,K8A0 141735Z AUTO 14006KT 10SM BKN046 OVC075 04/M06 A3022 RMK AO2
8A0,2/14/16 17:55,41.0,21.2,44.85,150,6,0.0,30.2,M,10.0,M,SCT,SCT,OVC,M,4600,5500,7500,M,M,M,M,M,M,M,M,36.37,K8A0 141755Z AUTO 15006KT 119V189 10SM SCT046 SCT055 OVC075 05/M06 A3020 RMK AO2
8A0,2/14/16 18:15,42.8,21.2,41.84,130,9,0.0,30.19,M,10.0,14,BKN,OVC,M,M,5000,7500,M,M,M,M,M,M,M,M,M,36.94,K8A0 141815Z AUTO 13009G14KT 10SM BKN050 OVC075 06/M06 A3019 RMK AO2
8A0,2/14/16 18:35,44.6,21.2,39.06,140,6,0.0,30.17,M,10.0,M,OVC,M,M,M,5000,M,M,M,M,M,M,M,M,M,M,40.71,K8A0 141835Z AUTO 14006KT 10SM OVC050 07/M06 A3017 RMK AO2
8A0,2/14/16 18:55,44.6,21.2,39.06,150,7,0.0,30.15,M,10.0,M,OVC,M,M,M,4800,M,M,M,M,M,M,M,M,M,M,40.14,K8A0 141855Z AUTO 15007KT 10SM OVC048 07/M06 A3015 RMK AO2
8A0,2/14/16 19:15,44.6,21.2,39.06,170,6,0.0,30.15,M,10.0,M,OVC,M,M,M,4400,M,M,M,M,M,M,M,M,M,M,40.71,K8A0 141915Z AUTO 17006KT 10SM OVC044 07/M06 A3015 RMK AO2
8A0,2/14/16 19:35,46.4,21.2,36.48,160,8,0.0,30.14,M,10.0,M,SCT,OVC,M,M,4400,5000,M,M,M,M,M,M,M,M,M,41.85,K8A0 141935Z AUTO 16008KT 129V199 10SM SCT044 OVC050 08/M06 A3014 RMK AO2
8A0,2/14/16 19:55,46.4,21.2,36.48,140,6,0.0,30.14,M,10.0,M,OVC,M,M,M,5000,M,M,M,M,M,M,M,M,M,M,42.87,K8A0 141955Z AUTO 14006KT 10SM OVC050 08/M06 A3014 RMK AO2
8A0,2/14/16 20:15,46.4,21.2,36.48,150,10,0.0,30.13,M,10.0,M,SCT,OVC,M,M,4300,5000,M,M,M,M,M,M,M,M,M,41.03,K8A0 142015Z AUTO 15010KT 10SM SCT043 OVC050 08/M06 A3013 RMK AO2
8A0,2/14/16 20:35,46.4,21.2,36.48,170,7,0.0,30.12,M,7.0,M,BKN,OVC,M,M,4100,4800,M,M,M,M,M,M,M,M,M,42.33,K8A0 142035Z AUTO 17007KT 139V199 7SM BKN041 OVC048 08/M06 A3012 RMK AO2
8A0,2/14/16 20:55,46.4,21.2,36.48,160,7,0.0,30.12,M,7.0,M,OVC,M,M,M,4100,M,M,M,M,M,M,M,M,M,M,42.33,K8A0 142055Z AUTO 16007KT 7SM OVC041 08/M06 A3012 RMK AO2
8A0,2/14/16 21:35,46.4,21.2,36.48,150,4,0.0,30.1,M,10.0,M,BKN,OVC,M,M,4300,5500,M,M,M,M,M,M,M,M,M,44.24,K8A0 142135Z AUTO 15004KT 10SM BKN043 OVC055 08/M06 A3010 RMK AO2
8A0,2/14/16 21:55,46.4,21.2,36.48,150,7,0.0,30.09,M,10.0,M,OVC,M,M,M,4100,M,M,M,M,M,M,M,M,M,M,42.33,K8A0 142155Z AUTO 15007KT 10SM OVC041 08/M06 A3009 RMK AO2
8A0,2/14/16 22:15,46.4,23.0,39.36,150,6,0.0,30.09,M,10.0,M,BKN,BKN,OVC,M,3800,5000,6500,M,M,M,M,M,M,M,M,42.87,K8A0 142215Z AUTO 15006KT 10SM BKN038 BKN050 OVC065 08/M05 A3009 RMK AO2
8A0,2/14/16 22:35,46.4,23.0,39.36,150,8,0.0,30.09,M,10.0,M,BKN,OVC,M,M,3800,4800,M,M,M,M,M,M,M,M,M,41.85,K8A0 142235Z AUTO 15008KT 10SM BKN038 OVC048 08/M05 A3009 RMK AO2
8A0,2/14/16 22:55,46.4,23.0,39.36,140,7,0.0,30.09,M,10.0,M,BKN,BKN,OVC,M,3800,4700,5500,M,M,M,M,M,M,M,M,42.33,K8A0 142255Z AUTO 14007KT 10SM BKN038 BKN047 OVC055 08/M05 A3009 RMK AO2
8A0,2/14/16 23:15,46.4,23.0,39.36,160,5,0.0,30.11,M,10.0,M,OVC,M,M,M,3800,M,M,M,M,M,M,M,M,M,M,43.5,K8A0 142315Z AUTO 16005KT 10SM OVC038 08/M05 A3011 RMK AO2
8A0,2/14/16 23:35,46.4,24.8,42.44,140,6,0.0,30.09,M,10.0,M,SCT,SCT,OVC,M,3800,4800,7500,M,M,M,M,M,M,M,M,42.87,K8A0 142335Z AUTO 14006KT 089V159 10SM SCT038 SCT048 OVC075 08/M04 A3009 RMK AO2
8A0,2/14/16 23:55,46.4,24.8,42.44,130,5,0.0,30.09,M,10.0,M,OVC,M,M,M,7500,M,M,M,M,M,M,M,M,M,M,43.5,K8A0 142355Z AUTO 13005KT 10SM OVC075 08/M04 A3009 RMK AO2
8A0,2/15/16 0:15,46.4,26.6,45.73,140,6,0.0,30.09,M,10.0,M,SCT,OVC,M,M,7500,8500,M,M,M,M,M,M,M,M,M,42.87,K8A0 150015Z AUTO 14006KT 10SM SCT075 OVC085 08/M03 A3009 RMK AO2
8A0,2/15/16 0:35,46.4,26.6,45.73,120,6,0.0,30.09,M,10.0,M,SCT,OVC,M,M,7000,8500,M,M,M,M,M,M,M,M,M,42.87,K8A0 150035Z AUTO 12006KT 10SM SCT070 OVC085 08/M03 A3009 RMK AO2
8A0,2/15/16 0:55,46.4,26.6,45.73,130,8,0.0,30.09,M,10.0,M,SCT,OVC,M,M,7000,8500,M,M,M,M,M,M,M,M,M,41.85,K8A0 150055Z AUTO 13008KT 089V149 10SM SCT070 OVC085 08/M03 A3009 RMK AO2
8A0,2/15/16 1:15,46.4,26.6,45.73,130,6,0.0,30.09,M,10.0,M,BKN,BKN,OVC,M,7000,7500,8500,M,M,M,M,M,M,M,M,42.87,K8A0 150115Z AUTO 13006KT 10SM BKN070 BKN075 OVC085 08/M03 A3009 RMK AO2
8A0,2/15/16 1:35,46.4,26.6,45.73,140,6,0.0,30.08,M,10.0,M,SCT,SCT,OVC,M,6500,7500,8500,M,M,M,M,M,M,M,M,42.87,K8A0 150135Z AUTO 14006KT 099V169 10SM SCT065 SCT075 OVC085 08/M03 A3008 RMK AO2
8A0,2/15/16 1:55,46.4,26.6,45.73,150,6,0.0,30.09,M,10.0,M,SCT,BKN,OVC,M,6500,7000,9500,M,M,M,M,M,M,M,M,42.87,K8A0 150155Z AUTO 15006KT 10SM SCT065 BKN070 OVC095 08/M03 A3009 RMK AO2
8A0,2/15/16 2:15,46.4,28.4,49.24,150,8,0.0,30.09,M,10.0,M,SCT,BKN,OVC,M,6000,7500,9500,M,M,M,M,M,M,M,M,41.85,K8A0 150215Z AUTO 15008KT 10SM SCT060 BKN075 OVC095 08/M02 A3009 RMK AO2
8A0,2/15/16 2:35,46.4,28.4,49.24,160,5,0.0,30.09,M,10.0,M,BKN,OVC,M,M,6000,9500,M,M,M,M,M,M,M,M,M,43.5,K8A0 150235Z AUTO 16005KT 10SM BKN060 OVC095 08/M02 A3009 RMK AO2
8A0,2/15/16 2:55,46.4,30.2,53.0,160,7,0.0,30.12,M,10.0,M,OVC,M,M,M,6000,M,M,M,M,M,M,M,M,M,M,42.33,K8A0 150255Z AUTO 16007KT 10SM OVC060 08/M01 A3012 RMK AO2
8A0,2/15/16 3:15,46.4,30.2,53.0,150,6,0.0,30.11,M,10.0,M,SCT,BKN,OVC,M,6000,7000,8000,M,#NAME?,M,M,M,M,M,M,42.87,K8A0 150315Z AUTO 15006KT 10SM -RA SCT060 BKN070 OVC080 08/M01 A3011 RMK AO2
8A0,2/15/16 3:35,46.4,30.2,53.0,140,5,0.0,30.11,M,10.0,M,BKN,OVC,M,M,6000,9000,M,M,M,M,M,M,M,M,M,43.5,K8A0 150335Z AUTO 14005KT 10SM BKN060 OVC090 08/M01 A3011 RMK AO2
8A0,2/15/16 3:55,46.4,30.2,53.0,170,6,0.0,30.14,M,10.0,M,OVC,M,M,M,6500,M,M,M,#NAME?,M,M,M,M,M,M,42.87,K8A0 150355Z AUTO 17006KT 10SM -DZ OVC065 08/M01 A3014 RMK AO2
8A0,2/15/16 4:15,44.6,32.0,61.03,150,6,0.0,30.13,M,10.0,M,OVC,M,M,M,6000,M,M,M,#NAME?,M,M,M,M,M,M,40.71,K8A0 150415Z AUTO 15006KT 10SM -RA OVC060 07/00 A3013 RMK AO2
8A0,2/15/16 4:35,44.6,33.8,65.61,130,7,0.0,30.11,M,10.0,M,OVC,M,M,M,6000,M,M,M,#NAME?,M,M,M,M,M,M,40.14,K8A0 150435Z AUTO 13007KT 10SM -RA OVC060 07/01 A3011 RMK AO2
8A0,2/15/16 4:55,44.6,33.8,65.61,140,6,0.0,30.1,M,10.0,M,OVC,M,M,M,5500,M,M,M,M,M,M,M,M,M,M,40.71,K8A0 150455Z AUTO 14006KT 099V169 10SM OVC055 07/01 A3010 RMK AO2
8A0,2/15/16 5:15,44.6,33.8,65.61,130,10,0.0,30.09,M,10.0,16,OVC,M,M,M,5000,M,M,M,M,M,M,M,M,M,M,38.77,K8A0 150515Z AUTO 13010G16KT 099V159 10SM OVC050 07/01 A3009 RMK AO2
8A0,2/15/16 5:35,44.6,33.8,65.61,140,11,0.0,30.08,M,10.0,16,OVC,M,M,M,5000,M,M,M,M,M,M,M,M,M,M,38.39,K8A0 150535Z AUTO 14011G16KT 10SM OVC050 07/01 A3008 RMK AO2 LTG DSNT NW
8A0,2/15/16 5:55,44.6,33.8,65.61,140,9,0.0,30.08,M,10.0,15,SCT,BKN,OVC,M,3600,5000,10000,M,M,M,M,M,M,M,M,39.18,K8A0 150555Z AUTO 14009G15KT 119V179 10SM SCT036 BKN050 OVC100 07/01 A3008 RMK AO2
8A0,2/15/16 6:15,44.6,33.8,65.61,130,9,0.0,30.06,M,10.0,20,SCT,BKN,BKN,M,3600,5000,10000,M,M,M,M,M,M,M,M,39.18,K8A0 150615Z AUTO 13009G20KT 10SM SCT036 BKN050 BKN100 07/01 A3006 RMK AO2 LTG DSNT NW
8A0,2/15/16 6:35,44.6,33.8,65.61,120,7,0.0,30.06,M,10.0,17,SCT,SCT,SCT,M,3600,4600,5000,M,M,M,M,M,M,M,M,40.14,K8A0 150635Z AUTO 12007G17KT 10SM SCT036 SCT046 SCT050 07/01 A3006 RMK AO2
8A0,2/15/16 6:55,44.6,33.8,65.61,130,13,0.0,30.04,M,10.0,19,BKN,OVC,M,M,3600,5000,M,M,M,M,M,M,M,M,M,37.71,K8A0 150655Z AUTO 13013G19KT 119V179 10SM BKN036 OVC050 07/01 A3004 RMK AO2
8A0,2/15/16 7:15,44.6,33.8,65.61,140,7,0.0,30.04,M,10.0,18,BKN,OVC,M,M,3800,5000,M,M,M,M,M,M,M,M,M,40.14,K8A0 150715Z AUTO 14007G18KT 10SM BKN038 OVC050 07/01 A3004 RMK AO2
8A0,2/15/16 7:35,44.6,33.8,65.61,140,8,0.0,30.03,M,10.0,18,OVC,M,M,M,3800,M,M,M,M,M,M,M,M,M,M,39.63,K8A0 150735Z AUTO 14008G18KT 10SM OVC038 07/01 A3003 RMK AO2
8A0,2/15/16 7:55,44.6,35.6,70.48,150,8,0.0,30.03,M,10.0,14,OVC,M,M,M,3800,M,M,M,M,M,M,M,M,M,M,39.63,K8A0 150755Z AUTO 15008G14KT 10SM OVC038 07/02 A3003 RMK AO2
8A0,2/15/16 8:15,44.6,35.6,70.48,140,6,0.0,30.02,M,10.0,M,OVC,M,M,M,3800,M,M,M,M,M,M,M,M,M,M,40.71,K8A0 150815Z AUTO 14006KT 10SM OVC038 07/02 A3002 RMK AO2
8A0,2/15/16 8:35,42.8,35.6,75.5,150,6,0.0,30.01,M,10.0,14,BKN,OVC,M,M,3800,10000,M,M,M,M,M,M,M,M,M,38.54,K8A0 150835Z AUTO 15006G14KT 10SM BKN038 OVC100 06/02 A3001 RMK AO2
8A0,2/15/16 8:55,42.8,35.6,75.5,140,5,0.0,30.02,M,10.0,16,SCT,BKN,OVC,M,3800,6500,10000,M,M,M,M,M,M,M,M,39.22,K8A0 150855Z AUTO 14005G16KT 10SM SCT038 BKN065 OVC100 06/02 A3002 RMK AO2 LTG DSNT NW
8A0,2/15/16 9:15,42.8,35.6,75.5,150,8,0.0,30.01,M,10.0,15,OVC,M,M,M,3600,M,M,M,M,M,M,M,M,M,M,37.42,K8A0 150915Z AUTO 15008G15KT 10SM OVC036 06/02 A3001 RMK AO2
8A0,2/15/16 9:35,42.8,35.6,75.5,150,8,0.0,30.02,M,10.0,M,OVC,M,M,M,3600,M,M,M,M,M,M,M,M,M,M,37.42,K8A0 150935Z AUTO 15008KT 109V189 10SM OVC036 06/02 A3002 RMK AO2
8A0,2/15/16 9:55,42.8,37.4,81.07,150,8,0.0,30.01,M,10.0,16,OVC,M,M,M,3900,M,M,M,#NAME?,M,M,M,M,M,M,37.42,K8A0 150955Z AUTO 15008G16KT 109V189 10SM -DZ OVC039 06/03 A3001 RMK AO2
8A0,2/15/16 10:15,42.8,39.2,86.99,130,7,0.0,30.01,M,10.0,M,BKN,OVC,M,M,3300,4100,M,M,#NAME?,M,M,M,M,M,M,37.94,K8A0 151015Z AUTO 13007KT 10SM -RA BKN033 OVC041 06/04 A3001 RMK AO2
8A0,2/15/16 10:35,41.0,39.2,93.24,160,5,0.0,30.01,M,10.0,M,OVC,M,M,M,3100,M,M,M,DZ,M,M,M,M,M,M,37.08,K8A0 151035Z AUTO 16005KT 10SM DZ OVC031 05/04 A3001 RMK AO2
8A0,2/15/16 10:55,41.0,39.2,93.24,150,7,0.0,30.01,M,10.0,14,OVC,M,M,M,2900,M,M,M,RA,M,M,M,M,M,M,35.75,K8A0 151055Z AUTO 15007G14KT 109V179 10SM RA OVC029 05/04 A3001 RMK AO2
8A0,2/15/16 11:15,39.2,39.2,100.0,120,6,0.02,30.01,M,4.0,M,OVC,M,M,M,2900,M,M,M,RA,M,M,M,M,M,M,34.2,K8A0 151115Z AUTO 12006KT 4SM RA OVC029 04/04 A3001 RMK AO2 P0002
8A0,2/15/16 11:35,37.4,37.4,100.0,120,7,0.04,30.0,M,7.0,M,OVC,M,M,M,2900,M,M,M,#NAME?,M,M,M,M,M,M,31.36,K8A0 151135Z AUTO 12007KT 089V179 7SM -RA OVC029 03/03 A3000 RMK AO2 P0004
8A0,2/15/16 11:55,37.4,37.4,100.0,130,7,0.06,30.0,M,7.0,M,OVC,M,M,M,2900,M,M,M,RA,M,M,M,M,M,M,31.36,K8A0 151155Z AUTO 13007KT 7SM RA OVC029 03/03 A3000 RMK AO2 P0006
8A0,2/15/16 12:15,37.4,37.4,100.0,100,7,0.01,29.99,M,10.0,M,SCT,OVC,M,M,2800,3300,M,M,#NAME?,M,M,M,M,M,M,31.36,K8A0 151215Z AUTO 10007KT 069V139 10SM -RA SCT028 OVC033 03/03 A2999 RMK AO2 P0001 LTG DSNT SW
8A0,2/15/16 12:35,37.4,37.4,100.0,120,7,0.02,29.99,M,10.0,M,SCT,BKN,OVC,M,3300,4500,6000,M,#NAME?,M,M,M,M,M,M,31.36,K8A0 151235Z AUTO 12007KT 099V159 10SM -RA SCT033 BKN045 OVC060 03/03 A2999 RMK AO2 P0002 LTG DSNT W
8A0,2/15/16 12:55,37.4,37.4,100.0,120,7,0.02,29.99,M,10.0,M,SCT,BKN,OVC,M,3100,3800,4700,M,M,M,M,M,M,M,M,31.36,K8A0 151255Z AUTO 12007KT 069V139 10SM SCT031 BKN038 OVC047 03/03 A2999 RMK AO2 P0002 LTG DSNT W AND NW
8A0,2/15/16 13:15,39.2,39.2,100.0,140,7,0.0,30.0,M,10.0,M,OVC,M,M,M,3100,M,M,M,M,M,M,M,M,M,M,33.56,K8A0 151315Z AUTO 14007KT 10SM OVC031 04/04 A3000 RMK AO2 LTG DSNT W
8A0,2/15/16 13:35,39.2,39.2,100.0,130,11,0.0,29.98,M,7.0,16,SCT,OVC,M,M,900,3100,M,M,M,M,M,M,M,M,M,31.57,K8A0 151335Z AUTO 13011G16KT 099V159 7SM SCT009 OVC031 04/04 A2998 RMK AO2 LTG DSNT W
8A0,2/15/16 13:55,39.2,39.2,100.0,110,9,0.0,29.98,M,7.0,17,BKN,OVC,M,M,900,3100,M,M,M,M,M,M,M,M,M,32.47,K8A0 151355Z AUTO 11009G17KT 069V139 7SM BKN009 OVC031 04/04 A2998 RMK AO2 LTG DSNT W
8A0,2/15/16 14:15,41.0,41.0,100.0,120,11,0.0,29.99,M,7.0,17,OVC,M,M,M,700,M,M,M,VCTS,M,M,M,M,M,M,33.84,K8A0 151415Z AUTO 12011G17KT 089V159 7SM VCTS OVC007 05/05 A2999 RMK AO2 LTG DSNT W
8A0,2/15/16 14:35,41.0,41.0,100.0,140,10,0.0,29.98,M,5.0,17,OVC,M,M,M,700,M,M,M,BR,M,M,M,M,M,M,34.25,K8A0 151435Z AUTO 14010G17KT 5SM BR OVC007 05/05 A2998 RMK AO2
8A0,2/15/16 14:55,41.0,41.0,100.0,140,6,0.0,29.98,M,5.0,16,OVC,M,M,M,700,M,M,M,#NAME?,M,M,M,M,M,M,36.37,K8A0 151455Z AUTO 14006G16KT 5SM -RA OVC007 05/05 A2998 RMK AO2 LTG DSNT W THRU NE
8A0,2/15/16 15:15,41.0,41.0,100.0,130,6,0.0,29.98,M,5.0,M,OVC,M,M,M,500,M,M,M,#NAME?,M,M,M,M,M,M,36.37,K8A0 151515Z AUTO 13006KT 5SM -VCTSRA OVC005 05/05 A2998 RMK AO2 LTG DSNT W
8A0,2/15/16 15:35,41.0,41.0,100.0,110,8,0.0,29.97,M,5.0,M,OVC,M,M,M,500,M,M,M,VCTS BR,M,M,M,M,M,M,35.2,K8A0 151535Z AUTO 11008KT 5SM VCTS BR OVC005 05/05 A2997 RMK AO2 LTG DSNT NE
8A0,2/15/16 15:55,41.0,41.0,100.0,120,5,0.0,29.96,M,4.0,M,OVC,M,M,M,500,M,M,M,BR,M,M,M,M,M,M,37.08,K8A0 151555Z AUTO 12005KT 4SM BR OVC005 05/05 A2996 RMK AO2 LTG DSNT NE AND SW
8A0,2/15/16 16:15,42.8,42.8,100.0,10,5,0.0,29.98,M,4.0,M,OVC,M,M,M,500,M,M,M,#NAME?,M,M,M,M,M,M,39.22,K8A0 151615Z AUTO 01005KT 4SM -RA OVC005 06/06 A2998 RMK AO2 LTG DSNT SW
8A0,2/15/16 16:35,41.0,41.0,100.0,0,0,0.07,29.99,M,1.5,M,BKN,OVC,M,M,500,1100,M,M,RA,M,M,M,M,M,M,41.0,K8A0 151635Z AUTO 00000KT 1 1/2SM RA BKN005 OVC011 05/05 A2999 RMK AO2 P0007
8A0,2/15/16 16:55,41.0,41.0,100.0,110,6,0.14,29.95,M,1.5,M,BKN,OVC,M,M,800,1500,M,M,#NAME?,M,M,M,M,M,M,36.37,K8A0 151655Z AUTO 11006KT 1 1/2SM -RA BKN008 OVC015 05/05 A2995 RMK AO2 P0014
8A0,2/15/16 17:15,41.0,41.0,100.0,110,7,0.0,29.93,M,3.0,M,SCT,BKN,OVC,M,300,900,1500,M,RA,M,M,M,M,M,M,35.75,K8A0 151715Z AUTO 11007KT 3SM RA SCT003 BKN009 OVC015 05/05 A2993 RMK AO2 LTG DSNT SW AND W
8A0,2/15/16 17:35,41.0,41.0,100.0,120,7,0.0,29.91,M,5.0,M,BKN,OVC,M,M,500,900,M,M,BR,M,M,M,M,M,M,35.75,K8A0 151735Z AUTO 12007KT 079V159 5SM BR BKN005 OVC009 05/05 A2991 RMK AO2
8A0,2/15/16 17:55,41.0,41.0,100.0,110,8,0.0,29.89,M,2.5,14,OVC,M,M,M,300,M,M,M,#NAME?,M,M,M,M,M,M,35.2,K8A0 151755Z AUTO 11008G14KT 2 1/2SM -RA OVC003 05/05 A2989 RMK AO2 LTG DSNT NE AND SW
8A0,2/15/16 18:15,42.8,42.8,100.0,120,7,0.01,29.87,M,3.0,15,OVC,M,M,M,300,M,M,M,RA,M,M,M,M,M,M,37.94,K8A0 151815Z AUTO 12007G15KT 3SM RA OVC003 06/06 A2987 RMK AO2 P0001
8A0,2/15/16 18:35,42.8,42.8,100.0,120,6,0.03,29.86,M,3.0,M,OVC,M,M,M,300,M,M,M,RA,M,M,M,M,M,M,38.54,K8A0 151835Z AUTO 12006KT 3SM RA OVC003 06/06 A2986 RMK AO2 P0003 LTG DSNT NE
8A0,2/15/16 18:55,42.8,42.8,100.0,120,7,0.08,29.83,M,2.0,M,OVC,M,M,M,500,M,M,M,RA,M,M,M,M,M,M,37.94,K8A0 151855Z AUTO 12007KT 089V149 2SM RA OVC005 06/06 A2983 RMK AO2 P0008
8A0,2/15/16 19:15,44.6,44.6,100.0,110,8,0.0,29.8,M,5.0,18,BKN,OVC,M,M,300,700,M,M,#NAME?,M,M,M,M,M,M,39.63,K8A0 151915Z AUTO 11008G18KT 5SM -RA BKN003 OVC007 07/07 A2980 RMK AO2 LTG DSNT W
8A0,2/15/16 19:35,44.6,44.6,100.0,120,9,0.01,29.78,M,7.0,18,OVC,M,M,M,300,M,M,M,RA,M,M,M,M,M,M,39.18,K8A0 151935Z AUTO 12009G18KT 089V149 7SM RA OVC003 07/07 A2978 RMK AO2 P0001
8A0,2/15/16 19:55,44.6,44.6,100.0,110,8,0.02,29.75,M,5.0,17,OVC,M,M,M,300,M,M,M,#NAME?,M,M,M,M,M,M,39.63,K8A0 151955Z AUTO 11008G17KT 059V149 5SM -RA OVC003 07/07 A2975 RMK AO2 P0002
8A0,2/15/16 20:15,44.6,44.6,100.0,130,10,0.0,29.76,M,10.0,17,OVC,M,M,M,300,M,M,M,M,M,M,M,M,M,M,38.77,K8A0 152015Z AUTO 13010G17KT 10SM OVC003 07/07 A2976 RMK AO2 LTG DSNT W
8A0,2/15/16 20:35,44.6,44.6,100.0,120,12,0.01,29.73,M,4.0,21,OVC,M,M,M,300,M,M,M,#NAME?,M,M,M,M,M,M,38.04,K8A0 152035Z AUTO 12012G21KT 049V149 4SM -RA OVC003 07/07 A2973 RMK AO2 P0001 LTG DSNT W
8A0,2/15/16 20:55,44.6,44.6,100.0,120,10,0.03,29.72,M,3.0,18,OVC,M,M,M,300,M,M,M,RA,M,M,M,M,M,M,38.77,K8A0 152055Z AUTO 12010G18KT 3SM RA OVC003 07/07 A2972 RMK AO2 P0003
8A0,2/15/16 21:15,42.8,42.8,100.0,130,9,0.02,29.71,M,3.0,18,OVC,M,M,M,300,M,M,M,RA,M,M,M,M,M,M,36.94,K8A0 152115Z AUTO 13009G18KT 079V159 3SM RA OVC003 06/06 A2971 RMK AO2 P0002 LTG DSNT S
8A0,2/15/16 21:35,42.8,42.8,100.0,110,8,0.03,29.67,M,4.0,22,OVC,M,M,M,300,M,M,M,#NAME?,M,M,M,M,M,M,37.42,K8A0 152135Z AUTO 11008G22KT 079V149 4SM -RA OVC003 06/06 A2967 RMK AO2 P0003
8A0,2/15/16 21:55,42.8,42.8,100.0,110,10,0.03,29.66,M,7.0,18,BKN,OVC,M,M,500,900,M,M,#NAME?,M,M,M,M,M,M,36.51,K8A0 152155Z AUTO 11010G18KT 7SM -RA BKN005 OVC009 06/06 A2966 RMK AO2 P0003
8A0,2/15/16 22:15,42.8,42.8,100.0,130,8,0.01,29.67,M,7.0,19,OVC,M,M,M,500,M,M,M,RA,M,M,M,M,M,M,37.42,K8A0 152215Z AUTO 13008G19KT 099V209 7SM RA OVC005 06/06 A2967 RMK AO2 P0001
8A0,2/15/16 22:35,42.8,42.8,100.0,120,11,0.04,29.65,M,3.0,19,OVC,M,M,M,500,M,M,M,RA,M,M,M,M,M,M,36.11,K8A0 152235Z AUTO 12011G19KT 3SM RA OVC005 06/06 A2965 RMK AO2 P0004
8A0,2/15/16 22:55,42.8,42.8,100.0,110,12,0.06,29.62,M,5.0,24,BKN,BKN,OVC,M,500,2800,7000,M,#NAME?,M,M,M,M,M,M,35.75,K8A0 152255Z AUTO 11012G24KT 089V149 5SM -RA BKN005 BKN028 OVC070 06/06 A2962 RMK AO2 P0006 LTG DSNT SW
8A0,2/15/16 23:15,42.8,42.8,100.0,130,13,0.05,29.64,M,2.5,18,BKN,BKN,OVC,M,500,1100,7000,M,RA,M,M,M,M,M,M,35.4,K8A0 152315Z AUTO 13013G18KT 2 1/2SM RA BKN005 BKN011 OVC070 06/06 A2964 RMK AO2 P0005
8A0,2/15/16 23:35,44.6,44.6,100.0,210,8,0.29,29.7,M,0.75,M,BKN,BKN,OVC,M,500,1200,1600,M,UP,M,M,M,M,M,M,39.63,K8A0 152335Z AUTO 21008KT 3/4SM UP BKN005 BKN012 OVC016 07/07 A2970 RMK AO2 P0029
8A0,2/15/16 23:55,46.4,46.4,100.0,180,3,0.44,29.68,M,1.5,M,BKN,BKN,OVC,M,1800,2300,2800,M,UP,M,M,M,M,M,M,45.15,K8A0 152355Z AUTO 18003KT 1 1/2SM UP BKN018 BKN023 OVC028 08/08 A2968 RMK AO2 P0044
8A0,2/16/16 0:15,46.4,46.4,100.0,120,5,0.04,29.65,M,1.5,M,BKN,BKN,OVC,M,1900,2700,3400,M,UP,M,M,M,M,M,M,43.5,K8A0 160015Z AUTO 12005KT 1 1/2SM UP BKN019 BKN027 OVC034 08/08 A2965 RMK AO2 P0004
8A0,2/16/16 0:35,48.2,48.2,100.0,130,4,0.11,29.64,M,3.0,M,SCT,BKN,OVC,M,2000,2700,4800,M,#NAME?,M,M,M,M,M,M,46.34,K8A0 160035Z AUTO 13004KT 3SM +RA SCT020 BKN027 OVC048 09/09 A2964 RMK AO2 P0011
8A0,2/16/16 0:55,48.2,48.2,100.0,120,5,0.14,29.64,M,4.0,M,SCT,BKN,OVC,M,2300,3000,4900,M,#NAME?,M,M,M,M,M,M,45.63,K8A0 160055Z AUTO 12005KT 4SM +RA SCT
